RES_NAME,ADDRESS,CATEGORY,POLENO,HEIGHT,POLE,BRACKET,BRACKETSZ,BRACKETNO,LUMINAIRE1,LAMP_1,LUMINAIRE2,LAMP_2,LUMINAIRE3,LAMP_3,LUMINAIRE4,LAMP_4,LUMINAIRE5,LAMP_5,LUMINAIRE6,LAMP_6,LUMINAIRE7,LAMP_7,lat,long
Bulleen Park,175-189 Bulleen Rd Bulleen Victoria 3105 Australia,Sporting (Oval), ,14,Steel Pole,Pole Mounted, ,Double,Floodlight,Unknown,Floodlight,Unknown,Floodlight,Unknown,Floodlight,Unknown,Floodlight,Unknown, , , , ,-37.773354,145.071474
Bulleen Park,175-189 Bulleen Rd Bulleen Victoria 3105 Australia,Sporting (Oval), ,14,Steel Pole,Pole Mounted, ,Double,Floodlight,Unknown,Floodlight,Unknown,Floodlight,Unknown,Floodlight,Unknown,Floodlight,Unknown,Floodlight,Unknown, , ,-37.773813,145.072742
Bulleen Park,175-189 Bulleen Rd Bulleen Victoria 3105 Australia,Sporting (Soccer), ,7,Concrete Pole,Pole Mounted, ,Double,Floodlight,Unknown,Floodlight,Unknown, , , , , , , , , , ,-37.774412,145.073896
Bulleen Park,175-189 Bulleen Rd Bulleen Victoria 3105 Australia,Sporting (Oval), ,13,Steel Pole,Pole Mounted, ,Double,Floodlight,Unknown,Floodlight,Unknown,Floodlight,Unknown,Floodlight,Unknown, , , , , , ,-37.774264,145.073921
Bulleen Park,175-189 Bulleen Rd Bulleen Victoria 3105 Australia,Sporting (Soccer), ,7,Concrete Pole,Pole Mounted, ,Double,Floodlight,Unknown,Floodlight,Unknown, , , , , , , , , , ,-37.775044,145.074961
Bulleen Park,175-189 Bulleen Rd Bulleen Victoria 3105 Australia,Sporting (Oval), ,13,Steel Pole,Pole Mounted, ,Double,Floodlight,Unknown,Floodlight,Unknown,Floodlight,Unknown,Floodlight,Unknown, , , , , , ,-37.773586,145.074416
Bulleen Park,175-189 Bulleen Rd Bulleen Victoria 3105 Australia,Sporting (Soccer), ,7,Concrete Pole,Pole Mounted, ,Double,Floodlight,Unknown,Floodlight,Unknown, , , , , , , , , , ,-37.773689,145.074577
Bulleen Park,175-189 Bulleen Rd Bulleen Victoria 3105 Australia,Walking, ,5,Steel Pole,Pole Bracket,Medium,Single,Bourke Hill LED,LED 25W, , , , , , , , , , , , ,-37.774848,145.075236
Bulleen Park,175-189 Bulleen Rd Bulleen Victoria 3105 Australia,Walking, ,5,Steel Pole,Pole Bracket,Medium,Single,Bourke Hill LED,LED 25W, , , , , , , , , , , , ,-37.774624,145.075489
Bulleen Park,175-189 Bulleen Rd Bulleen Victoria 3105 Australia,Sporting (Soccer), ,7,Concrete Pole,Pole Mounted, ,Double,Floodlight,Unknown,Floodlight,Unknown, , , , , , , , , , ,-37.774395,145.075599
Bulleen Park,175-189 Bulleen Rd Bulleen Victoria 3105 Australia,Walking, ,5,Steel Pole,Pole Bracket,Medium,Single,Bourke Hill LED,LED 25W, , , , , , , , , , , , ,-37.774434,145.075838
Bulleen Park,175-189 Bulleen Rd Bulleen Victoria 3105 Australia,Car Parking, ,5,Steel Pole,Pole Bracket,Medium,Single,Bourke Hill LED,LED 25W, , , , , , , , , , , , ,-37.77475,145.076206
Bulleen Park,175-189 Bulleen Rd Bulleen Victoria 3105 Australia,Car Parking, ,5,Steel Pole,Pole Bracket,Medium,Single,Bourke Hill LED,LED 25W, , , , , , , , , , , , ,-37.774508,145.076116
Bulleen Park,175-189 Bulleen Rd Bulleen Victoria 3105 Australia,Walking, ,5,Steel Pole,Pole Mounted,Medium,Single,Bourke Hill LED,LED 25W, , , , , , , , , , , , ,-37.774337,145.076176
Bulleen Park,175-189 Bulleen Rd Bulleen Victoria 3105 Australia,Sporting (Oval), ,13,Steel Pole,Pole Mounted, ,Multiple,Floodlight,Unknown,Floodlight,Unknown,Floodlight,Unknown,Floodlight,Unknown,Floodlight,Unknown,Floodlight,Unknown, , ,-37.774787,145.076941
Bulleen Park,175-189 Bulleen Rd Bulleen Victoria 3105 Australia,Walking, ,5,Steel Pole,Pole Bracket,Medium,Single,Bourke Hill LED,LED 25W, , , , , , , , , , , , ,-37.774242,145.076441
Bulleen Park,175-189 Bulleen Rd Bulleen Victoria 3105 Australia,Sporting (Oval), ,13,Steel Pole,Pole Mounted, ,Multiple,Floodlight,Unknown,Floodlight,Unknown,Floodlight,Unknown,Floodlight,Unknown,Floodlight,Unknown,Floodlight,Unknown, , ,-37.773778,145.077066
Bulleen Park,175-189 Bulleen Rd Bulleen Victoria 3105 Australia,Sporting (Oval), ,13,Steel Pole,Pole Mounted, ,Multiple,Floodlight,Unknown,Floodlight,Unknown,Floodlight,Unknown,Floodlight,Unknown,Floodlight,Unknown,Floodlight,Unknown, , ,-37.774925,145.078208
Bulleen Park,175-189 Bulleen Rd Bulleen Victoria 3105 Australia,Sporting (Oval), ,13,Steel Pole,Pole Mounted, ,Multiple,Floodlight,Unknown,Floodlight,Unknown,Floodlight,Unknown,Floodlight,Unknown,Floodlight,Unknown,Floodlight,Unknown, , ,-37.773798,145.078387
Bulleen Park,175-189 Bulleen Rd Bulleen Victoria 3105 Australia,Sporting (Oval), ,14,Steel Pole,Pole Mounted, ,Double,Floodlight,Unknown,Floodlight,Unknown,Floodlight,Unknown,Floodlight,Unknown,Floodlight,Unknown, , , , ,-37.772537,145.072273
Bulleen Park,175-189 Bulleen Rd Bulleen Victoria 3105 Australia,Sporting (Oval), ,14,Steel Pole,Pole Mounted, ,Double,Floodlight,Unknown,Floodlight,Unknown,Floodlight,Unknown,Floodlight,Unknown,Floodlight,Unknown, , , , ,-37.77306,145.073137
Bulleen Park,175-189 Bulleen Rd Bulleen Victoria 3105 Australia,Sporting (Oval), ,13,Steel Pole,Pole Mounted, ,Double,Floodlight,Unknown,Floodlight,Unknown,Floodlight,Unknown,Floodlight,Unknown, , , , , , ,-37.7731,145.073437
Koonung Creek Linear Park,11 Kampman St Victoria 3105 Australia,Park/Reserve,7070429,7,Timber Pole,No bracket, , ,Night Watchman / Spotlight,Merc Vap 250W, , , , , , , , , , , , ,-37.779257,145.086679
Koonung Creek Linear Park,11 Kampman St Victoria 3105 Australia,Car Parking,7070409,7,Timber Pole,No bracket, , ,Night Watchman / Spotlight,Merc Vap 400W, , , , , , , , , , , , ,-37.777732,145.087609
Koonung Creek Linear Park,11 Kampman St Victoria 3105 Australia,Sporting (Oval), ,7,Timber Pole,Pole Mounted,Small,Single,Floodlight,Unknown, , , , , , , , , , , , ,-37.777951,145.088106
Koonung Creek Linear Park,11 Kampman St Victoria 3105 Australia,Sporting (Oval), ,7,Timber Pole,No bracket, , ,Floodlight,Unknown, , , , , , , , , , , , ,-37.778333,145.088507
Koonung Creek Linear Park,11 Kampman St Victoria 3105 Australia,Sporting (Oval), ,7,Timber Pole,No bracket, , ,Floodlight,Unknown, , , , , , , , , , , , ,-37.779096,145.088516
Koonung Creek Linear Park,11 Kampman St Victoria 3105 Australia,Sporting (Oval), ,7,Concrete Pole,No bracket, , ,Floodlight,Unknown, , , , , , , , , , , , ,-37.778697,145.08858
Koonung Creek Linear Park,37 Furneaux Grove Victoria 3105 Australia,Sporting (Tennis Court), ,15,Steel Pole,No bracket, , ,Floodlight,Unknown, , , , , , , , , , , , ,-37.778243,145.088514
Koonung Creek Linear Park,37 Furneaux Grove Victoria 3105 Australia,Sporting (Tennis Court), ,15,Steel Pole,No bracket, , ,Floodlight,Unknown, , , , , , , , , , , , ,-37.777927,145.088553
Koonung Creek Linear Park,37 Furneaux Grove Victoria 3105 Australia,Sporting (Tennis Court), ,15,Steel Pole,No bracket, , ,Floodlight,Unknown, , , , , , , , , , , , ,-37.778308,145.088922
Koonung Creek Linear Park,37 Furneaux Grove Victoria 3105 Australia,Sporting (Tennis Court), ,12,Steel Pole,No bracket, , ,Floodlight,Unknown, , , , , , , , , , , , ,-37.777941,145.088945
Yarraleen Reserve,3 Ridout Pl Victoria 3105 Australia,Walking, ,5,Steel Pole (Solar),Pole Mounted,Medium,Single,Toorak or similar,Unknown, , , , , , , , , , , , ,-37.77202,145.090353
Yarraleen Reserve,3 Ridout Pl Victoria 3105 Australia,Walking, ,5,Steel Pole (Solar),Pole Mounted,Medium,Single,Toorak or similar,Unknown, , , , , , , , , , , , ,-37.771052,145.089809
Yarraleen Reserve,3 Ridout Pl Victoria 3105 Australia,Walking, ,5,Steel Pole (Solar),Pole Mounted,Medium,Single,Toorak or similar,Unknown, , , , , , , , , , , , ,-37.77071,145.089617
Yarraleen Reserve,3 Ridout Pl Victoria 3105 Australia,Walking, ,5,Steel Pole (Solar),Pole Mounted,Medium,Single,Toorak or similar,Unknown, , , , , , , , , , , , ,-37.770367,145.089537
Pedestrian path between houses,23 Warringal St Victoria 3105 Australia,Walking, ,1,Bollard,No bracket, ,Single,Bollard (Vinic),Unknown, , , , , , , , , , , , ,-37.7615,145.090085
Pedestrian path between houses,23 Warringal St Victoria 3105 Australia,Walking, ,1,Bollard,No bracket, ,Single,Bollard (Vinic),Unknown, , , , , , , , , , , , ,-37.76141,145.090073
Pedestrian path between houses,23 Warringal St Victoria 3105 Australia,Walking, ,1,Bollard,No bracket, ,Single,Bollard (Vinic),Unknown, , , , , , , , , , , , ,-37.76136,145.090104
Pedestrian path between houses,23 Warringal St Victoria 3105 Australia,Walking, ,1,Bollard,No bracket, ,Single,Bollard (Vinic),Unknown, , , , , , , , , , , , ,-37.761257,145.090112
Park Avenue Reserve,7 Gregory Ct Victoria 3108 Australia,Sporting (Soccer), ,20,Steel Pole,Pole Mounted,Small,Double,Floodlight,Unknown,Floodlight,Unknown, , , , , , , , , , ,-37.785025,145.100618
Park Avenue Reserve,7 Gregory Ct Victoria 3108 Australia,Sporting (Soccer), ,20,Steel Pole,Pole Mounted,Small,Double,Floodlight,Unknown,Floodlight,Unknown, , , , , , , , , , ,-37.78445,145.10042
Park Avenue Reserve,15 Park Ave Victoria 3108 Australia,Car Parking, ,9,Steel Pole,Pole Bracket,Medium,Single,Sylvania Urban,HP Sodium 100W, , , , , , , , , , , , ,-37.785197,145.101411
Park Avenue Reserve,7 Gregory Ct Victoria 3108 Australia,Sporting (Soccer), ,13,Concrete Pole,Pole Mounted,Small,Double,Floodlight,Unknown,Floodlight,Unknown, , , , , , , , , , ,-37.784925,145.101357
Park Avenue Reserve,15 Park Ave Victoria 3108 Australia,Car Parking, ,9,Steel Pole,Pole Bracket,Medium,Single,Sylvania Urban,HP Sodium 100W, , , , , , , , , , , , ,-37.784854,145.101321
Park Avenue Reserve,7 Gregory Ct Victoria 3108 Australia,Sporting (Soccer), ,13,Concrete Pole,Pole Mounted,Small,Double,Floodlight,Unknown,Floodlight,Unknown, , , , , , , , , , ,-37.78429,145.101169
Wilson Road Reserve,15 Santiago St Victoria 3108 Australia,Sporting (Oval), ,20,Steel Pole,Pole Mounted,Small,Double,Floodlight,Unknown,Floodlight,Unknown, , , , , , , , , , ,-37.792219,145.109749
Wilson Road Reserve,15 Santiago St Victoria 3108 Australia,Sporting (Oval), ,20,Steel Pole,Pole Mounted,Small,Double,Floodlight,Unknown,Floodlight,Unknown, , , , , , , , , , ,-37.791884,145.110779
Wilson Road Reserve,15 Santiago St Victoria 3108 Australia,Sporting (Oval), ,20,Steel Pole,Pole Mounted,Small,Double,Floodlight,Unknown,Floodlight,Unknown, , , , , , , , , , ,-37.791273,145.109472
Wilson Road Reserve,15 Santiago St Victoria 3108 Australia,Sporting (Oval), ,20,Steel Pole,Pole Mounted,Small,Double,Floodlight,Unknown,Floodlight,Unknown, , , , , , , , , , ,-37.791175,145.110581
Carpark in front of Honda,61-63 Carawatha Rd Victoria 3108 Australia,Car Parking,7055166,7,Concrete Pole,No bracket, , ,Night Watchman / Spotlight,Merc Vap 400W, , , , , , , , , , , , ,-37.789007,145.121589
Hodgson Park Reserve,261-263 Thompsons Rd Victoria 3107 Australia,Walking,2988,5.5,Steel Pole,Pole Bracket,Small,Single,LRL NXT-24S,LED 41W, , , , , , , , , , , , ,-37.766954,145.103888
Timber Ridge Reserve,6-20 Anthony Ave Victoria 3108 Australia,Sporting (Oval), ,15,Concrete Pole,Pole Mounted,Small,Double,Floodlight,Unknown,Floodlight,Unknown, , , , , , , , , , ,-37.776395,145.106032
Timber Ridge Reserve,6-20 Anthony Ave Victoria 3108 Australia,Sporting (Oval), ,15,Concrete Pole,Pole Mounted,Small,Double,Floodlight,Unknown,Floodlight,Unknown, , , , , , , , , , ,-37.777067,145.106864
Timber Ridge Reserve,6-20 Anthony Ave Victoria 3108 Australia,Sporting (Oval), ,15,Concrete Pole,Pole Mounted,Small,Double,Floodlight,Unknown,Floodlight,Unknown, , , , , , , , , , ,-37.776446,145.107786
Timber Ridge Reserve,6-20 Anthony Ave Victoria 3108 Australia,Sporting (Oval), ,15,Concrete Pole,Pole Mounted,Small,Double,Floodlight,Unknown,Floodlight,Unknown, , , , , , , , , , ,-37.775653,145.106962
Timber Ridge Reserve,6-20 Anthony Ave Victoria 3108 Australia,Car Parking,7204,5.5,Steel Pole,Pole Bracket,Small,Single,LRL NXT-24S,LED 41W, , , , , , , , , , , , ,-37.775466,145.107264
Timber Ridge Reserve,6-20 Anthony Ave Victoria 3108 Australia,Car Parking,7203,5.5,Steel Pole,Pole Bracket,Small,Single,LRL NXT-24S,LED 41W, , , , , , , , , , , , ,-37.775496,145.107577
Timber Ridge Reserve,6-20 Anthony Ave Victoria 3108 Australia,Car Parking,7202,5.5,Steel Pole,Pole Bracket,Small,Single,LRL NXT-24S,LED 41W, , , , , , , , , , , , ,-37.775312,145.107691
Timber Ridge Reserve,6-20 Anthony Ave Victoria 3108 Australia,Car Parking,7201,5.5,Steel Pole,Pole Bracket,Small,Single,LRL NXT-24S,LED 41W, , , , , , , , , , , , ,-37.775085,145.107793
Ted Ajani Reserve,284-302 Thompsons Rd Victoria 3107 Australia,Sporting (Oval), ,14.5,Concrete Pole,Pole Mounted,Small,Double,Floodlight,Unknown,Floodlight,Unknown, , , , , , , , , , ,-37.769066,145.105684
Ted Ajani Reserve,282 Thompsons Rd Victoria 3107 Australia,Car Parking, ,6,Steel Pole,Pole Bracket,Small,Single,Sylvania StreetLED,LED 18W, , , , , , , , , , , , ,-37.768022,145.105263
Ted Ajani Reserve,282 Thompsons Rd Victoria 3107 Australia,Car Parking, ,6,Steel Pole,Pole Bracket,Small,Single,Sylvania StreetLED,LED 18W, , , , , , , , , , , , ,-37.768128,145.105378
Ted Ajani Reserve,282 Thompsons Rd Victoria 3107 Australia,Car Parking, ,6,Steel Pole,Pole Bracket,Small,Single,Sylvania StreetLED,LED 18W, , , , , , , , , , , , ,-37.767851,145.105346
Ted Ajani Reserve,282 Thompsons Rd Victoria 3107 Australia,Car Parking, ,6,Steel Pole,Pole Bracket,Small,Single,Sylvania StreetLED,LED 18W, , , , , , , , , , , , ,-37.767673,145.10538
Ted Ajani Reserve,282 Thompsons Rd Victoria 3107 Australia,Car Parking,3993,6,Steel Pole,Pole Bracket,Small,Single,Sylvania B2224,Merc Vap 80W, , , , , , , , , , , , ,-37.767247,145.105398
Ted Ajani Reserve,282 Thompsons Rd Victoria 3107 Australia,Car Parking,3995,6.5,Steel Pole,Pole Bracket,Small,Single,LRL NXT-24S,LED 41W, , , , , , , , , , , , ,-37.767821,145.105437
Ted Ajani Reserve,284-302 Thompsons Rd Victoria 3107 Australia,Car Parking, ,10.5,Steel Pole,Pole Mounted,Large,Double,Sylvania Roadster,HP Sodium 250W,Sylvania Roadster,HP Sodium 250W, , , , , , , , , , ,-37.767841,145.105645
Ted Ajani Reserve,284-302 Thompsons Rd Victoria 3107 Australia,Sporting (Oval), ,14.5,Steel Pole,Pole Mounted,Small,Double,Floodlight,Unknown,Floodlight,Unknown, , , , , , , , , , ,-37.768024,145.105894
Ted Ajani Reserve,284-302 Thompsons Rd Victoria 3107 Australia,Car Parking, ,10.5,Steel Pole,Pole Mounted,Large,Double,Sylvania Roadster,HP Sodium 150W,Sylvania Roadster,HP Sodium 150W, , , , , , , , , , ,-37.767696,145.105794
Ted Ajani Reserve,282 Thompsons Rd Victoria 3107 Australia,Car Parking, ,6,Steel Pole,Pole Bracket,Small,Single,Sylvania StreetLED,LED 18W, , , , , , , , , , , , ,-37.767452,145.105411
Ted Ajani Reserve,282 Thompsons Rd Victoria 3107 Australia,Car Parking,3994,6.5,Steel Pole,Pole Bracket,Small,Single,LRL NXT-24S,LED 41W, , , , , , , , , , , , ,-37.767544,145.105501
Ted Ajani Reserve,282 Thompsons Rd Victoria 3107 Australia,Car Parking,3991/3992,6.5,Steel Pole,Pole Bracket,Small,Double,LRL NXT-24S,LED 41W,LRL NXT-24S,LED 41W, , , , , , , , , , ,-37.767383,145.105635
Ted Ajani Reserve,284-302 Thompsons Rd Victoria 3107 Australia,Sporting (Oval), ,14.5,Steel Pole,Pole Mounted,Small,Multiple,Floodlight,Unknown,Floodlight,Unknown,Floodlight,Unknown, , , , , , , , ,-37.769138,145.106448
Ted Ajani Reserve,282 Thompsons Rd Victoria 3107 Australia,Car Parking,3989/3990,6.5,Steel Pole,Pole Bracket,Small,Double,LRL NXT-24S,LED 41W,LRL NXT-24S,LED 41W, , , , , , , , , , ,-37.767423,145.105975
Ajani Reserve,304 Thompsons Rd Victoria 3107 Australia,Sporting (Tennis Court), ,7.5,Steel Pole,No bracket, , ,Shoebox,Unknown, , , , , , , , , , , , ,-37.767445,145.106413
Ajani Reserve,304 Thompsons Rd Victoria 3107 Australia,Sporting (Tennis Court), ,8,Steel Pole,No bracket, , ,Shoebox,Unknown, , , , , , , , , , , , ,-37.767864,145.106671
Ted Ajani Reserve,284-302 Thompsons Rd Victoria 3107 Australia,Sporting (Oval), ,14.5,Steel Pole,Pole Mounted,Small,Double,Floodlight,Unknown,Floodlight,Unknown, , , , , , , , , , ,-37.767963,145.10682
Ajani Reserve,304 Thompsons Rd Victoria 3107 Australia,Sporting (Tennis Court), ,8,Steel Pole,No bracket, , ,Shoebox,Unknown, , , , , , , , , , , , ,-37.767761,145.106688
Ajani Reserve,304 Thompsons Rd Victoria 3107 Australia,Sporting (Tennis Court), ,8,Steel Pole,Pole Mounted,Medium,Double,Shoebox,Unknown,Shoebox,Unknown, , , , , , , , , , ,-37.767915,145.106846
Ajani Reserve,304 Thompsons Rd Victoria 3107 Australia,Sporting (Tennis Court), ,8,Steel Pole,Pole Mounted,Medium,Double,Shoebox,Unknown,Shoebox,Unknown, , , , , , , , , , ,-37.767775,145.106857
Ajani Reserve,304 Thompsons Rd Victoria 3107 Australia,Sporting (Tennis Court), ,7.5,Steel Pole,Pole Bracket,Medium,Double,Shoebox,Unknown,Shoebox,Unknown, , , , , , , , , , ,-37.767492,145.106596
Ajani Reserve,304 Thompsons Rd Victoria 3107 Australia,Sporting (Tennis Court), ,7.5,Steel Pole,No bracket, , ,Shoebox,Unknown, , , , , , , , , , , , ,-37.767339,145.106432
Ajani Reserve,304 Thompsons Rd Victoria 3107 Australia,Sporting (Tennis Court), ,7.5,Steel Pole,No bracket, , ,Shoebox,Unknown, , , , , , , , , , , , ,-37.767233,145.106443
Ajani Reserve,304 Thompsons Rd Victoria 3107 Australia,Sporting (Tennis Court), ,7.5,Steel Pole,No bracket, , ,Shoebox,Unknown,Shoebox,Unknown, , , , , , , , , , ,-37.767354,145.106609
Ajani Reserve,304 Thompsons Rd Victoria 3107 Australia,Sporting (Tennis Court), ,7.5,Steel Pole,Pole Bracket,Medium,Double,Shoebox,Unknown,Shoebox,Unknown, , , , , , , , , , ,-37.76721,145.106636
Ajani Reserve,304 Thompsons Rd Victoria 3107 Australia,Sporting (Tennis Court), ,7,Steel Pole,Pole Bracket,Medium,Double,Shoebox,Unknown,Shoebox,Unknown, , , , , , , , , , ,-37.767181,145.106684
Ajani Reserve,304 Thompsons Rd Victoria 3107 Australia,Sporting (Tennis Court), ,8,Steel Pole,No bracket, , ,Shoebox,Unknown, , , , , , , , , , , , ,-37.767648,145.1067
Ajani Reserve,304 Thompsons Rd Victoria 3107 Australia,Sporting (Tennis Court), ,7.5,Steel Pole,Pole Bracket,Medium,Single,Shoebox,Unknown, , , , , , , , , , , , ,-37.767513,145.106794
Ajani Reserve,304 Thompsons Rd Victoria 3107 Australia,Sporting (Tennis Court), ,7.5,Steel Pole,No bracket, , ,Shoebox,Unknown,Shoebox,Unknown, , , , , , , , , , ,-37.767473,145.10677
Ajani Reserve,304 Thompsons Rd Victoria 3107 Australia,Sporting (Tennis Court), ,8,Steel Pole,Pole Mounted,Small,Double,Shoebox,Unknown,Shoebox,Unknown, , , , , , , , , , ,-37.767636,145.106888
Ajani Reserve,304 Thompsons Rd Victoria 3107 Australia,Sporting (Tennis Court), ,7.5,Steel Pole,No bracket, , ,Shoebox,Unknown,Shoebox,Unknown, , , , , , , , , , ,-37.767358,145.106784
Ajani Reserve,304 Thompsons Rd Victoria 3107 Australia,Sporting (Tennis Court), ,7.5,Steel Pole,No bracket, , ,Shoebox,Unknown,Shoebox,Unknown, , , , , , , , , , ,-37.767259,145.106794
Ajani Reserve,304 Thompsons Rd Victoria 3107 Australia,Sporting (Tennis Court), ,7.5,Steel Pole,Pole Bracket,Medium,Single,Shoebox,Unknown, , , , , , , , , , , , ,-37.767399,145.106818
Ajani Reserve,304 Thompsons Rd Victoria 3107 Australia,Sporting (Tennis Court), ,7.5,Steel Pole,Pole Bracket,Medium,Single,Shoebox,Unknown, , , , , , , , , , , , ,-37.767251,145.106838
Ajani Reserve,304 Thompsons Rd Victoria 3107 Australia,Sporting (Tennis Court), ,7,Steel Pole,Pole Bracket,Medium,Single,Shoebox,Unknown, , , , , , , , , , , , ,-37.767119,145.106491
Ajani Reserve,304 Thompsons Rd Victoria 3107 Australia,Sporting (Tennis Court), ,7,Steel Pole,Pole Bracket,Medium,Single,Shoebox,Unknown, , , , , , , , , , , , ,-37.767033,145.106523
Ajani Reserve,304 Thompsons Rd Victoria 3107 Australia,Sporting (Tennis Court), ,7,Steel Pole,Pole Bracket,Medium,Single,Shoebox,Unknown, , , , , , , , , , , , ,-37.766903,145.106515
Ajani Reserve,304 Thompsons Rd Victoria 3107 Australia,Sporting (Tennis Court), ,7,Steel Pole,Pole Bracket,Medium,Double,Shoebox,Unknown,Shoebox,Unknown, , , , , , , , , , ,-37.767021,145.106694
Ajani Reserve,304 Thompsons Rd Victoria 3107 Australia,Sporting (Tennis Court), ,7,Steel Pole,Pole Bracket,Medium,Single,Shoebox,Unknown, , , , , , , , , , , , ,-37.767141,145.106855
Ajani Reserve,304 Thompsons Rd Victoria 3107 Australia,Sporting (Tennis Court), ,7,Steel Pole,Pole Bracket,Medium,Single,Shoebox,Unknown, , , , , , , , , , , , ,-37.767024,145.106879
Ajani Reserve,304 Thompsons Rd Victoria 3107 Australia,Sporting (Tennis Court), ,7,Steel Pole,Pole Bracket,Medium,Single,Shoebox,Unknown, , , , , , , , , , , , ,-37.766926,145.106877
Ajani Reserve,304 Thompsons Rd Victoria 3107 Australia,Sporting (Tennis Court), ,7,Steel Pole,Pole Bracket,Medium,Double,Shoebox,Unknown,Shoebox,Unknown, , , , , , , , , , ,-37.766888,145.106704
Ted Ajani Reserve,15 David Rd Victoria 3107 Australia,Car Parking,9833297,8,Timber Pole,Pole Mounted,Small,Single,Night Watchman / Spotlight,Unknown, , , , , , , , , , , , ,-37.766805,145.106791
Ted Ajani Reserve,284-302 Thompsons Rd Victoria 3107 Australia,Sporting (Oval), ,14.5,Concrete Pole,Pole Mounted,Small,Double,Floodlight,Unknown,Floodlight,Unknown, , , , , , , , , , ,-37.768889,145.107083
Ajani Reserve,304 Thompsons Rd Victoria 3107 Australia,Sporting (Tennis Court), ,8,Steel Pole,No bracket, , ,Shoebox,Unknown, , , , , , , , , , , , ,-37.76789,145.107018
Ajani Reserve,304 Thompsons Rd Victoria 3107 Australia,Sporting (Tennis Court), ,8,Steel Pole,No bracket, , ,Shoebox,Unknown, , , , , , , , , , , , ,-37.767787,145.107027
Ajani Reserve,304 Thompsons Rd Victoria 3107 Australia,Sporting (Tennis Court), ,8,Steel Pole,No bracket, , ,Shoebox,Unknown, , , , , , , , , , , , ,-37.767677,145.107046
Ajani Reserve,304 Thompsons Rd Victoria 3107 Australia,Sporting (Tennis Court), ,7.5,Steel Pole,Pole Bracket,Medium,Double,Shoebox,Unknown,Shoebox,Unknown, , , , , , , , , , ,-37.767549,145.106966
Ajani Reserve,304 Thompsons Rd Victoria 3107 Australia,Sporting (Tennis Court), ,7.5,Steel Pole,Pole Bracket,Medium,Single,Shoebox,Unknown, , , , , , , , , , , , ,-37.767547,145.107159
Ajani Reserve,304 Thompsons Rd Victoria 3107 Australia,Sporting (Tennis Court), ,7.5,Steel Pole,Pole Bracket,Medium,Double,Shoebox,Unknown,Shoebox,Unknown, , , , , , , , , , ,-37.767401,145.106983
Ajani Reserve,304 Thompsons Rd Victoria 3107 Australia,Sporting (Tennis Court), ,7.5,Steel Pole,Pole Bracket,Medium,Double,Shoebox,Unknown,Shoebox,Unknown, , , , , , , , , , ,-37.767256,145.107018
Ajani Reserve,304 Thompsons Rd Victoria 3107 Australia,Sporting (Tennis Court), ,7.5,Steel Pole,Pole Bracket,Medium,Single,Shoebox,Unknown, , , , , , , , , , , , ,-37.767416,145.107172
Ajani Reserve,304 Thompsons Rd Victoria 3107 Australia,Sporting (Tennis Court), ,7.5,Steel Pole,Pole Bracket,Medium,Double,Shoebox,Unknown,Shoebox,Unknown, , , , , , , , , , ,-37.76727,145.107167
Aldi's Carpark,293 Manningham Rd Victoria 3107 Australia,Car Parking, ,10,Steel Pole,Pole Bracket,Large,Single,Sylvania Roadster,HP Sodium 150W, , , , , , , , , , , , ,-37.773155,145.111473
Aldi's Carpark,293 Manningham Rd Victoria 3107 Australia,Car Parking, ,10,Steel Pole,Pole Bracket,Large,Single,Sylvania Roadster,HP Sodium 150W, , , , , , , , , , , , ,-37.773039,145.111497
Aldi's Carpark,293 Manningham Rd Victoria 3107 Australia,Car Parking, ,10,Steel Pole,Pole Bracket,Large,Single,Sylvania Roadster,HP Sodium 150W, , , , , , , , , , , , ,-37.772892,145.111527
Swanston Reserve,109 Swanston St Victoria 3107 Australia,Walking,7068937,5.5,Steel Pole,Pole Bracket,Small,Single,LRL NXT-24S,LED 41W, , , , , , , , , , , , ,-37.762412,145.099234
Swanston Reserve,109 Swanston St Victoria 3107 Australia,Walking,7068936,5.5,Steel Pole,Pole Bracket,Small,Single,LRL NXT-24S,LED 41W, , , , , , , , , , , , ,-37.762099,145.09908
Swanston Reserve,109 Swanston St Victoria 3107 Australia,Walking,7068937,5.5,Steel Pole,Pole Bracket,Small,Single,LRL NXT-24S,LED 41W, , , , , , , , , , , , ,-37.762361,145.099812
Gertrude Reserve,Gertrude Street Victoria 3107 Australia,Walking,7068709,5.5,Steel Pole,Pole Bracket,Small,Double,LRL NXT-24S,LED 41W,LRL NXT-24S,LED 41W, , , , , , , , , , ,-37.764969,145.101216
Doncaster Melaleuca Lodge,371 Manningham Rd Victoria 3108 Australia,Car Parking,9820706,5,Steel Pole,Pole Bracket,Small,Single,LRL NXT-24S,LED 41W, , , , , , , , , , , , ,-37.775544,145.11767
Doncaster Melaleuca Lodge,346 Manningham Rd Victoria 3108 Australia,Car Parking, ,2.2,Steel Pole,Pole Mounted,Small,Single,Decorative,Unknown, , , , , , , , , , , , ,-37.776207,145.118611
Doncaster Melaleuca Lodge,383-395 Manningham Rd Victoria 3108 Australia,Car Parking, ,0.5,Bollard,No bracket, , ,Bollard (We-ef),Unknown, , , , , , , , , , , , ,-37.775768,145.118639
Doncaster Melaleuca Lodge,383-395 Manningham Rd Victoria 3108 Australia,Car Parking, ,0.5,Bollard,No bracket, , ,Bollard (We-ef),Unknown, , , , , , , , , , , , ,-37.775841,145.11868
Doncaster Melaleuca Lodge,383-395 Manningham Rd Victoria 3108 Australia,Car Parking, ,0.5,Bollard,No bracket, , ,Bollard (We-ef),Unknown, , , , , , , , , , , , ,-37.775715,145.118679
Doncaster Melaleuca Lodge,383-395 Manningham Rd Victoria 3108 Australia,Car Parking, ,0.5,Bollard,No bracket, , ,Bollard (We-ef),Unknown, , , , , , , , , , , , ,-37.77557,145.118645
Doncaster Melaleuca Lodge,383-395 Manningham Rd Victoria 3108 Australia,Car Parking, ,0.5,Bollard,No bracket, , ,Bollard (We-ef),Unknown, , , , , , , , , , , , ,-37.775492,145.118656
Doncaster Melaleuca Lodge,383-395 Manningham Rd Victoria 3108 Australia,Car Parking, ,0.5,Bollard,No bracket, , ,Bollard (We-ef),Unknown, , , , , , , , , , , , ,-37.775402,145.118686
Doncaster Melaleuca Lodge,346 Manningham Rd Victoria 3108 Australia,Car Parking, ,2.2,Steel Pole,Pole Mounted,Small,Single,Decorative,Unknown, , , , , , , , , , , , ,-37.776215,145.118761
Doncaster Melaleuca Lodge,383-395 Manningham Rd Victoria 3108 Australia,Car Parking, ,0.5,Bollard,No bracket, , ,Bollard (We-ef),Unknown, , , , , , , , , , , , ,-37.775934,145.118737
Doncaster Melaleuca Lodge,346 Manningham Rd Victoria 3108 Australia,Car Parking, ,2.2,Steel Pole,Pole Mounted,Small,Single,Decorative,Unknown, , , , , , , , , , , , ,-37.776128,145.118903
Doncaster Melaleuca Lodge,346 Manningham Rd Victoria 3108 Australia,Car Parking, ,2.2,Steel Pole,Pole Mounted,Small,Single,Decorative,Unknown, , , , , , , , , , , , ,-37.776026,145.118942
Doncaster Melaleuca Lodge,383-395 Manningham Rd Victoria 3108 Australia,Car Parking, ,5.5,Steel Pole,Pole Bracket,Small,Single,Sylvania StreetLED,LED 18W, , , , , , , , , , , , ,-37.775913,145.118895
Doncaster Melaleuca Lodge,383-395 Manningham Rd Victoria 3108 Australia,Car Parking, ,0.5,Bollard,No bracket, , ,Bollard (We-ef),Unknown, , , , , , , , , , , , ,-37.775657,145.11879
Doncaster Melaleuca Lodge,346 Manningham Rd Victoria 3108 Australia,Car Parking, ,2.2,Steel Pole,Pole Mounted,Small,Single,Decorative,Unknown, , , , , , , , , , , , ,-37.775773,145.118896
Doncaster Melaleuca Lodge,383-395 Manningham Rd Victoria 3108 Australia,Car Parking, ,0.5,Bollard,No bracket, , ,Bollard (We-ef),Unknown, , , , , , , , , , , , ,-37.775558,145.118758
Doncaster Melaleuca Lodge,383-395 Manningham Rd Victoria 3108 Australia,Car Parking, ,0.5,Bollard,No bracket, , ,Bollard (We-ef),Unknown, , , , , , , , , , , , ,-37.775504,145.118762
Doncaster Melaleuca Lodge,383-395 Manningham Rd Victoria 3108 Australia,Car Parking, ,0.5,Bollard,No bracket, , ,Bollard (We-ef),Unknown, , , , , , , , , , , , ,-37.775457,145.118773
Doncaster Melaleuca Lodge,371 Manningham Rd Victoria 3108 Australia,Car Parking,9820707,5,Steel Pole,Pole Bracket,Small,Single,LRL NXT-24S,LED 41W, , , , , , , , , , , , ,-37.775066,145.117754
Doncaster Melaleuca Lodge,371 Manningham Rd Victoria 3108 Australia,Car Parking,9820708,5,Steel Pole,Pole Bracket,Small,Single,LRL NXT-24S,LED 41W, , , , , , , , , , , , ,-37.774598,145.117869
Doncaster Melaleuca Lodge,371 Manningham Rd Victoria 3108 Australia,Car Parking,9820710,5,Steel Pole,Pole Bracket,Small,Single,LRL NXT-24S,LED 41W,Floodlight,Unknown, , , , , , , , , , ,-37.77418,145.117961
Doncaster Melaleuca Lodge,383-395 Manningham Rd Victoria 3108 Australia,Car Parking, ,0.5,Bollard,No bracket, , ,Bollard (We-ef),Unknown, , , , , , , , , , , , ,-37.775281,145.118701
Doncaster Melaleuca Lodge,371 Manningham Rd Victoria 3108 Australia,Car Parking,9820709,5,Steel Pole,Pole Bracket,Small,Single,LRL NXT-24S,LED 41W, , , , , , , , , , , , ,-37.774659,145.118434
Doncaster Melaleuca Lodge,371 Manningham Rd Victoria 3108 Australia,Car Parking, ,5,Steel Pole,Pole Bracket,Small,Single,LRL NXT-24S,LED 41W,Floodlight,Unknown, , , , , , , , , , ,-37.774445,145.118361
Doncaster Melaleuca Lodge,383-395 Manningham Rd Victoria 3108 Australia,Car Parking, ,6,Steel Pole,Pole Bracket,Small,Single,LRL NXT-24S,LED 41W, , , , , , , , , , , , ,-37.775304,145.118827
Doncaster Melaleuca Lodge,371 Manningham Rd Victoria 3108 Australia,Car Parking, ,5,Steel Pole,Pole Bracket,Small,Single,LRL NXT-24S,LED 41W,Floodlight,Unknown, , , , , , , , , , ,-37.774565,145.118915
Doncaster Melaleuca Lodge,371 Manningham Rd Victoria 3108 Australia,Car Parking, ,5,Steel Pole,Pole Bracket,Small,Single,Sylvania StreetLED,LED 18W, , , , , , , , , , , , ,-37.774759,145.119023
Doncaster Melaleuca Lodge,371 Manningham Rd Victoria 3108 Australia,Car Parking,2,8,Steel Pole,No bracket, , ,Shoebox,Unknown, , , , , , , , , , , , ,-37.774833,145.119169
Doncaster Melaleuca Lodge,371 Manningham Rd Victoria 3108 Australia,Car Parking,3,8,Steel Pole,No bracket, , ,Shoebox,Unknown, , , , , , , , , , , , ,-37.774856,145.119381
Aquatic Centre,50 Olympus Dr Victoria 3107 Australia,Sporting (Swimming pool), ,10.5,Steel Pole,Pole Mounted,Small,Multiple,Floodlight,Unknown,Floodlight,Unknown, , , , , , , , , , ,-37.773867,145.122801
Aquatic Centre,52 Olympus Dr Victoria 3107 Australia,Walking, ,1.2,Bollard,No bracket, , ,Bollard (Ligman),Unknown, , , , , , , , , , , , ,-37.774144,145.123177
Aquatic Centre,52 Olympus Dr Victoria 3107 Australia,Walking, ,1.2,Bollard,No bracket, , ,Bollard (Ligman),Unknown, , , , , , , , , , , , ,-37.774125,145.123175
Aquatic Centre,52 Olympus Dr Victoria 3107 Australia,Walking, ,1.2,Bollard,No bracket, , ,Bollard (Ligman),Unknown, , , , , , , , , , , , ,-37.774166,145.123293
Aquatic Centre,52 Olympus Dr Victoria 3107 Australia,Walking, ,1.2,Bollard,No bracket, , ,Bollard (Ligman),Unknown, , , , , , , , , , , , ,-37.774146,145.123293
Aquatic Centre,50 Olympus Dr Victoria 3107 Australia,Sporting (Swimming pool), ,10.5,Steel Pole,Pole Mounted,Small,Multiple,Floodlight,Unknown,Floodlight,Unknown, , , , , , , , , , ,-37.774034,145.123166
Aquatic Centre,50 Olympus Dr Victoria 3107 Australia,Sporting (Swimming pool), ,10.5,Steel Pole,Pole Mounted,Small,Multiple,Floodlight,Unknown,Floodlight,Unknown, , , , , , , , , , ,-37.773936,145.12323
Aquatic Centre,50 Olympus Dr Victoria 3107 Australia,Sporting (Swimming pool), ,10.5,Steel Pole,Pole Mounted,Small,Multiple,Floodlight,Unknown,Floodlight,Unknown, , , , , , , , , , ,-37.773839,145.123309
Aquatic Centre,50 Olympus Dr Victoria 3107 Australia,Sporting (Swimming pool), ,10.5,Steel Pole,Pole Mounted,Small,Multiple,Floodlight,Unknown,Floodlight,Unknown, , , , , , , , , , ,-37.773772,145.122862
Aquatic Centre,50 Olympus Dr Victoria 3107 Australia,Sporting (Swimming pool), ,10.5,Steel Pole,Pole Mounted,Small,Multiple,Floodlight,Unknown,Floodlight,Unknown, , , , , , , , , , ,-37.773674,145.122933
Aquatic Centre,50 Olympus Dr Victoria 3107 Australia,Sporting (Swimming pool), ,9.5,Steel Pole,Pole Mounted,Small,Multiple,Floodlight,Unknown,Floodlight,Unknown,Floodlight,Unknown, , , , , , , , ,-37.773444,145.123187
Aquatic Centre,32 Magnolia Dr Victoria 3107 Australia,Car Parking, ,10,Steel Pole,No bracket, , ,Shoebox or similar,Unknown, , , , , , , , , , , , ,-37.773401,145.123969
Aquatic Centre Carpark,50 Magnolia Ct Victoria 3107 Australia,Walking, ,4.5,Steel Pole,Pole Bracket,Small,Single,Decorative,LED, , , , , , , , , , , , ,-37.77399,145.124381
Aquatic Centre Carpark,50 Magnolia Ct Victoria 3107 Australia,Walking, ,4.5,Steel Pole,Pole Bracket,Small,Single,Decorative,LED, , , , , , , , , , , , ,-37.773996,145.124491
Aquatic Centre Carpark,50 Magnolia Ct Victoria 3107 Australia,Car Parking, ,4.5,Steel Pole,Pole Bracket,Small,Single,LRL NXT-24S,LED 41W, , , , , , , , , , , , ,-37.773927,145.124564
Aquatic Centre Carpark,50 Magnolia Ct Victoria 3107 Australia,Car Parking, ,4.5,Steel Pole,Pole Bracket,Small,Single,LRL NXT-24S,LED 41W, , , , , , , , , , , , ,-37.774138,145.124695
Aquatic Centre Carpark,50 Magnolia Ct Victoria 3107 Australia,Walking, ,4.5,Steel Pole,Pole Bracket,Small,Single,Decorative,LED, , , , , , , , , , , , ,-37.774003,145.12461
Aquatic Centre Carpark,50 Magnolia Ct Victoria 3107 Australia,Walking, ,4.5,Steel Pole,Pole Bracket,Small,Single,Decorative,LED, , , , , , , , , , , , ,-37.774005,145.124726
Aquatic Centre Carpark,50 Magnolia Ct Victoria 3107 Australia,Walking, ,4.5,Steel Pole,Pole Bracket,Small,Single,Decorative,LED, , , , , , , , , , , , ,-37.774012,145.124862
Aquatic Centre Carpark,50 Magnolia Ct Victoria 3107 Australia,Car Parking, ,4.5,Steel Pole,Pole Bracket,Small,Single,LRL NXT-24S,LED 41W, , , , , , , , , , , , ,-37.773928,145.1248
Aquatic Centre Carpark,50 Magnolia Ct Victoria 3107 Australia,Car Parking,7059472,4.5,Steel Pole,Pole Bracket,Small,Single,LRL NXT-24S,LED 41W, , , , , , , , , , , , ,-37.7736,145.124662
Aquatic Centre Carpark,50 Magnolia Ct Victoria 3107 Australia,Car Parking,7059474,4.5,Steel Pole,Pole Bracket,Small,Single,LRL NXT-24S,LED 41W, , , , , , , , , , , , ,-37.77421,145.124865
Aquatic Centre Carpark,50 Magnolia Ct Victoria 3107 Australia,Car Parking,7059473,15,Steel Pole,Pole Mounted,Small,Double,Sylvania Roadster,Unknown,Sylvania Roadster,Unknown, , , , , , , , , , ,-37.773969,145.125003
Aquatic Centre Carpark,50 Magnolia Ct Victoria 3107 Australia,Car Parking,7059470,4.5,Steel Pole,Pole Bracket,Small,Single,LRL NXT-24S,LED 41W, , , , , , , , , , , , ,-37.773751,145.124873
Aquatic Centre Carpark,50 Magnolia Ct Victoria 3107 Australia,Car Parking,7059469,4.5,Steel Pole,Pole Bracket,Small,Single,LRL NXT-24S,LED 41W, , , , , , , , , , , , ,-37.773735,145.12525
Aquatic Centre Carpark,50 Magnolia Ct Victoria 3107 Australia,Car Parking,7058912,12.5,Concrete Pole,Pole Mounted,Large,Double,Optispec,HP Sodium 400W,Optispec,HP Sodium 400W, , , , , , , , , , ,-37.774348,145.125468
Aquatic Centre Carpark,50 Magnolia Ct Victoria 3107 Australia,Car Parking,7058911,15,Concrete Pole,Pole Mounted,Small,Single,Sylvania B3000,Unknown, , , , , , , , , , , , ,-37.774621,145.126072
Aquatic Centre Carpark,50 Magnolia Ct Victoria 3107 Australia,Car Parking,7058910,12.5,Concrete Pole,Pole Mounted,Large,Double,Optispec,HP Sodium 400W,Sylvania Roadster,HP Sodium 400W, , , , , , , , , , ,-37.77391,145.125755
Aquatic Centre Carpark,50 Magnolia Ct Victoria 3107 Australia,Car Parking,7059468,4.5,Steel Pole,Pole Bracket,Small,Single,LRL NXT-24S,LED 41W, , , , , , , , , , , , ,-37.773776,145.125618
Aquatic Centre Carpark,50 Magnolia Ct Victoria 3107 Australia,Car Parking,7059467,4.5,Steel Pole,Pole Bracket,Small,Single,LRL NXT-24S,LED 41W, , , , , , , , , , , , ,-37.773857,145.126125
Aquatic Centre Carpark,50 Magnolia Ct Victoria 3107 Australia,Car Parking,7058913,15,Concrete Pole,Pole Mounted,Small,Single,Sylvania B3000,Unknown, , , , , , , , , , , , ,-37.774129,145.126363
Templestowe Memorial Garden,43-45 Foote St Victoria 3107 Australia,Park/Reserve,1030,0,Ground recessed,No bracket, , ,Floodlight,Unknown, , , , , , , , , , , , ,-37.757419,145.118901
Templestowe Memorial Garden,43-45 Foote St Victoria 3107 Australia,Park/Reserve,1031,0,Ground recessed,No bracket, , ,Floodlight,Unknown, , , , , , , , , , , , ,-37.75734,145.118925
Finns Reserve,4 Duncan St Victoria 3107 Australia,Park/Reserve,7057285,9,Timber Pole,Pole Mounted,Small,Single,LRL NXT-24S,LED 41W,Night Watchman / Spotlight,Unknown, , , , , , , , , , ,-37.75421,145.115824
Templestowe RSL,8 Anderson St Templestowe Victoria 3106 Australia,Walking, ,4.5,Steel Pole,Pole Bracket,Medium,Single,Bourke Hill LED,LED 25W, , , , , , , , , , , , ,-37.758324,145.127707
Templestowe RSL,11 Milne St Templestowe Victoria 3106 Australia,Sporting (Tennis Court), ,10,Steel Pole,Pole Mounted,Small,Double,Floodlight,Unknown,Floodlight,Unknown, , , , , , , , , , ,-37.758686,145.128236
Templestowe RSL,11 Milne St Templestowe Victoria 3106 Australia,Sporting (Tennis Court), ,10,Steel Pole,Pole Mounted,Small,Double,Floodlight,Unknown,Floodlight,Unknown, , , , , , , , , , ,-37.758523,145.128269
Templestowe RSL,8 Anderson St Templestowe Victoria 3106 Australia,Walking, ,4.5,Steel Pole,Pole Bracket,Medium,Single,Bourke Hill LED,LED 25W, , , , , , , , , , , , ,-37.758395,145.127961
Templestowe RSL,11 Milne St Templestowe Victoria 3106 Australia,Sporting (Tennis Court), ,10,Steel Pole,Pole Mounted,Small,Double,Floodlight,Unknown,Floodlight,Unknown, , , , , , , , , , ,-37.758241,145.127969
Templestowe RSL,11 Milne St Templestowe Victoria 3106 Australia,Sporting (Tennis Court), ,10,Steel Pole,Pole Mounted,Small,Double,Floodlight,Unknown,Floodlight,Unknown, , , , , , , , , , ,-37.75808,145.127998
Templestowe RSL,8 Anderson St Templestowe Victoria 3106 Australia,Walking, ,4.5,Steel Pole,Pole Bracket,Medium,Single,Sylvania StreetLED,LED 18W, , , , , , , , , , , , ,-37.758434,145.128302
Templestowe RSL,11 Milne St Templestowe Victoria 3106 Australia,Sporting (Tennis Court), ,10,Steel Pole,No bracket, , ,Floodlight,Unknown, , , , , , , , , , , , ,-37.758293,145.128422
Templestowe RSL,11 Milne St Templestowe Victoria 3106 Australia,Sporting (Tennis Court), ,10,Steel Pole,No bracket, , ,Floodlight,Unknown, , , , , , , , , , , , ,-37.758133,145.128446
Templestowe RSL,8 Anderson St Templestowe Victoria 3106 Australia,Car Parking, ,4.5,Steel Pole,Pole Bracket,Medium,Single,Bourke Hill LED,LED 25W, , , , , , , , , , , , ,-37.757926,145.128105
Parker Street Shopping Carpark,155 Parker St Templestowe Victoria 3106 Australia,Walking, ,4.5,Steel Pole,Pole Bracket,Medium,Single,Bourke Hill LED,LED 25W, , , , , , , , , , , , ,-37.757139,145.128287
Templestowe RSL,11 Milne St Templestowe Victoria 3106 Australia,Sporting (Tennis Court), ,10,Steel Pole,No bracket, , ,Floodlight,Unknown, , , , , , , , , , , , ,-37.758734,145.128694
Templestowe RSL,11 Milne St Templestowe Victoria 3106 Australia,Sporting (Tennis Court), ,10,Steel Pole,No bracket, , ,Floodlight,Unknown, , , , , , , , , , , , ,-37.758573,145.128711
Templestowe RSL,8 Anderson St Templestowe Victoria 3106 Australia,Walking, ,4.5,Steel Pole,Pole Bracket,Medium,Single,Bourke Hill LED,LED 25W, , , , , , , , , , , , ,-37.758481,145.128724
Templestowe RSL,11 Milne St Templestowe Victoria 3106 Australia,Sporting (Tennis Court), ,10,Steel Pole,Pole Mounted,Small,Double,Floodlight,Unknown,Floodlight,Unknown, , , , , , , , , , ,-37.758221,145.128536
Templestowe RSL,8 Anderson St Templestowe Victoria 3106 Australia,Car Parking, ,4.5,Steel Pole,Pole Bracket,Medium,Single,Bourke Hill LED,LED 25W, , , , , , , , , , , , ,-37.757982,145.128536
Templestowe RSL,11 Milne St Templestowe Victoria 3106 Australia,Sporting (Tennis Court), ,10,Steel Pole,Pole Mounted,Small,Double,Floodlight,Unknown,Floodlight,Unknown, , , , , , , , , , ,-37.758245,145.128755
Templestowe RSL,8 Anderson St Templestowe Victoria 3106 Australia,Car Parking, ,4.5,Steel Pole,Pole Bracket,Medium,Single,Bourke Hill LED,LED 25W, , , , , , , , , , , , ,-37.758342,145.128947
Templestowe RSL,8 Anderson St Templestowe Victoria 3106 Australia,Car Parking, ,4.5,Steel Pole,Pole Bracket,Medium,Single,Bourke Hill LED,LED 25W, , , , , , , , , , , , ,-37.75801,145.128792
Templestowe RSL,8 Anderson St Templestowe Victoria 3106 Australia,Car Parking, ,4.5,Steel Pole,Pole Bracket,Medium,Single,Bourke Hill LED,LED 25W, , , , , , , , , , , , ,-37.758348,145.129023
Templestowe RSL,8 Anderson St Templestowe Victoria 3106 Australia,Car Parking, ,4.5,Steel Pole,Pole Bracket,Medium,Single,Bourke Hill LED,LED 25W, , , , , , , , , , , , ,-37.758433,145.129162
Templestowe RSL,8 Anderson St Templestowe Victoria 3106 Australia,Car Parking, ,4.5,Steel Pole,Pole Bracket,Medium,Single,Bourke Hill LED,LED 25W, , , , , , , , , , , , ,-37.758118,145.128979
Templestowe RSL,8 Anderson St Templestowe Victoria 3106 Australia,Car Parking, ,4.5,Steel Pole,Pole Bracket,Medium,Single,Bourke Hill LED,LED 25W, , , , , , , , , , , , ,-37.758125,145.129065
Templestowe RSL,157 Parker St Templestowe Victoria 3106 Australia,Walking, ,5,Steel Pole,Pole Bracket,Medium,Single,Sylvania StreetLED,LED 18W, , , , , , , , , , , , ,-37.758344,145.129431
Parker Street Shopping Carpark,155 Parker St Templestowe Victoria 3106 Australia,Walking, ,4.5,Steel Pole,Pole Bracket,Medium,Single,Bourke Hill LED,LED 25W, , , , , , , , , , , , ,-37.757509,145.128709
Parker Street Shopping Carpark,155 Parker St Templestowe Victoria 3106 Australia,Walking, ,4.5,Steel Pole,Pole Bracket,Medium,Single,Bourke Hill LED,LED 25W, , , , , , , , , , , , ,-37.757533,145.128945
Parker Street Shopping Carpark,155 Parker St Templestowe Victoria 3106 Australia,Walking, ,4.5,Steel Pole,Pole Bracket,Medium,Single,Bourke Hill LED,LED 25W, , , , , , , , , , , , ,-37.757095,145.128474
Parker Street Shopping Carpark,155 Parker St Templestowe Victoria 3106 Australia,Walking, ,4.5,Steel Pole,Pole Bracket,Medium,Single,Sylvania StreetLED,LED 18W, , , , , , , , , , , , ,-37.757344,145.128708
Parker Street Shopping Carpark,155 Parker St Templestowe Victoria 3106 Australia,Walking, ,4.5,Steel Pole,Pole Bracket,Medium,Single,Bourke Hill LED,LED 25W, , , , , , , , , , , , ,-37.757203,145.128735
Parker Street Shopping Carpark,155 Parker St Templestowe Victoria 3106 Australia,Walking, ,4.5,Steel Pole,Pole Bracket,Medium,Single,Bourke Hill LED,LED 25W, , , , , , , , , , , , ,-37.7571,145.12876
Parker Street Shopping Carpark,155 Parker St Templestowe Victoria 3106 Australia,Walking, ,4.5,Steel Pole,Pole Bracket,Medium,Single,Bourke Hill LED,LED 25W, , , , , , , , , , , , ,-37.757032,145.128767
Parker Street Shopping Carpark,155 Parker St Templestowe Victoria 3106 Australia,Walking, ,4.5,Steel Pole,Pole Bracket,Medium,Single,Bourke Hill LED,LED 25W, , , , , , , , , , , , ,-37.757549,145.129157
Parker Street Shopping Carpark,157 Parker St Templestowe Victoria 3106 Australia,Car Parking,7057388,7.5,Concrete Pole,No bracket, , ,Night Watchman / Spotlight,Unknown, , , , , , , , , , , , ,-37.757861,145.129462
Parker Street Shopping Carpark,155 Parker St Templestowe Victoria 3106 Australia,Walking, ,4.5,Steel Pole,Pole Bracket,Medium,Single,Bourke Hill LED,LED 25W, , , , , , , , , , , , ,-37.757683,145.129384
Parker Street Shopping Carpark,155 Parker St Templestowe Victoria 3106 Australia,Walking, ,4.5,Steel Pole,Pole Bracket,Medium,Single,Bourke Hill LED,LED 25W, , , , , , , , , , , , ,-37.75754,145.129412
Parker Street Shopping Carpark,155 Parker St Templestowe Victoria 3106 Australia,Walking, ,4.5,Steel Pole,Pole Bracket,Medium,Single,Bourke Hill LED,LED 25W, , , , , , , , , , , , ,-37.757397,145.129441
Tram Road Reserve,Box Hill North Victoria Australia,Bicycle Path, ,13.5,Concrete Pole,Pole Mounted,Large,Single,LRL NXT-72M,LED 158W, , , , , , , , , , , , ,-37.797441,145.135934
MC Square,687 Doncaster Rd Victoria 3108 Australia,Walking, ,6.5,Steel Pole,No bracket, , ,Spotlights @ MC Square,Unknown,Floodlight,Unknown, , , , , , , , , , ,-37.787309,145.130828
MC Square,687 Doncaster Rd Victoria 3108 Australia,Walking, ,6.5,Steel Pole,No bracket, , ,Spotlights @ MC Square,Unknown,Floodlight,Unknown, , , , , , , , , , ,-37.787076,145.130857
Manningham City Council Carpark,1 Hummell Way Victoria 3108 Australia,Car Parking, ,5,Steel Pole,Pole Bracket,Medium,Single,Bourke Hill,Unknown, , , , , , , , , , , , ,-37.78683,145.130834
Manningham City Council Carpark,1 Hummell Way Victoria 3108 Australia,Car Parking, ,4,Steel Pole,Pole Bracket,Small,Single,LED Fitting,LED, , , , , , , , , , , , ,-37.786563,145.130891
Manningham City Council Carpark,1 Hummell Way Victoria 3108 Australia,Car Parking, ,4,Steel Pole,Pole Bracket,Small,Single,LED Fitting,LED, , , , , , , , , , , , ,-37.786311,145.130936
Manningham City Council Carpark,1 Hummell Way Victoria 3108 Australia,Car Parking, ,4,Steel Pole,Pole Bracket,Small,Single,LED Fitting,LED, , , , , , , , , , , , ,-37.786052,145.130981
Manningham City Council Carpark,1 Hummell Way Victoria 3108 Australia,Car Parking,10585,4,Steel Pole,No bracket, , ,Post Top,Unknown, , , , , , , , , , , , ,-37.786466,145.131049
Manningham City Council Carpark,1 Hummell Way Victoria 3108 Australia,Car Parking, ,4,Steel Pole,No bracket, , ,Post Top,Unknown, , , , , , , , , , , , ,-37.786184,145.131109
Manningham City Council Carpark,1 Hummell Way Victoria 3108 Australia,Car Parking, ,5,Steel Pole,Pole Bracket,Medium,Single,Bourke Hill LED,LED 25W, , , , , , , , , , , , ,-37.78654,145.131499
Manningham City Council Carpark,1 Hummell Way Victoria 3108 Australia,Car Parking, ,5,Steel Pole,Pole Bracket,Medium,Single,Bourke Hill LED,LED 25W, , , , , , , , , , , , ,-37.786339,145.131512
MC Square,687 Doncaster Rd Victoria 3108 Australia,Walking, ,6.5,Steel Pole,No bracket, , ,Spotlights @ MC Square,Unknown,Floodlight,Unknown,Floodlight,Unknown, , , , , , , , ,-37.787087,145.131708
MC Square,687 Doncaster Rd Victoria 3108 Australia,Walking, ,6.5,Steel Pole,No bracket, , ,Spotlights @ MC Square,Unknown,Floodlight,Unknown,Floodlight,Unknown, , , , , , , , ,-37.787,145.13172
MC Square,687 Doncaster Rd Victoria 3108 Australia,Walking, ,6.5,Steel Pole,No bracket, , ,Spotlights @ MC Square,Unknown,Floodlight,Unknown,Floodlight,Unknown, , , , , , , , ,-37.787061,145.131866
MC Square,687 Doncaster Rd Victoria 3108 Australia,Walking, ,6.5,Steel Pole,No bracket, , ,Spotlights @ MC Square,Unknown,Floodlight,Unknown,Floodlight,Unknown, , , , , , , , ,-37.786954,145.131834
MC Square,687 Doncaster Rd Victoria 3108 Australia,Walking, ,6.5,Steel Pole,No bracket, , ,Spotlights @ MC Square,Unknown,Floodlight,Unknown,Floodlight,Unknown, , , , , , , , ,-37.786893,145.131803
MC Square,687 Doncaster Rd Victoria 3108 Australia,Walking, ,6.5,Steel Pole,No bracket, , ,Spotlights @ MC Square,Unknown,Floodlight,Unknown,Floodlight,Unknown, , , , , , , , ,-37.786925,145.131944
MC Square,687 Doncaster Rd Victoria 3108 Australia,Walking, ,6.5,Steel Pole,No bracket, , ,Spotlights @ MC Square,Unknown,Floodlight,Unknown,Floodlight,Unknown, , , , , , , , ,-37.787046,145.132037
MC Square,687 Doncaster Rd Victoria 3108 Australia,Walking, ,6.5,Steel Pole,No bracket, , ,Spotlights @ MC Square,Unknown,Floodlight,Unknown,Floodlight,Unknown, , , , , , , , ,-37.786916,145.132042
Manningham City Council Carpark,1 Hummell Way Victoria 3108 Australia,Car Parking, ,5,Steel Pole,Pole Bracket,Medium,Double,Bourke Hill LED,LED 25W,Bourke Hill LED,LED 25W, , , , , , , , , , ,-37.786844,145.132363
Manningham City Council Carpark,1 Hummell Way Victoria 3108 Australia,Car Parking, ,5,Steel Pole,Pole Bracket,Medium,Single,Bourke Hill LED,LED 25W, , , , , , , , , , , , ,-37.786404,145.131664
Manningham City Council Carpark,1 Hummell Way Victoria 3108 Australia,Car Parking, ,5,Steel Pole,Pole Bracket,Medium,Single,Bourke Hill LED,LED 25W, , , , , , , , , , , , ,-37.786506,145.131856
Manningham City Council Carpark,1 Hummell Way Victoria 3108 Australia,Car Parking, ,5,Steel Pole,Pole Bracket,Medium,Single,Bourke Hill LED,LED 25W, , , , , , , , , , , , ,-37.786253,145.131829
Manningham City Council Carpark,1 Hummell Way Victoria 3108 Australia,Car Parking, ,5,Steel Pole,Pole Bracket,Medium,Single,Bourke Hill LED,LED 25W, , , , , , , , , , , , ,-37.786095,145.131689
Manningham City Council Carpark,1 Hummell Way Victoria 3108 Australia,Car Parking, ,5,Steel Pole,Pole Bracket,Medium,Single,Bourke Hill LED,LED 25W, , , , , , , , , , , , ,-37.785884,145.131837
Manningham City Council Carpark,1 Hummell Way Victoria 3108 Australia,Car Parking, ,5,Steel Pole,Pole Bracket,Medium,Single,Bourke Hill LED,LED 25W, , , , , , , , , , , , ,-37.786612,145.132059
Manningham City Council Carpark,1 Hummell Way Victoria 3108 Australia,Car Parking, ,5,Steel Pole,Pole Bracket,Medium,Single,Bourke Hill LED,LED 25W, , , , , , , , , , , , ,-37.786372,145.132077
Manningham City Council Carpark,1 Hummell Way Victoria 3108 Australia,Car Parking,7061224,7,Steel Pole,Pole Bracket,Medium,Single,Bourke Hill LED,LED 25W, , , , , , , , , , , , ,-37.786185,145.132264
Manningham City Council Carpark,1 Hummell Way Victoria 3108 Australia,Car Parking, ,5,Steel Pole,Pole Bracket,Medium,Double,Bourke Hill LED,LED 25W,Bourke Hill LED,LED 25W, , , , , , , , , , ,-37.785919,145.132091
Manningham City Council Carpark,1 Hummell Way Victoria 3108 Australia,Car Parking, ,7,Steel Pole,Pole Bracket,Medium,Single,Bourke Hill LED,LED 25W, , , , , , , , , , , , ,-37.785923,145.132471
Manningham City Council Carpark,1 Hummell Way Victoria 3108 Australia,Car Parking, ,5,Steel Pole,Pole Bracket,Medium,Single,Bourke Hill LED,LED 25W, , , , , , , , , , , , ,-37.786955,145.132664
Manningham City Council Carpark,1 Hummell Way Victoria 3108 Australia,Car Parking,7639,5,Steel Pole,No bracket, , ,Schreder Zela,LED 55W, , , , , , , , , , , , ,-37.7869,145.132776
Manningham City Council Carpark,1 Hummell Way Victoria 3108 Australia,Car Parking, ,5,Steel Pole,Pole Bracket,Medium,Single,Bourke Hill LED,LED 25W, , , , , , , , , , , , ,-37.78699,145.132986
Manningham City Council Carpark,1 Hummell Way Victoria 3108 Australia,Car Parking, ,5,Steel Pole,Pole Bracket,Medium,Single,Bourke Hill LED,LED 25W, , , , , , , , , , , , ,-37.786782,145.13296
Manningham City Council Carpark,1 Hummell Way Victoria 3108 Australia,Car Parking,10878,5,Steel Pole,No bracket, , ,Schreder Zela,LED 55W, , , , , , , , , , , , ,-37.786178,145.133025
Manningham City Council Carpark,1 Hummell Way Victoria 3108 Australia,Car Parking, ,7,Steel Pole,Pole Bracket,Medium,Single,Bourke Hill LED,LED 25W, , , , , , , , , , , , ,-37.785957,145.132766
Manningham City Council Carpark,1 Hummell Way Victoria 3108 Australia,Car Parking, ,5,Steel Pole,Pole Bracket,Medium,Double,Bourke Hill LED,LED 25W,Bourke Hill LED,LED 25W, , , , , , , , , , ,-37.785732,145.132621
Manningham City Council Carpark,1 Hummell Way Victoria 3108 Australia,Car Parking, ,5,Steel Pole,Pole Bracket,Medium,Double,Bourke Hill LED,LED 25W,Bourke Hill LED,LED 25W, , , , , , , , , , ,-37.785766,145.132875
Manningham City Council Carpark,1 Hummell Way Victoria 3108 Australia,Car Parking,7061207,5,Steel Pole,Pole Bracket,Medium,Single,Bourke Hill LED,LED 25W, , , , , , , , , , , , ,-37.786591,145.133242
Manningham City Council Carpark,1 Hummell Way Victoria 3108 Australia,Car Parking, ,5,Steel Pole,Pole Bracket,Medium,Double,Bourke Hill LED,LED 25W,Bourke Hill LED,LED 25W, , , , , , , , , , ,-37.785808,145.13318
Manningham City Council Carpark,1 Hummell Way Victoria 3108 Australia,Car Parking,7061209,5,Steel Pole,Pole Bracket,Medium,Single,Bourke Hill LED,LED 25W, , , , , , , , , , , , ,-37.78609,145.133328
Manningham City Council Carpark,1 Hummell Way Victoria 3108 Australia,Car Parking,9421201,6,Steel Pole,Pole Bracket,Small,Single,LRL NXT-24S,LED 41W, , , , , , , , , , , , ,-37.785872,145.133437
Carpark on JJ Tully Dr,J J Tully Dr Victoria 3108 Australia,Car Parking,7061384,14.5,Concrete Pole,Pole Mounted,Small,Multiple,Floodlight,Unknown,Floodlight,Unknown, , , , , , , , , , ,-37.785278,145.132478
Carpark on JJ Tully Dr,J J Tully Dr Victoria 3108 Australia,Car Parking,7061383,14.5,Concrete Pole,Pole Mounted,Small,Multiple,Floodlight,Unknown,Floodlight,Unknown, , , , , , , , , , ,-37.784984,145.132538
Carpark on JJ Tully Dr,J J Tully Dr Victoria 3108 Australia,Car Parking,7061212,12.5,Concrete Pole,Pole Mounted,Small,Multiple,Floodlight,Unknown,Floodlight,Unknown,Night Watchman / Spotlight,Unknown, , , , , , , , ,-37.785377,145.133236
Carpark on JJ Tully Dr,J J Tully Dr Victoria 3108 Australia,Car Parking,7061210,6,Steel Pole,Pole Mounted,Small,Single,LRL NXT-24S,LED 41W, , , , , , , , , , , , ,-37.785502,145.133494
Carpark on JJ Tully Dr,J J Tully Dr Victoria 3108 Australia,Car Parking,7061211,6,Steel Pole,Pole Mounted,Small,Single,LRL NXT-24S,LED 41W, , , , , , , , , , , , ,-37.785184,145.133547
Carpark on JJ Tully Dr,J J Tully Dr Victoria 3108 Australia,Car Parking,7061213,14.5,Concrete Pole,Pole Mounted,Small,Multiple,Floodlight,Unknown,Floodlight,Unknown,Night Watchman / Spotlight,Unknown, , , , , , , , ,-37.78507,145.133304
Schramms Reserve,J J Tully Dr Victoria 3108 Australia,Sporting (Oval), ,12.5,Timber Pole,No bracket, , ,Floodlight,Unknown,Small spotlight,Unknown,Small spotlight,Unknown, , , , , , , , ,-37.783468,145.132809
Schramms Reserve,J J Tully Dr Victoria 3108 Australia,Sporting (Oval), ,15,Concrete Pole,No bracket, , ,Floodlight,Unknown, , , , , , , , , , , , ,-37.78271,145.133172
Schramms Reserve,J J Tully Dr Victoria 3108 Australia,Sporting (Oval), ,15,Concrete Pole,No bracket, , ,Floodlight,Unknown,Floodlight,Unknown, , , , , , , , , , ,-37.781663,145.133328
Carpark on JJ Tully Dr,J J Tully Dr Victoria 3108 Australia,Car Parking,7061230,5,Steel Pole,Pole Mounted,Small,Single,LRL NXT-24S,LED 41W, , , , , , , , , , , , ,-37.784855,145.133614
Schramms Reserve,J J Tully Dr Victoria 3108 Australia,Sporting (Oval), ,12.5,Timber Pole,Pole Mounted,Small,Double,Floodlight,Unknown,Floodlight,Unknown, , , , , , , , , , ,-37.784041,145.133881
Schramms Reserve,J J Tully Dr Victoria 3108 Australia,Sporting (Oval), ,15,Concrete Pole,No bracket, , ,Floodlight,Unknown, , , , , , , , , , , , ,-37.783157,145.134221
Schramms Reserve,J J Tully Dr Victoria 3108 Australia,Sporting (Oval), ,15,Concrete Pole,No bracket, , ,Floodlight,Unknown,Floodlight,Unknown, , , , , , , , , , ,-37.781798,145.134544
Doncaster Tennis Club,802-804 Doncaster Rd Victoria 3108 Australia,Sporting (Tennis Court), ,7.5,Steel Pole,Pole Bracket,Medium,Single,Shoebox,Unknown, , , , , , , , , , , , ,-37.787704,145.138963
Doncaster Tennis Club,802-804 Doncaster Rd Victoria 3108 Australia,Sporting (Tennis Court), ,7.5,Steel Pole,Pole Bracket,Medium,Single,Shoebox,Unknown, , , , , , , , , , , , ,-37.787725,145.139148
Doncaster Tennis Club,802-804 Doncaster Rd Victoria 3108 Australia,Sporting (Tennis Court), ,7.5,Steel Pole,Pole Bracket,Medium,Single,Shoebox,Unknown, , , , , , , , , , , , ,-37.787677,145.139204
Doncaster Tennis Club,802-804 Doncaster Rd Victoria 3108 Australia,Sporting (Tennis Court), ,7.5,Steel Pole,Pole Bracket,Medium,Double,Shoebox,Unknown,Shoebox,Unknown, , , , , , , , , , ,-37.787741,145.139384
Doncaster Tennis Club,802-804 Doncaster Rd Victoria 3108 Australia,Sporting (Tennis Court), ,7.5,Steel Pole,Pole Bracket,Medium,Double,Shoebox,Unknown,Shoebox,Unknown, , , , , , , , , , ,-37.787762,145.139552
Doncaster Tennis Club,802-804 Doncaster Rd Victoria 3108 Australia,Sporting (Tennis Court), ,7.5,Steel Pole,Pole Bracket,Medium,Single,Shoebox,Unknown, , , , , , , , , , , , ,-37.787609,145.138985
Doncaster Tennis Club,802-804 Doncaster Rd Victoria 3108 Australia,Sporting (Tennis Court), ,7.5,Steel Pole,Pole Bracket,Medium,Single,Shoebox,Unknown, , , , , , , , , , , , ,-37.787512,145.139004
Doncaster Tennis Club,802-804 Doncaster Rd Victoria 3108 Australia,Sporting (Tennis Court), ,7.5,Steel Pole,Pole Bracket,Medium,Single,Shoebox,Unknown, , , , , , , , , , , , ,-37.787629,145.139168
Doncaster Tennis Club,802-804 Doncaster Rd Victoria 3108 Australia,Sporting (Tennis Court), ,7.5,Steel Pole,Pole Bracket,Medium,Single,Shoebox,Unknown, , , , , , , , , , , , ,-37.787533,145.139188
Doncaster Tennis Club,800 Doncaster Rd Victoria 3108 Australia,Car Parking, ,5,Steel Pole,Pole Bracket,Small,Single,Floodlight (Aero),Unknown, , , , , , , , , , , , ,-37.787348,145.139007
Doncaster Tennis Club,800 Doncaster Rd Victoria 3108 Australia,Car Parking, ,5,Steel Pole,Pole Bracket,Small,Single,Floodlight (Aero),Unknown, , , , , , , , , , , , ,-37.787314,145.139168
Doncaster Tennis Club,802-804 Doncaster Rd Victoria 3108 Australia,Sporting (Tennis Court), ,7.5,Steel Pole,Pole Bracket,Medium,Single,Shoebox,Unknown, , , , , , , , , , , , ,-37.787571,145.13922
Doncaster Tennis Club,802-804 Doncaster Rd Victoria 3108 Australia,Sporting (Tennis Court), ,7.5,Steel Pole,Pole Bracket,Medium,Single,Shoebox,Unknown, , , , , , , , , , , , ,-37.787463,145.139239
Doncaster Tennis Club,802-804 Doncaster Rd Victoria 3108 Australia,Sporting (Tennis Court), ,7.5,Steel Pole,Pole Bracket,Medium,Double,Shoebox,Unknown,Shoebox,Unknown, , , , , , , , , , ,-37.787592,145.139412
Doncaster Tennis Club,802-804 Doncaster Rd Victoria 3108 Australia,Sporting (Tennis Court), ,7.5,Steel Pole,Pole Bracket,Medium,Double,Shoebox,Unknown,Shoebox,Unknown, , , , , , , , , , ,-37.78744,145.139437
Doncaster Tennis Club,800 Doncaster Rd Victoria 3108 Australia,Car Parking, ,5,Steel Pole,Pole Bracket,Small,Single,Floodlight (Aero),Unknown, , , , , , , , , , , , ,-37.787385,145.139384
Doncaster Tennis Club,802-804 Doncaster Rd Victoria 3108 Australia,Sporting (Tennis Court), ,7.5,Steel Pole,Pole Bracket,Medium,Double,Shoebox,Unknown,Shoebox,Unknown, , , , , , , , , , ,-37.787613,145.139583
Doncaster Tennis Club,802-804 Doncaster Rd Victoria 3108 Australia,Sporting (Tennis Court), ,7.5,Steel Pole,Pole Bracket,Medium,Double,Shoebox,Unknown,Shoebox,Unknown, , , , , , , , , , ,-37.787459,145.139607
Doncaster Tennis Club,800 Doncaster Rd Victoria 3108 Australia,Car Parking,7046,5.5,Steel Pole,Pole Bracket,Small,Single,LRL NXT-24S,LED 41W, , , , , , , , , , , , ,-37.787342,145.139509
Doncaster Tennis Club,802-804 Doncaster Rd Victoria 3108 Australia,Sporting (Tennis Court), ,7.5,Steel Pole,Pole Bracket,Medium,Single,Shoebox,Unknown, , , , , , , , , , , , ,-37.787737,145.139727
Doncaster Tennis Club,802-804 Doncaster Rd Victoria 3108 Australia,Sporting (Tennis Court), ,7.5,Steel Pole,Pole Bracket,Medium,Single,Shoebox,Unknown, , , , , , , , , , , , ,-37.787693,145.139779
Doncaster Tennis Club,802-804 Doncaster Rd Victoria 3108 Australia,Sporting (Tennis Court), ,7.5,Steel Pole,Pole Bracket,Medium,Double,Shoebox,Unknown,Shoebox,Unknown, , , , , , , , , , ,-37.787764,145.139971
Doncaster Tennis Club,802-804 Doncaster Rd Victoria 3108 Australia,Sporting (Tennis Court), ,7.5,Steel Pole,Pole Bracket,Medium,Single,Shoebox,Unknown, , , , , , , , , , , , ,-37.787741,145.140141
Doncaster Tennis Club,802-804 Doncaster Rd Victoria 3108 Australia,Sporting (Tennis Court), ,7.5,Steel Pole,Pole Bracket,Medium,Single,Shoebox,Unknown, , , , , , , , , , , , ,-37.787631,145.139748
Doncaster Tennis Club,802-804 Doncaster Rd Victoria 3108 Australia,Sporting (Tennis Court), ,7.5,Steel Pole,Pole Bracket,Medium,Single,Shoebox,Unknown, , , , , , , , , , , , ,-37.787526,145.139762
Doncaster Tennis Club,802-804 Doncaster Rd Victoria 3108 Australia,Sporting (Tennis Court), ,7.5,Steel Pole,Pole Bracket,Medium,Single,Shoebox,Unknown, , , , , , , , , , , , ,-37.787594,145.139793
Doncaster Tennis Club,802-804 Doncaster Rd Victoria 3108 Australia,Sporting (Tennis Court), ,7.5,Steel Pole,Pole Bracket,Medium,Single,Shoebox,Unknown, , , , , , , , , , , , ,-37.787498,145.139816
Doncaster Tennis Club,802-804 Doncaster Rd Victoria 3108 Australia,Sporting (Tennis Court), ,7.5,Steel Pole,Pole Bracket,Medium,Double,Shoebox,Unknown,Shoebox,Unknown, , , , , , , , , , ,-37.78762,145.139989
Doncaster Tennis Club,802-804 Doncaster Rd Victoria 3108 Australia,Sporting (Tennis Court), ,7.5,Steel Pole,Pole Bracket,Medium,Double,Shoebox,Unknown,Shoebox,Unknown, , , , , , , , , , ,-37.787472,145.140025
Doncaster Tennis Club,802-804 Doncaster Rd Victoria 3108 Australia,Sporting (Tennis Court), ,7.5,Steel Pole,Pole Bracket,Medium,Single,Shoebox,Unknown, , , , , , , , , , , , ,-37.787641,145.140158
Doncaster Tennis Club,802-804 Doncaster Rd Victoria 3108 Australia,Sporting (Tennis Court), ,7.5,Steel Pole,Pole Bracket,Medium,Single,Shoebox,Unknown, , , , , , , , , , , , ,-37.787542,145.140181
Boronia Grove Reserve,14 Thea Grove Doncaster East Victoria 3109 Australia,Sporting (Oval), ,18,Steel Pole,Pole Bracket,Small,Double,Floodlight,Unknown,Floodlight,Unknown, , , , , , , , , , ,-37.799285,145.152288
Boronia Grove Reserve,14 Thea Grove Doncaster East Victoria 3109 Australia,Sporting (Oval), ,18,Steel Pole,Pole Bracket,Small,Double,Floodlight,Unknown,Floodlight,Unknown, , , , , , , , , , ,-37.798571,145.152931
Jackson Court Carpark,50 Jackson Ct Doncaster East Victoria 3109 Australia,Walking, ,5,Steel Pole,Pole Bracket,Small,Single,Bourke Hill LED,LED 25W, , , , , , , , , , , , ,-37.788685,145.148732
Jackson Court Carpark,50 Jackson Ct Doncaster East Victoria 3109 Australia,Walking, ,5,Steel Pole,Pole Bracket,Small,Single,Bourke Hill LED,LED 25W, , , , , , , , , , , , ,-37.788498,145.14881
Jackson Court Carpark,50 Jackson Ct Doncaster East Victoria 3109 Australia,Car Parking,7062799,12,Steel Pole,Pole Bracket,Large,Double,LRL NXT-60M,LED 133W,LRL NXT-60M,LED 133W, , , , , , , , , , ,-37.788363,145.148843
Jackson Court Carpark,50 Jackson Ct Doncaster East Victoria 3109 Australia,Car Parking, ,12,Steel Pole,Pole Bracket,Large,Double,Sylvania Roadster,HP Sodium 150W,Sylvania Roadster,HP Sodium 150W, , , , , , , , , , ,-37.789296,145.149196
Jackson Court Carpark,50 Jackson Ct Doncaster East Victoria 3109 Australia,Walking, ,5,Steel Pole,Pole Bracket,Small,Single,Bourke Hill LED,LED 25W, , , , , , , , , , , , ,-37.788731,145.14911
Jackson Court Carpark,50 Jackson Ct Doncaster East Victoria 3109 Australia,Walking, ,5,Steel Pole,Pole Bracket,Small,Single,Bourke Hill LED,LED 25W, , , , , , , , , , , , ,-37.788768,145.149433
Jackson Court Carpark,50 Jackson Ct Doncaster East Victoria 3109 Australia,Walking, ,5,Steel Pole,Pole Bracket,Small,Single,Bourke Hill LED,LED 25W, , , , , , , , , , , , ,-37.788567,145.148956
Jackson Court Carpark,50 Jackson Ct Doncaster East Victoria 3109 Australia,Walking, ,5,Steel Pole,Pole Bracket,Small,Single,Bourke Hill LED,LED 25W, , , , , , , , , , , , ,-37.788632,145.149098
Jackson Court Carpark,50 Jackson Ct Doncaster East Victoria 3109 Australia,Car Parking,7062803,12,Steel Pole,Pole Bracket,Large,Double,LRL NXT-60M,LED 133W,LRL NXT-60M,LED 133W, , , , , , , , , , ,-37.788098,145.149025
Jocelyn Court Reserve,38 Jocelyn Ct Doncaster East Victoria 3109 Australia,Park/Reserve,7063156,8,Timber Pole,No bracket, , ,Night Watchman / Spotlight,Unknown, , , , , , , , , , , , ,-37.78513,145.148983
Jocelyn Court Reserve,38 Jocelyn Ct Doncaster East Victoria 3109 Australia,Park/Reserve,7063290,8,Timber Pole,No bracket, , ,Night Watchman / Spotlight,Unknown, , , , , , , , , , , , ,-37.785037,145.149807
Doncaster Leeds Street Sports Centre,18 Leeds St Doncaster East Victoria 3109 Australia,Walking, ,5,Steel Pole,Pole Bracket,Small,Single,Sylvania StreetLED,LED 18W, , , , , , , , , , , , ,-37.788918,145.150367
Doncaster Leeds Street Sports Centre,18 Leeds St Doncaster East Victoria 3109 Australia,Walking, ,5,Steel Pole,Pole Bracket,Small,Single,Sylvania StreetLED,LED 18W, , , , , , , , , , , , ,-37.789228,145.150889
Doncaster Leeds Street Sports Centre,18 Leeds St Doncaster East Victoria 3109 Australia,Walking, ,5,Steel Pole,Pole Bracket,Small,Single,Sylvania StreetLED,LED 18W, , , , , , , , , , , , ,-37.789094,145.150569
Doncaster Leeds Street Sports Centre,18 Leeds St Doncaster East Victoria 3109 Australia,Sporting (Oval), ,25.5,Steel Pole,Pole Bracket,Small,Multiple,Floodlight,Unknown,Floodlight,Unknown,Floodlight,Unknown, , , , , , , , ,-37.789125,145.150724
Doncaster Leeds Street Sports Centre,18 Leeds St Doncaster East Victoria 3109 Australia,Walking, ,5,Steel Pole,Pole Bracket,Small,Single,Sylvania StreetLED,LED 18W, , , , , , , , , , , , ,-37.788548,145.150358
Doncaster Leeds Street Sports Centre,18 Leeds St Doncaster East Victoria 3109 Australia,Sporting (Oval), ,25.5,Steel Pole,Pole Bracket,Small,Multiple,Floodlight,Unknown,Floodlight,Unknown,Floodlight,Unknown, , , , , , , , ,-37.788304,145.150735
Doncaster Leeds Street Sports Centre,18 Leeds St Doncaster East Victoria 3109 Australia,Sporting (Oval), ,11.5,Steel Pole,Pole Bracket,Small,Double,Floodlight,Unknown,Floodlight,Unknown, , , , , , , , , , ,-37.788242,145.150857
Doncaster Leeds Street Sports Centre,18 Leeds St Doncaster East Victoria 3109 Australia,Walking, ,5,Steel Pole,Pole Bracket,Small,Single,Sylvania StreetLED,LED 18W, , , , , , , , , , , , ,-37.78928,145.151352
Doncaster Leeds Street Sports Centre,18 Leeds St Doncaster East Victoria 3109 Australia,Walking, ,5,Steel Pole,Pole Bracket,Small,Single,Sylvania StreetLED,LED 18W, , , , , , , , , , , , ,-37.789441,145.15178
Doncaster Leeds Street Sports Centre,18 Leeds St Doncaster East Victoria 3109 Australia,Sporting (Oval), ,25.5,Steel Pole,Pole Bracket,Small,Multiple,Floodlight,Unknown,Floodlight,Unknown,Floodlight,Unknown, , , , , , , , ,-37.789103,145.151821
Doncaster Leeds Street Sports Centre,18 Leeds St Doncaster East Victoria 3109 Australia,Sporting (Oval), ,11.5,Steel Pole,Pole Bracket,Small,Double,Floodlight,Unknown,Floodlight,Unknown, , , , , , , , , , ,-37.78821,145.151555
Doncaster Leeds Street Sports Centre,18 Leeds St Doncaster East Victoria 3109 Australia,Sporting (Oval), ,25.5,Steel Pole,Pole Bracket,Small,Multiple,Floodlight,Unknown,Floodlight,Unknown,Floodlight,Unknown, , , , , , , , ,-37.788321,145.151936
Celeste Reserve,10 Celeste St Doncaster East Victoria 3109 Australia,Park/Reserve,7063243,8,Concrete Pole,No bracket, , ,Night Watchman / Spotlight,Unknown, , , , , , , , , , , , ,-37.785988,145.150143
Doncaster Leeds Street Sports Centre,18 Leeds St Doncaster East Victoria 3109 Australia,Walking, ,5,Steel Pole,Pole Bracket,Small,Single,Sylvania StreetLED,LED 18W, , , , , , , , , , , , ,-37.789474,145.152087
Doncaster Leeds Street Sports Centre,18 Leeds St Doncaster East Victoria 3109 Australia,Car Parking,7062691,10,Timber Pole,No bracket, , ,Night Watchman / Spotlight,Unknown, , , , , , , , , , , , ,-37.789542,145.15243
Doncaster Leeds Street Sports Centre,18 Leeds St Doncaster East Victoria 3109 Australia,Car Parking,7062695,10,Timber Pole,Pole Mounted,Small,Double,LRL NXT-24S,LED 41W,LRL NXT-24S,LED 41W, , , , , , , , , , ,-37.789218,145.152446
Doncaster Leeds Street Sports Centre,18 Leeds St Doncaster East Victoria 3109 Australia,Car Parking,7062935,7.5,Concrete Pole,No bracket, , ,Night Watchman / Spotlight,Unknown,Night Watchman / Spotlight,Unknown, , , , , , , , , , ,-37.789094,145.152073
Doncaster Leeds Street Sports Centre,18 Leeds St Doncaster East Victoria 3109 Australia,Car Parking,7062934,7.5,Concrete Pole,Pole Mounted,Small,Single,LRL NXT-24S,LED 41W, , , , , , , , , , , , ,-37.788819,145.152284
Doncaster Leeds Street Sports Centre,18 Leeds St Doncaster East Victoria 3109 Australia,Car Parking,7062696,10,Timber Pole,Pole Mounted,Small,Double,LRL NXT-24S,LED 41W,LRL NXT-24S,LED 41W, , , , , , , , , , ,-37.788893,145.152517
Doncaster Leeds Street Sports Centre,18 Leeds St Doncaster East Victoria 3109 Australia,Car Parking,7062699,10,Timber Pole,Pole Mounted,Small,Single,LRL NXT-24S,LED 41W, , , , , , , , , , , , ,-37.788591,145.152576
Maxia Road Reserve,3 Maxia Rd Doncaster East Victoria 3109 Australia,Walking,7062299,5.5,Steel Pole,Pole Bracket,Small,Single,Sylvania StreetLED,LED 18W, , , , , , , , , , , , ,-37.797511,145.15941
Morna Reserve,26 Morna Rd Doncaster East Victoria 3109 Australia,Walking,7062444,5.5,Timber Pole,No bracket, , ,Night Watchman / Spotlight,Unknown, , , , , , , , , , , , ,-37.792352,145.159087
Doncaster East Shopping (Devon Plaza),Devon St Doncaster East,Car Parking, ,8,Steel Pole,Pole Bracket,Small,Double,Sylvania Urban,HP Sodium 100W,Sylvania Urban,HP Sodium 100W, , , , , , , , , , ,-37.789343,145.157317
Doncaster East Shopping (Devon Plaza),Devon St Doncaster East,Car Parking, ,8,Steel Pole,Pole Bracket,Large,Double,Sylvania Roadster,HP Sodium 150W,Sylvania Roadster,HP Sodium 150W, , , , , , , , , , ,-37.788899,145.157365
Doncaster East Shopping (Devon Plaza),Devon St Doncaster East,Car Parking, ,8,Steel Pole,Pole Bracket,Small,Double,Sylvania Urban,HP Sodium 100W,Sylvania Urban,HP Sodium 100W, , , , , , , , , , ,-37.789384,145.157685
Doncaster East Shopping (Devon Plaza),Devon St Doncaster East,Car Parking, ,8,Steel Pole,Pole Bracket,Large,Double,Sylvania Roadster,HP Sodium 150W,Sylvania Roadster,HP Sodium 150W, , , , , , , , , , ,-37.788931,145.157715
Doncaster East Shopping (Devon Plaza),Devon St Doncaster East,Car Parking, ,8,Steel Pole,Pole Bracket,Large,Double,Sylvania Roadster,HP Sodium 150W,Sylvania Roadster,HP Sodium 150W, , , , , , , , , , ,-37.789047,145.158135
Doncaster East Shopping (Devon Plaza),Devon St Doncaster East,Car Parking, ,8,Steel Pole,Pole Bracket,Large,Double,Sylvania Roadster,HP Sodium 150W,Sylvania Roadster,HP Sodium 150W, , , , , , , , , , ,-37.789057,145.158478
Schramms Reserve,J J Tully Dr Victoria 3108 Australia,Sporting (Oval), ,15,Concrete Pole,No bracket, , ,Floodlight,Unknown,Floodlight,Unknown, , , , , , , , , , ,-37.781067,145.133409
Ruffey Lake Park,37 McCallum Rd Victoria 3108 Australia,Park/Reserve, ,5,Steel Pole,Pole Bracket,Medium,Single,Sylvania StreetLED,LED 18W, , , , , , , , , , , , ,-37.777017,145.132829
Ruffey Lake Park,37 McCallum Rd Victoria 3108 Australia,Park/Reserve, ,5,Steel Pole,Pole Bracket,Medium,Single,Sylvania StreetLED,LED 18W, , , , , , , , , , , , ,-37.776844,145.133119
Ruffey Lake Park,37 McCallum Rd Victoria 3108 Australia,Park/Reserve, ,5,Steel Pole,Pole Bracket,Medium,Single,Sylvania StreetLED,LED 18W, , , , , , , , , , , , ,-37.776708,145.133487
Schramms Reserve,J J Tully Dr Victoria 3108 Australia,Sporting (Oval), ,15,Concrete Pole,No bracket, , ,Floodlight,Unknown,Floodlight,Unknown, , , , , , , , , , ,-37.781199,145.134639
Pedestrian path,8 Montpellier Crescent Victoria 3107 Australia,Walking,7058949,8,Timber Pole,No bracket, , ,Night Watchman / Spotlight,Unknown, , , , , , , , , , , , ,-37.767542,145.130906
Williamsons Rd Pedestrian Tunnel,221 Williamsons Rd Templestowe Victoria 3106 Australia,Walking (tunnel), ,3,Wall Mounted,No bracket, , ,Decorative,Unknown, , , , , , , , , , , , ,-37.767268,145.131201
Williamsons Rd Pedestrian Tunnel,221 Williamsons Rd Templestowe Victoria 3106 Australia,Walking (tunnel), ,3,Wall Mounted,No bracket, , ,Decorative,Unknown, , , , , , , , , , , , ,-37.767278,145.13124
Williamsons Rd Pedestrian Tunnel,221 Williamsons Rd Templestowe Victoria 3106 Australia,Walking (tunnel), ,3,Wall Mounted,No bracket, , ,Decorative,Unknown, , , , , , , , , , , , ,-37.767309,145.131312
Williamsons Rd Pedestrian Tunnel,221 Williamsons Rd Templestowe Victoria 3106 Australia,Walking (tunnel), ,3,Wall Mounted,No bracket, , ,Decorative,Unknown, , , , , , , , , , , , ,-37.76732,145.131364
Williamsons Rd Pedestrian Tunnel,221 Williamsons Rd Templestowe Victoria 3106 Australia,Walking (tunnel), ,3,Wall Mounted,No bracket, , ,Decorative,Unknown, , , , , , , , , , , , ,-37.767295,145.131278
Williamsons Rd Pedestrian Tunnel,221 Williamsons Rd Templestowe Victoria 3106 Australia,Walking (tunnel), ,3,Wall Mounted,No bracket, , ,Decorative,Unknown, , , , , , , , , , , , ,-37.767361,145.131442
Williamsons Rd Pedestrian Tunnel,221 Williamsons Rd Templestowe Victoria 3106 Australia,Walking (tunnel), ,3,Wall Mounted,No bracket, , ,Decorative,Unknown, , , , , , , , , , , , ,-37.767347,145.131408
Williamsons Rd Pedestrian Tunnel,221 Williamsons Rd Templestowe Victoria 3106 Australia,Walking (tunnel), ,3,Wall Mounted,No bracket, , ,Decorative,Unknown, , , , , , , , , , , , ,-37.767373,145.131486
Williamsons Rd Pedestrian Tunnel,221 Williamsons Rd Templestowe Victoria 3106 Australia,Walking (tunnel), ,3,Wall Mounted,No bracket, , ,Decorative,Unknown, , , , , , , , , , , , ,-37.767389,145.131519
Pedestrian path,224-230 Williamsons Rd Victoria 3108 Australia,Walking (tunnel), ,6,Steel Pole,Pole Bracket,Small,Single,Small shoebox,Unknown, , , , , , , , , , , , ,-37.76744,145.131632
Pedestrian path,224-230 Williamsons Rd Victoria 3108 Australia,Walking (tunnel), ,6,Steel Pole,Pole Bracket,Small,Single,Small shoebox,Unknown, , , , , , , , , , , , ,-37.767527,145.1318
Pedestrian path,224-230 Williamsons Rd Victoria 3108 Australia,Walking (tunnel), ,6,Steel Pole,Pole Bracket,Small,Single,Small shoebox,Unknown, , , , , , , , , , , , ,-37.767587,145.131921
Ruffey Trail,King St Victoria Australia,Walking, ,6,Steel Pole,Pole Bracket,Small,Single,Greenstreet,Fluo 14W, , , , , , , , , , , , ,-37.77074,145.135428
Ruffey Lake Park,216 Church Rd Victoria 3108 Australia,Park/Reserve,7060899,5.5,Timber Pole,No bracket, , ,Night Watchman / Spotlight,Unknown, , , , , , , , , , , , ,-37.777633,145.139685
Rieschiecks Reserve,145 George St Doncaster East Victoria 3109 Australia,Car Parking, ,15,Concrete Pole,No bracket, , ,Floodlight,Unknown,Floodlight,Unknown, , , , , , , , , , ,-37.779573,145.145317
Rieschiecks Reserve,145 George St Doncaster East Victoria 3109 Australia,Car Parking, ,15,Concrete Pole,No bracket, , ,Floodlight,Unknown,Floodlight,Unknown, , , , , , , , , , ,-37.780241,145.145855
Templestowe RSL,157 Parker St Templestowe Victoria 3106 Australia,Walking, ,5,Steel Pole,Pole Bracket,Medium,Single,Sylvania StreetLED,LED 18W, , , , , , , , , , , , ,-37.75837,145.129582
Templestowe RSL,157 Parker St Templestowe Victoria 3106 Australia,Walking, ,5,Steel Pole,Pole Bracket,Medium,Single,Sylvania StreetLED,LED 18W, , , , , , , , , , , , ,-37.758218,145.129533
Templestowe RSL,157 Parker St Templestowe Victoria 3106 Australia,Walking, ,5,Steel Pole,Pole Bracket,Medium,Single,Sylvania StreetLED,LED 18W, , , , , , , , , , , , ,-37.758126,145.129564
Parker Street Shopping Carpark,155 Parker St Templestowe Victoria 3106 Australia,Walking, ,4.5,Steel Pole,Pole Bracket,Medium,Single,Bourke Hill LED,LED 25W, , , , , , , , , , , , ,-37.757687,145.129586
Parker Street Shopping Carpark,155 Parker St Templestowe Victoria 3106 Australia,Walking, ,4.5,Steel Pole,Pole Bracket,Medium,Single,Bourke Hill LED,LED 25W, , , , , , , , , , , , ,-37.757594,145.129595
Parker Street Shopping Carpark,155 Parker St Templestowe Victoria 3106 Australia,Walking, ,4.5,Steel Pole,Pole Bracket,Medium,Single,Bourke Hill LED,LED 25W, , , , , , , , , , , , ,-37.757508,145.129592
Parker Street Shopping Carpark,155 Parker St Templestowe Victoria 3106 Australia,Walking, ,4.5,Steel Pole,Pole Bracket,Medium,Single,Bourke Hill LED,LED 25W, , , , , , , , , , , , ,-37.757424,145.129644
Parker Street Shopping Carpark,155 Parker St Templestowe Victoria 3106 Australia,Walking,9932024,4.5,Steel Pole,Pole Bracket,Medium,Single,Bourke Hill LED,LED 25W, , , , , , , , , , , , ,-37.757368,145.129732
Parker Street Shopping Carpark,155 Parker St Templestowe Victoria 3106 Australia,Walking,9829275,4.5,Steel Pole,Pole Bracket,Medium,Single,Bourke Hill LED,LED 25W, , , , , , , , , , , , ,-37.757931,145.129998
Parker Street Shopping Carpark,155 Parker St Templestowe Victoria 3106 Australia,Walking,9829276,4.5,Steel Pole,Pole Bracket,Medium,Single,Bourke Hill LED,LED 25W, , , , , , , , , , , , ,-37.757784,145.129998
Parker Street Shopping Carpark,155 Parker St Templestowe Victoria 3106 Australia,Walking,9829273,4.5,Steel Pole,Pole Bracket,Medium,Single,Bourke Hill LED,LED 25W, , , , , , , , , , , , ,-37.757455,145.130023
Parker Street Shopping Carpark,155 Parker St Templestowe Victoria 3106 Australia,Walking,9829277,4.5,Steel Pole,Pole Bracket,Medium,Single,Bourke Hill LED,LED 25W, , , , , , , , , , , , ,-37.757548,145.130053
Parker Street Shopping Carpark,155 Parker St Templestowe Victoria 3106 Australia,Walking,9829274,4.5,Steel Pole,Pole Bracket,Medium,Single,Bourke Hill LED,LED 25W, , , , , , , , , , , , ,-37.75751,145.130103
Parker Street Shopping Carpark,155 Parker St Templestowe Victoria 3106 Australia,Walking,9829272,4.5,Steel Pole,Pole Bracket,Medium,Single,Bourke Hill LED,LED 25W, , , , , , , , , , , , ,-37.757424,145.130139
Parker Street Shopping Carpark,155 Parker St Templestowe Victoria 3106 Australia,Walking,9829271,4.5,Steel Pole,Pole Bracket,Medium,Single,Bourke Hill LED,LED 25W, , , , , , , , , , , , ,-37.757283,145.130138
Templestowe Reserve,34 Hawtin St Templestowe Victoria 3106 Australia,Sporting (Oval), ,26,Steel Pole,Pole Mounted,Small,Multiple,Floodlight,Unknown,Floodlight,Unknown,Floodlight,Unknown, , , , , , , , ,-37.755501,145.136982
Templestowe Reserve,34 Hawtin St Templestowe Victoria 3106 Australia,Sporting (Oval), ,26,Steel Pole,Pole Mounted,Small,Multiple,Floodlight,Unknown,Floodlight,Unknown,Floodlight,Unknown, , , , , , , , ,-37.75489,145.137511
Templestowe Reserve,34 Hawtin St Templestowe Victoria 3106 Australia,Sporting (Oval), ,26,Steel Pole,Pole Mounted,Small,Multiple,Floodlight,Unknown,Floodlight,Unknown,Floodlight,Unknown, , , , , , , , ,-37.75487,145.135888
Templestowe Reserve,34 Hawtin St Templestowe Victoria 3106 Australia,Sporting (Oval), ,26,Steel Pole,Pole Mounted,Small,Multiple,Floodlight,Unknown,Floodlight,Unknown,Floodlight,Unknown, , , , , , , , ,-37.75428,145.136425
Templestowe Tennis Club,5 Hawtin St Templestowe Victoria 3106 Australia,Sporting (Tennis Court), ,7,Steel Pole,Pole Bracket,Medium,Double,Shoebox,Unknown, , , , , , , , , , , , ,-37.753333,145.136065
Templestowe Tennis Club,5 Hawtin St Templestowe Victoria 3106 Australia,Sporting (Tennis Court), ,7,Steel Pole,Pole Bracket,Medium,Double,Shoebox,Unknown, , , , , , , , , , , , ,-37.75319,145.136085
Templestowe Tennis Club,5 Hawtin St Templestowe Victoria 3106 Australia,Sporting (Tennis Court), ,7,Steel Pole,Pole Bracket,Medium,Double,Shoebox,Unknown, , , , , , , , , , , , ,-37.753042,145.136116
Templestowe Tennis Club,5 Hawtin St Templestowe Victoria 3106 Australia,Sporting (Tennis Court), ,7,Steel Pole,Pole Bracket,Medium,Double,Shoebox,Unknown,Shoebox,Unknown, , , , , , , , , , ,-37.753358,145.136229
Templestowe Tennis Club,5 Hawtin St Templestowe Victoria 3106 Australia,Sporting (Tennis Court), ,7,Steel Pole,Pole Bracket,Medium,Double,Shoebox,Unknown,Shoebox,Unknown, , , , , , , , , , ,-37.753374,145.136396
Templestowe Tennis Club,5 Hawtin St Templestowe Victoria 3106 Australia,Sporting (Tennis Court), ,7,Steel Pole,Pole Bracket,Medium,Single,Shoebox,Unknown, , , , , , , , , , , , ,-37.753387,145.136556
Templestowe Tennis Club,7 Hawtin St Templestowe Victoria 3106 Australia,Sporting (Tennis Court), ,13,Steel Pole,No bracket, , ,Floodlight,Unknown, , , , , , , , , , , , ,-37.753403,145.13656
Templestowe Tennis Club,5 Hawtin St Templestowe Victoria 3106 Australia,Sporting (Tennis Court), ,7,Steel Pole,Pole Bracket,Medium,Double,Shoebox,Unknown,Shoebox,Unknown, , , , , , , , , , ,-37.753211,145.136255
Templestowe Tennis Club,5 Hawtin St Templestowe Victoria 3106 Australia,Sporting (Tennis Court), ,7,Steel Pole,Pole Bracket,Medium,Double,Shoebox,Unknown,Shoebox,Unknown, , , , , , , , , , ,-37.753064,145.136282
Templestowe Tennis Club,5 Hawtin St Templestowe Victoria 3106 Australia,Sporting (Tennis Court), ,7,Steel Pole,Pole Bracket,Medium,Double,Shoebox,Unknown,Shoebox,Unknown, , , , , , , , , , ,-37.753229,145.136421
Templestowe Tennis Club,5 Hawtin St Templestowe Victoria 3106 Australia,Sporting (Tennis Court), ,7,Steel Pole,Pole Bracket,Medium,Single,Shoebox,Unknown, , , , , , , , , , , , ,-37.753244,145.136578
Templestowe Tennis Club,5 Hawtin St Templestowe Victoria 3106 Australia,Sporting (Tennis Court), ,7,Steel Pole,Pole Bracket,Medium,Single,Shoebox,Unknown, , , , , , , , , , , , ,-37.753097,145.136605
Templestowe Tennis Club,7 Hawtin St Templestowe Victoria 3106 Australia,Sporting (Tennis Court), ,13,Steel Pole,No bracket, , ,Floodlight,Unknown, , , , , , , , , , , , ,-37.753091,145.136615
Templestowe Tennis Club,5 Hawtin St Templestowe Victoria 3106 Australia,Sporting (Tennis Court), ,7,Steel Pole,Pole Bracket,Medium,Double,Shoebox,Unknown,Shoebox,Unknown, , , , , , , , , , ,-37.753082,145.136449
Templestowe Reserve,94-140 Porter St Templestowe Victoria 3106 Australia,Sporting (Oval), ,14,Concrete Pole,No bracket, , ,Floodlight,Unknown, , , , , , , , , , , , ,-37.753955,145.137139
Templestowe Reserve,94-140 Porter St Templestowe Victoria 3106 Australia,Sporting (Oval), ,14,Timber Pole,Pole Mounted,Small,Multiple,Floodlight,Unknown,Floodlight,Unknown,Floodlight,Unknown,Small spotlight,Unknown,Small spotlight,Unknown,Small spotlight,Unknown,Small spotlight,Unknown,-37.754561,145.137294
Templestowe Reserve,107-123 Porter St Templestowe Victoria 3106 Australia,Car Parking, ,5.5,Steel Pole,Pole Bracket,Small,Single,LRL NXT-24S,LED 41W, , , , , , , , , , , , ,-37.753691,145.136707
Templestowe Reserve,107-123 Porter St Templestowe Victoria 3106 Australia,Car Parking, ,5.5,Steel Pole,Pole Bracket,Small,Single,LRL NXT-24S,LED 41W, , , , , , , , , , , , ,-37.753769,145.136822
Templestowe Tennis Club,7 Hawtin St Templestowe Victoria 3106 Australia,Sporting (Tennis Court), ,13,Steel Pole,No bracket, , ,Floodlight,Unknown, , , , , , , , , , , , ,-37.753438,145.136893
Templestowe Tennis Club,7 Hawtin St Templestowe Victoria 3106 Australia,Sporting (Tennis Court), ,13,Steel Pole,No bracket, , ,Floodlight,Unknown, , , , , , , , , , , , ,-37.753126,145.136942
Templestowe Reserve,107-123 Porter St Templestowe Victoria 3106 Australia,Car Parking, ,5.5,Steel Pole,Pole Bracket,Small,Single,LRL NXT-24S,LED 41W, , , , , , , , , , , , ,-37.753752,145.137166
Templestowe Reserve,107-123 Porter St Templestowe Victoria 3106 Australia,Car Parking, ,5.5,Steel Pole,Pole Bracket,Small,Single,LRL NXT-24S,LED 41W, , , , , , , , , , , , ,-37.75359,145.137189
Templestowe Reserve,107-123 Porter St Templestowe Victoria 3106 Australia,Car Parking, ,5.5,Steel Pole,Pole Bracket,Small,Single,LRL NXT-24S,LED 41W, , , , , , , , , , , , ,-37.753357,145.13722
Templestowe Reserve,94-140 Porter St Templestowe Victoria 3106 Australia,Sporting (Oval), ,14,Concrete Pole,No bracket, , ,Floodlight,Unknown, , , , , , , , , , , , ,-37.75354,145.13732
Templestowe Roundabout,101 Porter St Templestowe Victoria 3106 Australia,Park/Reserve, ,0,Ground recessed,No bracket, , ,Floodlight,Met Halide 70W, , , , , , , , , , , , ,-37.752625,145.134949
Templestowe Roundabout,101 Porter St Templestowe Victoria 3106 Australia,Park/Reserve, ,0,Ground recessed,No bracket, , ,Floodlight,Met Halide 70W, , , , , , , , , , , , ,-37.752548,145.134925
Templestowe Roundabout,101 Porter St Templestowe Victoria 3106 Australia,Park/Reserve, ,0,Ground recessed,No bracket, , ,Floodlight,Met Halide 70W, , , , , , , , , , , , ,-37.752549,145.134966
Templestowe Reserve,94-140 Porter St Templestowe Victoria 3106 Australia,Sporting (Oval), ,14,Concrete Pole,No bracket, , ,Floodlight,Unknown, , , , , , , , , , , , ,-37.754317,145.13844
Templestowe Reserve,94-140 Porter St Templestowe Victoria 3106 Australia,Sporting (Oval), ,14,Concrete Pole,No bracket, , ,Floodlight,Unknown, , , , , , , , , , , , ,-37.753141,145.138032
Templestowe Reserve,94-140 Porter St Templestowe Victoria 3106 Australia,Sporting (Oval), ,14,Concrete Pole,No bracket, , ,Floodlight,Unknown, , , , , , , , , , , , ,-37.753648,145.138608
Mandella Street Reserve,23 Jacobena Pl Templestowe Victoria 3106 Australia,Park/Reserve, ,5,Steel Pole (Solar),Pole Mounted,Small,Single,LED Fitting,LED, , , , , , , , , , , , ,-37.756284,145.141192
Mandella Street Reserve,23 Jacobena Pl Templestowe Victoria 3106 Australia,Park/Reserve, ,5,Steel Pole (Solar),Pole Mounted,Small,Single,LED Fitting,LED, , , , , , , , , , , , ,-37.756415,145.141479
Carlton Ct Pedestrian Path,18A Carlton Ct Templestowe Victoria 3106 Australia,Walking, ,5,Steel Pole (Solar),Pole Bracket,Medium,Single,LED Fitting,LED, , , , , , , , , , , , ,-37.753781,145.141477
Rieschiecks Reserve,145 George St Doncaster East Victoria 3109 Australia,Car Parking, ,8,Concrete Pole,Pole Mounted,Small,Single,Sylvania Roadster,HP Sodium 150W,Floodlight,Unknown,Floodlight,Unknown, , , , , , , , ,-37.780173,145.146984
Rieschiecks Reserve,145 George St Doncaster East Victoria 3109 Australia,Car Parking, ,15,Concrete Pole,No bracket, , ,Floodlight,Unknown, , , , , , , , , , , , ,-37.779699,145.146921
Heimat Centre,126-128 George St Doncaster East Victoria 3109 Australia,Car Parking, ,5.5,Steel Pole,Pole Bracket,Small,Single,Sylvania StreetLED,LED 18W, , , , , , , , , , , , ,-37.780459,145.147741
Heimat Centre,126-128 George St Doncaster East Victoria 3109 Australia,Car Parking, ,5.5,Steel Pole,Pole Bracket,Small,Single,Sylvania StreetLED,LED 18W, , , , , , , , , , , , ,-37.780333,145.147787
Tom Kelly Athletics Field,Muriel Green Dr Doncaster East Victoria 3109 Australia,Sporting (Athletic), ,15,Concrete Pole,No bracket, , ,Floodlight,Unknown,Floodlight,Unknown,Floodlight,Unknown,Floodlight,Unknown, , , , , , ,-37.77946,145.147453
Rieschiecks Reserve,145 George St Doncaster East Victoria 3109 Australia,Car Parking, ,15,Concrete Pole,No bracket, , ,Floodlight,Unknown, , , , , , , , , , , , ,-37.779055,145.146499
Schramms Cottage Carpark,125 George St Doncaster East Victoria 3109 Australia,Car Parking,10426,5.5,Steel Pole,Pole Bracket,Small,Single,LRL NXT-24S,LED 41W, , , , , , , , , , , , ,-37.777884,145.146118
Schramms Cottage Carpark,125 George St Doncaster East Victoria 3109 Australia,Car Parking, ,5.5,Steel Pole,Pole Bracket,Small,Single,LRL NXT-24S,LED 41W, , , , , , , , , , , , ,-37.778011,145.146636
Tom Kelly Athletics Field,145 George St Doncaster East Victoria 3109 Australia,Car Parking, ,15,Concrete Pole,No bracket, , ,Floodlight,Unknown,Floodlight,Unknown, , , , , , , , , , ,-37.779381,145.146888
Tom Kelly Athletics Field,Muriel Green Dr Doncaster East Victoria 3109 Australia,Car Parking, ,12,Timber Pole,No bracket, , ,Floodlight,Unknown, , , , , , , , , , , , ,-37.780569,145.147979
Tom Kelly Athletics Field,Muriel Green Dr Doncaster East Victoria 3109 Australia,Car Parking, ,12,Timber Pole,No bracket, , ,Floodlight,Unknown,Floodlight,Unknown, , , , , , , , , , ,-37.78063,145.148308
Tom Kelly Athletics Field,Muriel Green Dr Doncaster East Victoria 3109 Australia,Car Parking, ,12,Timber Pole,No bracket, , ,Floodlight,Unknown,Floodlight,Unknown, , , , , , , , , , ,-37.780698,145.148643
Tom Kelly Athletics Field,Muriel Green Dr Doncaster East Victoria 3109 Australia,Sporting (Athletic), ,12,Timber Pole,No bracket, , ,Floodlight,Unknown,Floodlight,Unknown, , , , , , , , , , ,-37.780088,145.148152
Tom Kelly Athletics Field,Muriel Green Dr Doncaster East Victoria 3109 Australia,Sporting (Athletic), ,12,Timber Pole,No bracket, , ,Floodlight,Unknown,Floodlight,Unknown,Small spotlight,Unknown, , , , , , , , ,-37.780152,145.148473
Tom Kelly Athletics Field,Muriel Green Dr Doncaster East Victoria 3109 Australia,Sporting (Athletic), ,15,Concrete Pole,No bracket, , ,Floodlight,Unknown,Floodlight,Unknown,Floodlight,Unknown,Floodlight,Unknown, , , , , , ,-37.780035,145.148457
Tom Kelly Athletics Field,Muriel Green Dr Doncaster East Victoria 3109 Australia,Car Parking, ,12,Timber Pole,No bracket, , ,Floodlight,Unknown,Floodlight,Unknown, , , , , , , , , , ,-37.780213,145.148803
Tom Kelly Athletics Field,Muriel Green Dr Doncaster East Victoria 3109 Australia,Car Parking, ,12,Timber Pole,No bracket, , ,Night Watchman / Spotlight,Merc Vap 250W,Night Watchman / Spotlight,Merc Vap 250W, , , , , , , , , , ,-37.780284,145.149133
Tom Kelly Athletics Field,Muriel Green Dr Doncaster East Victoria 3109 Australia,Sporting (Athletic), ,15,Concrete Pole,No bracket, , ,Floodlight,Unknown,Floodlight,Unknown,Floodlight,Unknown, , , , , , , , ,-37.778785,145.14811
Tom Kelly Athletics Field,Muriel Green Dr Doncaster East Victoria 3109 Australia,Sporting (Athletic), ,15,Concrete Pole,No bracket, , ,Floodlight,Unknown,Floodlight,Unknown,Floodlight,Unknown, , , , , , , , ,-37.779299,145.149003
Woodlea Street Reserve,6 Loxley Ct Doncaster East Victoria 3109 Australia,Walking,9495,5,Steel Pole,Pole Bracket,Small,Single,LRL NXT-24S,LED 41W, , , , , , , , , , , , ,-37.775564,145.147769
Woodlea Street Reserve,6 Loxley Ct Doncaster East Victoria 3109 Australia,Walking,9493,5,Steel Pole,Pole Bracket,Small,Single,LRL NXT-24S,LED 41W, , , , , , , , , , , , ,-37.775068,145.147824
Woodlea Street Reserve,6 Loxley Ct Doncaster East Victoria 3109 Australia,Walking,7063471,5,Steel Pole,Pole Bracket,Small,Single,LRL NXT-24S,LED 41W, , , , , , , , , , , , ,-37.775593,145.148297
Woodlea Street Reserve,6 Loxley Ct Doncaster East Victoria 3109 Australia,Walking,9494,5,Steel Pole,Pole Bracket,Small,Single,LRL NXT-24S,LED 41W, , , , , , , , , , , , ,-37.775332,145.147906
Serpell Community Reserve,8 Trevinden Close Templestowe Victoria 3106 Australia,Sporting (Tennis Court), ,7.5,Steel Pole,Pole Bracket,Small,Single,Shoebox,Unknown, , , , , , , , , , , , ,-37.771031,145.151959
Serpell Community Reserve,8 Trevinden Close Templestowe Victoria 3106 Australia,Sporting (Tennis Court), ,7.5,Steel Pole,Pole Bracket,Small,Single,Shoebox,Unknown, , , , , , , , , , , , ,-37.770927,145.151979
Serpell Community Reserve,8 Trevinden Close Templestowe Victoria 3106 Australia,Sporting (Tennis Court), ,7.5,Steel Pole,Pole Bracket,Small,Single,Shoebox,Unknown, , , , , , , , , , , , ,-37.770825,145.151999
Serpell Community Reserve,5 Rebecca Close Templestowe Victoria 3106 Australia,Sporting (Oval), ,15,Steel Pole,Pole Mounted,Small,Double,Floodlight,Unknown,Floodlight,Unknown, , , , , , , , , , ,-37.769575,145.151902
Serpell Community Reserve,8 Trevinden Close Templestowe Victoria 3106 Australia,Sporting (Tennis Court), ,7.5,Steel Pole,Pole Bracket,Small,Double,Shoebox,Unknown,Shoebox,Unknown, , , , , , , , , , ,-37.771096,145.152127
Serpell Community Reserve,8 Trevinden Close Templestowe Victoria 3106 Australia,Sporting (Tennis Court), ,7.5,Steel Pole,Pole Bracket,Small,Double,Shoebox,Unknown,Shoebox,Unknown, , , , , , , , , , ,-37.770949,145.152149
Serpell Community Reserve,8 Trevinden Close Templestowe Victoria 3106 Australia,Sporting (Tennis Court), ,7.5,Steel Pole,Pole Bracket,Small,Double,Shoebox,Unknown,Shoebox,Unknown, , , , , , , , , , ,-37.7708,145.152163
Serpell Community Reserve,8 Trevinden Close Templestowe Victoria 3106 Australia,Sporting (Tennis Court), ,7.5,Steel Pole,Pole Bracket,Small,Double,Shoebox,Unknown,Shoebox,Unknown, , , , , , , , , , ,-37.771073,145.152313
Serpell Community Reserve,8 Trevinden Close Templestowe Victoria 3106 Australia,Sporting (Tennis Court), ,7.5,Steel Pole,Pole Bracket,Small,Double,Shoebox,Unknown,Shoebox,Unknown, , , , , , , , , , ,-37.77114,145.152487
Serpell Community Reserve,8 Trevinden Close Templestowe Victoria 3106 Australia,Sporting (Tennis Court), ,7.5,Steel Pole,Pole Bracket,Small,Double,Shoebox,Unknown,Shoebox,Unknown, , , , , , , , , , ,-37.770969,145.152343
Serpell Community Reserve,8 Trevinden Close Templestowe Victoria 3106 Australia,Sporting (Tennis Court), ,7.5,Steel Pole,Pole Bracket,Small,Double,Shoebox,Unknown,Shoebox,Unknown, , , , , , , , , , ,-37.770867,145.15236
Serpell Community Reserve,5 Rebecca Close Templestowe Victoria 3106 Australia,Sporting (Oval), ,15,Steel Pole,Pole Mounted,Small,Double,Floodlight,Unknown,Floodlight,Unknown, , , , , , , , , , ,-37.770243,145.152124
Serpell Community Reserve,8 Trevinden Close Templestowe Victoria 3106 Australia,Sporting (Tennis Court), ,7.5,Steel Pole,Pole Bracket,Small,Double,Shoebox,Unknown,Shoebox,Unknown, , , , , , , , , , ,-37.771118,145.152675
Serpell Community Reserve,8 Trevinden Close Templestowe Victoria 3106 Australia,Sporting (Tennis Court), ,7.5,Steel Pole,Pole Bracket,Small,Double,Shoebox,Unknown,Shoebox,Unknown, , , , , , , , , , ,-37.771016,145.152692
Serpell Community Reserve,8 Trevinden Close Templestowe Victoria 3106 Australia,Sporting (Tennis Court), ,7.5,Steel Pole,Pole Bracket,Small,Double,Shoebox,Unknown,Shoebox,Unknown, , , , , , , , , , ,-37.770994,145.152514
Serpell Community Reserve,8 Trevinden Close Templestowe Victoria 3106 Australia,Sporting (Tennis Court), ,7.5,Steel Pole,Pole Bracket,Small,Double,Shoebox,Unknown,Shoebox,Unknown, , , , , , , , , , ,-37.770847,145.152539
Serpell Community Reserve,8 Trevinden Close Templestowe Victoria 3106 Australia,Sporting (Tennis Court), ,7.5,Steel Pole,Pole Bracket,Small,Double,Shoebox,Unknown,Shoebox,Unknown, , , , , , , , , , ,-37.770913,145.152712
Serpell Community Reserve,8 Trevinden Close Templestowe Victoria 3106 Australia,Sporting (Tennis Court), ,7.5,Steel Pole,Pole Bracket,Small,Double,Shoebox,Unknown,Shoebox,Unknown, , , , , , , , , , ,-37.771182,145.152838
Serpell Community Reserve,8 Trevinden Close Templestowe Victoria 3106 Australia,Sporting (Tennis Court), ,7.5,Steel Pole,Pole Bracket,Small,Double,Shoebox,Unknown,Shoebox,Unknown, , , , , , , , , , ,-37.771037,145.15286
Serpell Community Reserve,8 Trevinden Close Templestowe Victoria 3106 Australia,Sporting (Tennis Court), ,7.5,Steel Pole,Pole Bracket,Small,Double,Shoebox,Unknown,Shoebox,Unknown, , , , , , , , , , ,-37.770885,145.152891
Serpell Community Reserve,8 Trevinden Close Templestowe Victoria 3106 Australia,Sporting (Tennis Court), ,7.5,Steel Pole,Pole Bracket,Small,Single,Shoebox,Unknown, , , , , , , , , , , , ,-37.771159,145.153026
Serpell Community Reserve,8 Trevinden Close Templestowe Victoria 3106 Australia,Sporting (Tennis Court), ,7.5,Steel Pole,Pole Bracket,Small,Single,Shoebox,Unknown, , , , , , , , , , , , ,-37.771059,145.153045
Serpell Community Reserve,8 Trevinden Close Templestowe Victoria 3106 Australia,Sporting (Tennis Court), ,7.5,Steel Pole,Pole Bracket,Small,Single,Shoebox,Unknown, , , , , , , , , , , , ,-37.770955,145.153068
Serpell Community Reserve,5 Rebecca Close Templestowe Victoria 3106 Australia,Sporting (Oval), ,15,Steel Pole,Pole Mounted,Small,Double,Floodlight,Unknown,Floodlight,Unknown, , , , , , , , , , ,-37.770561,145.153559
Serpell Community Reserve,5 Rebecca Close Templestowe Victoria 3106 Australia,Sporting (Oval), ,15,Steel Pole,Pole Mounted,Small,Double,Floodlight,Unknown,Floodlight,Unknown, , , , , , , , , , ,-37.769786,145.153622
Zerbes Reserve,45 Hertford Rd Doncaster East Victoria 3109 Australia,Sporting (Oval), ,12,Timber Pole,Pole Mounted,Small,Double,Floodlight,Unknown,Floodlight,Unknown, , , , , , , , , , ,-37.779071,145.159502
Zerbes Reserve,45 Hertford Rd Doncaster East Victoria 3109 Australia,Sporting (Oval), ,12,Timber Pole,No bracket, , ,Floodlight,Unknown,Small spotlight,Unknown,Small spotlight,Unknown, , , , , , , , ,-37.778573,145.15924
Zerbes Reserve,45 Hertford Rd Doncaster East Victoria 3109 Australia,Sporting (Oval), ,12,Timber Pole,Pole Mounted,Small,Double,Floodlight,Unknown,Floodlight,Unknown, , , , , , , , , , ,-37.77916,145.160051
Zerbes Reserve,45 Hertford Rd Doncaster East Victoria 3109 Australia,Sporting (Oval), ,12,Timber Pole,Pole Mounted,Small,Double,Floodlight,Unknown,Floodlight,Unknown, , , , , , , , , , ,-37.777972,145.159469
Zerbes Reserve,45 Hertford Rd Doncaster East Victoria 3109 Australia,Sporting (Oval), ,12,Timber Pole,Pole Mounted,Small,Double,Floodlight,Unknown,Floodlight,Unknown, , , , , , , , , , ,-37.778836,145.160496
Zerbes Reserve,8 Saxonwood Dr Doncaster East Victoria 3109 Australia,Street in Zerbes Reserve,7063636,6.5,Timber Pole,Pole Mounted,Small,Single,Night Watchman / Spotlight,Unknown, , , , , , , , , , , , ,-37.77921,145.160956
Zerbes Reserve,8 Saxonwood Dr Doncaster East Victoria 3109 Australia,Car Parking,7063637,6.5,Timber Pole,Pole Mounted,Small,Single,Night Watchman / Spotlight,Unknown, , , , , , , , , , , , ,-37.7787,145.160929
Zerbes Reserve,45 Hertford Rd Doncaster East Victoria 3109 Australia,Sporting (Oval), ,12,Timber Pole,Pole Mounted,Small,Double,Floodlight,Unknown,Floodlight,Unknown,Floodlight,Unknown, , , , , , , , ,-37.778244,145.160676
Zerbes Reserve,38-46 Taunton St Doncaster East Victoria 3109 Australia,Walking, ,6,Steel Pole,Pole Bracket,Medium,Single,Greenstreet,Fluo 14W, , , , , , , , , , , , ,-37.77741,145.160314
Zerbes Reserve,8 Saxonwood Dr Doncaster East Victoria 3109 Australia,Car Parking,9129 / 9128,6.5,Concrete Pole,No bracket, , ,Night Watchman / Spotlight,Merc Vap 400W,Night Watchman / Spotlight,Merc Vap 400W, , , , , , , , , , ,-37.778479,145.161239
Zerbes Reserve,38-46 Taunton St Doncaster East Victoria 3109 Australia,Walking, ,6,Steel Pole,Pole Bracket,Medium,Single,Greenstreet,Fluo 14W, , , , , , , , , , , , ,-37.77692,145.15953
Zerbes Reserve,38-46 Taunton St Doncaster East Victoria 3109 Australia,Walking, ,6,Steel Pole,Pole Bracket,Medium,Single,Greenstreet,Fluo 14W, , , , , , , , , , , , ,-37.77726,145.159808
Green Gully Reserve,7A Bronte Rise Templestowe Victoria 3106 Australia,Park/Reserve, ,5,Steel Pole,No bracket, , ,Sylvania B2001,Unknown, , , , , , , , , , , , ,-37.767051,145.161906
Green Gully Reserve,7A Bronte Rise Templestowe Victoria 3106 Australia,Park/Reserve, ,4.5,Steel Pole,Pole Bracket,Medium,Single,Toorak or similar,Unknown, , , , , , , , , , , , ,-37.766666,145.162009
Spring Valley Reserve,10 Mayo Close Templestowe Victoria 3106 Australia,Walking,7065443,6,Steel Pole,Pole Bracket,Small,Single,LRL NXT-24S,LED 41W, , , , , , , , , , , , ,-37.753065,145.159126
Spring Valley Reserve,10 Mayo Close Templestowe Victoria 3106 Australia,Walking,7065462,6,Steel Pole,Pole Bracket,Small,Single,LRL NXT-24S,LED 41W, , , , , , , , , , , , ,-37.752907,145.159794
Spring Valley Reserve,10 Mayo Close Templestowe Victoria 3106 Australia,Walking,9142,6,Steel Pole,Pole Bracket,Medium,Single,LRL NXT-24S,LED 41W, , , , , , , , , , , , ,-37.752908,145.160151
Spring Valley Reserve,10 Mayo Close Templestowe Victoria 3106 Australia,Walking,7065435,6,Steel Pole,Pole Bracket,Small,Single,LRL NXT-24S,LED 41W, , , , , , , , , , , , ,-37.752819,145.159117
Spring Valley Reserve,10 Mayo Close Templestowe Victoria 3106 Australia,Walking,7065434,6,Steel Pole,Pole Bracket,Small,Single,LRL NXT-24S,LED 41W, , , , , , , , , , , , ,-37.75282,145.159457
Aranga Reserve Dog Activity Centre,1 Eastway Ave Donvale Victoria 3111 Australia,Car Parking, ,6,Steel Pole,Pole Bracket,Small,Single,LRL NXT-24S,LED 41W, , , , , , , , , , , , ,-37.80223,145.176997
Aranga Reserve Dog Activity Centre,1 Eastway Ave Donvale Victoria 3111 Australia,Car Parking,7066334,6,Steel Pole,Pole Bracket,Small,Single,LRL NXT-24S,LED 41W, , , , , , , , , , , , ,-37.801763,145.17715
Aranga Reserve Dog Activity Centre,1 Eastway Ave Donvale Victoria 3111 Australia,Car Parking,7066333,6,Steel Pole,Pole Bracket,Small,Single,LRL NXT-24S,LED 41W, , , , , , , , , , , , ,-37.801662,145.177516
BTYC Gymnastics Carpark,6 Creswick St Donvale Victoria 3111 Australia,Car Parking, ,5,Steel Pole,Pole Bracket,Medium,Double,Bourke Hill LED,LED 25W,Bourke Hill LED,LED 25W, , , , , , , , , , ,-37.799705,145.176863
BTYC Gymnastics Carpark,6 Creswick St Donvale Victoria 3111 Australia,Car Parking, ,5,Steel Pole,Pole Bracket,Medium,Double,Bourke Hill LED,LED 25W,Bourke Hill LED,LED 25W, , , , , , , , , , ,-37.799527,145.176902
BTYC Gymnastics Carpark,6 Creswick St Donvale Victoria 3111 Australia,Car Parking, ,5,Steel Pole,Pole Bracket,Medium,Double,Bourke Hill LED,LED 25W,Bourke Hill LED,LED 25W, , , , , , , , , , ,-37.799355,145.176931
BTYC Gymnastics Carpark,6 Creswick St Donvale Victoria 3111 Australia,Car Parking, ,5,Steel Pole,Pole Bracket,Medium,Double,Bourke Hill LED,LED 25W,Bourke Hill LED,LED 25W, , , , , , , , , , ,-37.799187,145.176971
BTYC Gymnastics Carpark,6 Creswick St Donvale Victoria 3111 Australia,Car Parking, ,5,Steel Pole,Pole Bracket,Medium,Double,Bourke Hill LED,LED 25W,Bourke Hill LED,LED 25W, , , , , , , , , , ,-37.799013,145.176994
BTYC Gymnastics Carpark,360-368 Springvale Rd Donvale Victoria 3111 Australia,Car Parking, ,5,Steel Pole,Pole Bracket,Medium,Single,Bourke Hill LED,LED 25W, , , , , , , , , , , , ,-37.799604,145.17718
BTYC Gymnastics Carpark,360-368 Springvale Rd Donvale Victoria 3111 Australia,Car Parking, ,12,Steel Pole,Pole Mounted,Large,Double,Sylvania Roadster,HP Sodium 250W,Sylvania Roadster,HP Sodium 250W, , , , , , , , , , ,-37.799455,145.177236
BTYC Gymnastics Carpark,360-368 Springvale Rd Donvale Victoria 3111 Australia,Walking (carpark), ,4,Steel Pole,No bracket, , ,Small shoebox,Unknown, , , , , , , , , , , , ,-37.799646,145.177482
BTYC Gymnastics Carpark,360-368 Springvale Rd Donvale Victoria 3111 Australia,Walking (carpark), ,4,Steel Pole,No bracket, , ,Small shoebox,Unknown, , , , , , , , , , , , ,-37.799428,145.177512
BTYC Gymnastics Carpark,360-368 Springvale Rd Donvale Victoria 3111 Australia,Car Parking, ,5,Steel Pole,Pole Bracket,Medium,Single,Bourke Hill LED,LED 25W, , , , , , , , , , , , ,-37.799168,145.177271
BTYC Gymnastics Carpark,360-368 Springvale Rd Donvale Victoria 3111 Australia,Walking (carpark), ,4,Steel Pole,No bracket, , ,Small shoebox,Unknown, , , , , , , , , , , , ,-37.799416,145.177582
BTYC Gymnastics Carpark,360-368 Springvale Rd Donvale Victoria 3111 Australia,Walking (carpark), ,4,Steel Pole,No bracket, , ,Small shoebox,Unknown, , , , , , , , , , , , ,-37.799581,145.177647
Tunstall Square Children's Services Centre,75 Maggs St Doncaster East Victoria 3109 Australia,Park/Reserve,7066202,7,Timber Pole,No bracket, , ,Night Watchman / Spotlight,Unknown, , , , , , , , , , , , ,-37.794818,145.169889
Tunstall Square Children's Services Centre,75 Maggs St Doncaster East Victoria 3109 Australia,Park/Reserve,7066201,7,Timber Pole,No bracket, , ,Night Watchman / Spotlight,Unknown, , , , , , , , , , , , ,-37.794755,145.169434
Tunstall Square Carpark,28-30 Tunstall Square Doncaster East Victoria 3109 Australia,Car Parking,9846155,6.5,Steel Pole,Pole Bracket,Medium,Single,LRL NXT-60M,LED 133W, , , , , , , , , , , , ,-37.791696,145.17
Tunstall Square Carpark,1100 Doncaster Rd Doncaster East Victoria 3109 Australia,Car Parking,7066272,17,Concrete Pole,Pole Mounted,Small,Multiple,Sylvania Roadster,HP Sodium 400W,Sylvania Roadster,HP Sodium 400W,Sylvania Roadster,Unknown, , , , , , , , ,-37.79151,145.170364
Tunstall Square Carpark,28-30 Tunstall Square Doncaster East Victoria 3109 Australia,Car Parking,7067003,6.5,Steel Pole,Pole Bracket,Medium,Single,LRL NXT-60M,LED 133W, , , , , , , , , , , , ,-37.791006,145.170149
Donvale Reserve,10 Craileen St Donvale Victoria 3111 Australia,Sporting (Oval), ,20.5,Steel Pole,Pole Mounted,Medium,Multiple,Floodlight,Unknown,Floodlight,Unknown,Floodlight,Unknown, , , , , , , , ,-37.795198,145.174013
Donvale Reserve,10 Craileen St Donvale Victoria 3111 Australia,Sporting (Oval), ,20.5,Steel Pole,Pole Mounted,Medium,Multiple,Floodlight,Unknown,Floodlight,Unknown,Floodlight,Unknown, , , , , , , , ,-37.794221,145.17413
Donvale Reserve,10 Craileen St Donvale Victoria 3111 Australia,Car Parking, ,9,Steel Pole,Pole Bracket,Small,Single,Sylvania Urban,Merc Vap 80W, , , , , , , , , , , , ,-37.793897,145.174168
Donvale Tennis Club,44 Oregon Dr Donvale Victoria 3111 Australia,Sporting (Tennis Court), ,7,Steel Pole,Pole Bracket,Medium,Single,Shoebox,Unknown, , , , , , , , , , , , ,-37.793795,145.174171
Donvale Tennis Club,44 Oregon Dr Donvale Victoria 3111 Australia,Sporting (Tennis Court), ,7,Steel Pole,Pole Bracket,Medium,Double,Shoebox,Unknown,Shoebox,Unknown, , , , , , , , , , ,-37.79386,145.174342
Donvale Reserve,10 Craileen St Donvale Victoria 3111 Australia,Car Parking, ,9,Steel Pole,Pole Bracket,Small,Single,Sylvania Urban,Merc Vap 80W, , , , , , , , , , , , ,-37.793925,145.174419
Donvale Tennis Club,44 Oregon Dr Donvale Victoria 3111 Australia,Sporting (Tennis Court), ,7,Steel Pole,Pole Bracket,Medium,Single,Shoebox,Unknown, , , , , , , , , , , , ,-37.793834,145.174515
Tunstall Square Carpark,28-30 Tunstall Square Doncaster East Victoria 3109 Australia,Car Parking,70x6669,6.5,Steel Pole,Pole Bracket,Medium,Single,LRL NXT-24S,LED 41W, , , , , , , , , , , , ,-37.791085,145.170684
Tunstall Square Carpark,1100 Doncaster Rd Doncaster East Victoria 3109 Australia,Car Parking,7066268,17,Concrete Pole,Pole Mounted,Small,Multiple,Sylvania Roadster,HP Sodium 400W,Sylvania Roadster,HP Sodium 400W,Sylvania Roadster,HP Sodium 150W, , , , , , , , ,-37.790871,145.170496
Donvale Tennis Club,44 Oregon Dr Donvale Victoria 3111 Australia,Sporting (Tennis Court), ,7,Steel Pole,Pole Bracket,Medium,Single,Shoebox,Unknown, , , , , , , , , , , , ,-37.793696,145.174188
Donvale Tennis Club,44 Oregon Dr Donvale Victoria 3111 Australia,Sporting (Tennis Court), ,7,Steel Pole,Pole Bracket,Medium,Single,Shoebox,Unknown, , , , , , , , , , , , ,-37.793588,145.174209
Donvale Tennis Club,44 Oregon Dr Donvale Victoria 3111 Australia,Sporting (Tennis Court), ,7,Steel Pole,Pole Bracket,Medium,Double,Shoebox,Unknown,Shoebox,Unknown, , , , , , , , , , ,-37.793715,145.174373
Donvale Tennis Club,44 Oregon Dr Donvale Victoria 3111 Australia,Sporting (Tennis Court), ,7,Steel Pole,Pole Bracket,Medium,Double,Shoebox,Unknown,Shoebox,Unknown, , , , , , , , , , ,-37.793575,145.174381
Donvale Reserve,5 Epsom Ct Donvale Victoria 3111 Australia,Sporting (Oval), ,27.5,Steel Pole,Pole Mounted,Medium,Multiple,Floodlight,Unknown,Floodlight,Unknown,Floodlight,Unknown, , , , , , , , ,-37.797015,145.1749
Donvale Reserve,5 Epsom Ct Donvale Victoria 3111 Australia,Sporting (Oval), ,27.5,Steel Pole,Pole Mounted,Medium,Multiple,Floodlight,Unknown,Floodlight,Unknown,Floodlight,Unknown, , , , , , , , ,-37.796035,145.175004
Donvale Reserve,5 Epsom Ct Donvale Victoria 3111 Australia,Sporting (Oval), ,22,Steel Pole,Pole Mounted,Medium,Multiple,Floodlight,Unknown,Floodlight,Unknown,Floodlight,Unknown, , , , , , , , ,-37.797163,145.175934
Donvale Reserve,5 Epsom Ct Donvale Victoria 3111 Australia,Sporting (Oval), ,27.5,Steel Pole,Pole Mounted,Medium,Multiple,Floodlight,Unknown,Floodlight,Unknown,Floodlight,Unknown, , , , , , , , ,-37.797142,145.175985
Donvale Reserve,5 Epsom Ct Donvale Victoria 3111 Australia,Sporting (Oval), ,27.5,Steel Pole,Pole Mounted,Medium,Multiple,Floodlight,Unknown,Floodlight,Unknown,Floodlight,Unknown, , , , , , , , ,-37.796126,145.176177
Donvale Reserve,10 Craileen St Donvale Victoria 3111 Australia,Sporting (Oval), ,20.5,Steel Pole,Pole Mounted,Medium,Multiple,Floodlight,Unknown,Floodlight,Unknown,Floodlight,Unknown,Floodlight,Unknown,Floodlight,Unknown, , , , ,-37.795454,145.17501
Donvale Tennis Club,26 Mitcham Rd Donvale Victoria 3111 Australia,Sporting (Tennis Court), ,15,Steel Pole,No bracket, , ,Floodlight,Unknown, , , , , , , , , , , , ,-37.793883,145.17493
Donvale Reserve,10 Craileen St Donvale Victoria 3111 Australia,Sporting (Oval), ,20.5,Steel Pole,Pole Mounted,Medium,Multiple,Floodlight,Unknown,Floodlight,Unknown,Floodlight,Unknown,Floodlight,Unknown,Floodlight,Unknown, , , , ,-37.794356,145.175247
Donvale Tennis Club,26 Mitcham Rd Donvale Victoria 3111 Australia,Sporting (Tennis Court), ,15,Steel Pole,No bracket, , ,Floodlight,Unknown, , , , , , , , , , , , ,-37.793925,145.175302
Donvale Reserve,10 Craileen St Donvale Victoria 3111 Australia,Sporting (Oval), ,20.5,Steel Pole,Pole Mounted,Medium,Multiple,Floodlight,Unknown,Floodlight,Unknown,Floodlight,Unknown,Floodlight,Unknown, , , , , , ,-37.795566,145.175802
Donvale Reserve,10 Craileen St Donvale Victoria 3111 Australia,Sporting (Oval), ,20.5,Steel Pole,Pole Mounted,Medium,Multiple,Floodlight,Unknown,Floodlight,Unknown,Floodlight,Unknown,Floodlight,Unknown, , , , , , ,-37.79445,145.176038
Donvale Reserve,10 Craileen St Donvale Victoria 3111 Australia,Sporting (Oval), ,20.5,Steel Pole,Pole Mounted,Medium,Multiple,Floodlight,Unknown,Floodlight,Unknown,Floodlight,Unknown,Floodlight,Unknown, , , , , , ,-37.795701,145.17662
Donvale Reserve,10 Craileen St Donvale Victoria 3111 Australia,Sporting (Oval), ,20.5,Steel Pole,Pole Mounted,Medium,Multiple,Floodlight,Unknown,Floodlight,Unknown,Floodlight,Unknown,Floodlight,Unknown, , , , , , ,-37.794695,145.176804
Donvale Tennis Club,44 Oregon Dr Donvale Victoria 3111 Australia,Sporting (Tennis Court), ,7,Steel Pole,Pole Bracket,Medium,Single,Shoebox,Unknown, , , , , , , , , , , , ,-37.793743,145.174529
Donvale Tennis Club,44 Oregon Dr Donvale Victoria 3111 Australia,Sporting (Tennis Court), ,7,Steel Pole,Pole Bracket,Medium,Single,Shoebox,Unknown, , , , , , , , , , , , ,-37.793641,145.17455
Donvale Tennis Club,44 Oregon Dr Donvale Victoria 3111 Australia,Sporting (Tennis Court), ,7,Steel Pole,Pole Bracket,Medium,Single,Shoebox,Unknown, , , , , , , , , , , , ,-37.79345,145.174597
Donvale Tennis Club,44 Oregon Dr Donvale Victoria 3111 Australia,Sporting (Tennis Court), ,7,Steel Pole,Pole Bracket,Medium,Single,Shoebox,Unknown, , , , , , , , , , , , ,-37.793353,145.174611
Donvale Tennis Club,44 Oregon Dr Donvale Victoria 3111 Australia,Sporting (Tennis Court), ,7,Steel Pole,Pole Bracket,Medium,Double,Shoebox,Unknown,Shoebox,Unknown, , , , , , , , , , ,-37.79352,145.174766
Donvale Tennis Club,44 Oregon Dr Donvale Victoria 3111 Australia,Sporting (Tennis Court), ,7,Steel Pole,Pole Bracket,Medium,Double,Shoebox,Unknown,Shoebox,Unknown, , , , , , , , , , ,-37.793372,145.174783
Donvale Tennis Club,26 Mitcham Rd Donvale Victoria 3111 Australia,Sporting (Tennis Court), ,15,Steel Pole,No bracket, , ,Floodlight,Unknown, , , , , , , , , , , , ,-37.793598,145.174985
Donvale Tennis Club,44 Oregon Dr Donvale Victoria 3111 Australia,Sporting (Tennis Court), ,7,Steel Pole,Pole Bracket,Medium,Single,Shoebox,Unknown, , , , , , , , , , , , ,-37.793486,145.174942
Donvale Tennis Club,44 Oregon Dr Donvale Victoria 3111 Australia,Sporting (Tennis Court), ,7,Steel Pole,Pole Bracket,Medium,Single,Shoebox,Unknown, , , , , , , , , , , , ,-37.793497,145.175003
Donvale Tennis Club,44 Oregon Dr Donvale Victoria 3111 Australia,Sporting (Tennis Court), ,7,Steel Pole,Pole Bracket,Medium,Single,Shoebox,Unknown, , , , , , , , , , , , ,-37.793389,145.174958
Donvale Tennis Club,44 Oregon Dr Donvale Victoria 3111 Australia,Sporting (Tennis Court), ,7,Steel Pole,Pole Bracket,Medium,Single,Shoebox,Unknown, , , , , , , , , , , , ,-37.793398,145.175023
Donvale Tennis Club,44 Oregon Dr Donvale Victoria 3111 Australia,Sporting (Tennis Court), ,7,Steel Pole,Pole Bracket,Medium,Single,Shoebox,Unknown, , , , , , , , , , , , ,-37.793296,145.174977
Donvale Tennis Club,44 Oregon Dr Donvale Victoria 3111 Australia,Sporting (Tennis Court), ,7,Steel Pole,Pole Bracket,Medium,Single,Shoebox,Unknown, , , , , , , , , , , , ,-37.793297,145.175039
Donvale Tennis Club,44 Oregon Dr Donvale Victoria 3111 Australia,Sporting (Tennis Court), ,7,Steel Pole,Pole Bracket,Medium,Single,Shoebox,Unknown, , , , , , , , , , , , ,-37.793258,145.174627
Donvale Tennis Club,44 Oregon Dr Donvale Victoria 3111 Australia,Sporting (Tennis Court), ,7,Steel Pole,Pole Bracket,Medium,Double,Shoebox,Unknown,Shoebox,Unknown, , , , , , , , , , ,-37.793216,145.174825
Donvale Tennis Club,44 Oregon Dr Donvale Victoria 3111 Australia,Sporting (Tennis Court), ,7,Steel Pole,Pole Bracket,Medium,Double,Shoebox,Unknown,Shoebox,Unknown, , , , , , , , , , ,-37.793567,145.175174
Donvale Tennis Club,44 Oregon Dr Donvale Victoria 3111 Australia,Sporting (Tennis Court), ,7,Steel Pole,Pole Bracket,Medium,Double,Shoebox,Unknown,Shoebox,Unknown, , , , , , , , , , ,-37.793417,145.175203
Donvale Tennis Club,26 Mitcham Rd Donvale Victoria 3111 Australia,Sporting (Tennis Court), ,15,Steel Pole,No bracket, , ,Floodlight,Unknown, , , , , , , , , , , , ,-37.793634,145.175362
Donvale Tennis Club,44 Oregon Dr Donvale Victoria 3111 Australia,Sporting (Tennis Court), ,7,Steel Pole,Pole Bracket,Medium,Single,Shoebox,Unknown, , , , , , , , , , , , ,-37.793531,145.175352
Donvale Tennis Club,44 Oregon Dr Donvale Victoria 3111 Australia,Sporting (Tennis Court), ,7,Steel Pole,Pole Bracket,Medium,Single,Shoebox,Unknown, , , , , , , , , , , , ,-37.793432,145.175362
Donvale Tennis Club,44 Oregon Dr Donvale Victoria 3111 Australia,Sporting (Tennis Court), ,7,Steel Pole,Pole Bracket,Medium,Single,Shoebox,Unknown, , , , , , , , , , , , ,-37.793335,145.175388
Donvale Tennis Club,44 Oregon Dr Donvale Victoria 3111 Australia,Sporting (Tennis Court), ,7,Steel Pole,Pole Bracket,Medium,Double,Shoebox,Unknown,Shoebox,Unknown, , , , , , , , , , ,-37.793269,145.175231
Carpark behind BP on Blackburn Rd,250 Blackburn Rd Doncaster East Victoria 3109 Australia,Car Parking,7071439,5,Steel Pole,Pole Bracket,Small,Single,LRL NXT-24S,LED 41W, , , , , , , , , , , , ,-37.781195,145.163697
Carpark behind BP on Blackburn Rd,250 Blackburn Rd Doncaster East Victoria 3109 Australia,Car Parking,7071438,5,Steel Pole,Pole Bracket,Small,Single,LRL NXT-24S,LED 41W, , , , , , , , , , , , ,-37.781104,145.163724
Carpark behind BP on Blackburn Rd,250 Blackburn Rd Doncaster East Victoria 3109 Australia,Car Parking,7071440,5,Steel Pole,Pole Bracket,Small,Single,LRL NXT-24S,LED 41W, , , , , , , , , , , , ,-37.781199,145.163849
Carpark behind BP on Blackburn Rd,250 Blackburn Rd Doncaster East Victoria 3109 Australia,Car Parking,7071427,5,Steel Pole,Pole Bracket,Small,Single,LRL NXT-24S,LED 41W, , , , , , , , , , , , ,-37.781227,145.163995
Carpark behind BP on Blackburn Rd,250 Blackburn Rd Doncaster East Victoria 3109 Australia,Car Parking,7071428,5,Steel Pole,Pole Bracket,Small,Single,LRL NXT-24S,LED 41W, , , , , , , , , , , , ,-37.781237,145.164099
Carpark behind BP on Blackburn Rd,250 Blackburn Rd Doncaster East Victoria 3109 Australia,Car Parking,7071441,5,Steel Pole,Pole Bracket,Small,Single,LRL NXT-24S,LED 41W, , , , , , , , , , , , ,-37.781087,145.164071
Carpark behind BP on Blackburn Rd,250 Blackburn Rd Doncaster East Victoria 3109 Australia,Car Parking,7071429,5,Steel Pole,Pole Bracket,Small,Single,LRL NXT-24S,LED 41W,LRL NXT-24S,LED 41W, , , , , , , , , , ,-37.781185,145.164232
Carpark behind BP on Blackburn Rd,250 Blackburn Rd Doncaster East Victoria 3109 Australia,Car Parking,7071436,5,Steel Pole,Pole Bracket,Small,Single,LRL NXT-24S,LED 41W, , , , , , , , , , , , ,-37.780784,145.163899
Carpark behind BP on Blackburn Rd,250 Blackburn Rd Doncaster East Victoria 3109 Australia,Car Parking,7071434,5,Steel Pole,Pole Bracket,Small,Single,LRL NXT-24S,LED 41W,LRL NXT-24S,LED 41W, , , , , , , , , , ,-37.780893,145.164287
Carpark behind BP on Blackburn Rd,250 Blackburn Rd Doncaster East Victoria 3109 Australia,Car Parking,7071435,5,Steel Pole,Pole Bracket,Small,Single,LRL NXT-24S,LED 41W, , , , , , , , , , , , ,-37.780823,145.164168
Carpark behind BP on Blackburn Rd,250 Blackburn Rd Doncaster East Victoria 3109 Australia,Car Parking,7071430,5,Steel Pole,Pole Bracket,Small,Single,LRL NXT-24S,LED 41W, , , , , , , , , , , , ,-37.781257,145.164388
Carpark behind BP on Blackburn Rd,250 Blackburn Rd Doncaster East Victoria 3109 Australia,Car Parking,7071431,5,Steel Pole,Pole Bracket,Small,Single,LRL NXT-24S,LED 41W, , , , , , , , , , , , ,-37.781127,145.16445
Carpark behind BP on Blackburn Rd,250 Blackburn Rd Doncaster East Victoria 3109 Australia,Car Parking,7071432,5,Steel Pole,Pole Bracket,Small,Single,LRL NXT-24S,LED 41W, , , , , , , , , , , , ,-37.780995,145.164478
Carpark behind BP on Blackburn Rd,250 Blackburn Rd Doncaster East Victoria 3109 Australia,Car Parking,7071433,5,Steel Pole,Pole Bracket,Small,Single,LRL NXT-24S,LED 41W, , , , , , , , , , , , ,-37.780855,145.164454
Green Gully Reserve,7A Bronte Rise Templestowe Victoria 3106 Australia,Park/Reserve, ,5,Steel Pole,No bracket, , ,Sylvania B2001,Unknown, , , , , , , , , , , , ,-37.767064,145.162479
Anderson Park,193-195 Reynolds Rd Doncaster East Victoria 3109 Australia,Sporting (Square), ,15,Steel Pole,No bracket, , ,Floodlight,Unknown, , , , , , , , , , , , ,-37.765933,145.169315
Anderson Park,193-195 Reynolds Rd Doncaster East Victoria 3109 Australia,Sporting (Square), ,18.5,Steel Pole,Pole Mounted,Small,Double,Floodlight,Unknown,Floodlight,Unknown, , , , , , , , , , ,-37.765698,145.169362
Anderson Park,193-195 Reynolds Rd Doncaster East Victoria 3109 Australia,Sporting (Square), ,18.5,Steel Pole,Pole Mounted,Small,Double,Floodlight,Unknown,Floodlight,Unknown, , , , , , , , , , ,-37.765181,145.169467
Anderson Park,193-195 Reynolds Rd Doncaster East Victoria 3109 Australia,Sporting (Square), ,15,Steel Pole,No bracket, , ,Floodlight,Unknown, , , , , , , , , , , , ,-37.766049,145.170194
Anderson Park,193-195 Reynolds Rd Doncaster East Victoria 3109 Australia,Sporting (Square), ,18.5,Steel Pole,Pole Mounted,Small,Double,Floodlight,Unknown,Floodlight,Unknown, , , , , , , , , , ,-37.765806,145.170243
Anderson Park,193-195 Reynolds Rd Doncaster East Victoria 3109 Australia,Sporting (Square), ,18.5,Steel Pole,Pole Mounted,Small,Double,Floodlight,Unknown,Floodlight,Unknown, , , , , , , , , , ,-37.765294,145.170357
Anderson Park,193-195 Reynolds Rd Doncaster East Victoria 3109 Australia,Car Parking, ,20,Concrete Pole,Pole Mounted,Large,Double,Sylvania Roadster,HP Sodium 150W,Sylvania B3000,HP Sodium 250W, , , , , , , , , , ,-37.765963,145.170537
Jenkins Park,21 Shakespeare Dr Templestowe Victoria 3106 Australia,Walking, ,4.5,Steel Pole (Solar),Pole Bracket,Medium,Single,Bourke Hill LED,LED 25W, , , , , , , , , , , , ,-37.764978,145.16225
Jenkins Park,21 Shakespeare Dr Templestowe Victoria 3106 Australia,Walking, ,4.5,Steel Pole (Solar),Pole Bracket,Medium,Single,Bourke Hill LED,LED 25W, , , , , , , , , , , , ,-37.764327,145.162514
Jenkins Reserve,137 Reynolds Rd Templestowe Victoria 3106 Australia,Walking (tunnel), ,3.5,Wall Mounted,No bracket, , ,Decorative,Unknown, , , , , , , , , , , , ,-37.763123,145.162665
Jenkins Park,21 Shakespeare Dr Templestowe Victoria 3106 Australia,Walking, ,4.5,Steel Pole (Solar),Pole Bracket,Medium,Single,Bourke Hill LED,LED 25W, , , , , , , , , , , , ,-37.76376,145.16295
Jenkins Park,21 Shakespeare Dr Templestowe Victoria 3106 Australia,Walking, ,4.5,Steel Pole (Solar),Pole Bracket,Medium,Single,Bourke Hill LED,LED 25W, , , , , , , , , , , , ,-37.76352,145.163374
Jenkins Reserve,137 Reynolds Rd Templestowe Victoria 3106 Australia,Walking (tunnel), ,3.5,Wall Mounted,No bracket, , ,Decorative,Unknown, , , , , , , , , , , , ,-37.763044,145.162685
Jenkins Reserve,137 Reynolds Rd Templestowe Victoria 3106 Australia,Walking (tunnel), ,3.5,Wall Mounted,No bracket, , ,Decorative,Unknown, , , , , , , , , , , , ,-37.762992,145.162699
Jenkins Reserve,137 Reynolds Rd Templestowe Victoria 3106 Australia,Walking (tunnel), ,3.5,Wall Mounted,No bracket, , ,Decorative,Unknown, , , , , , , , , , , , ,-37.762906,145.162733
Anderson Park,193-195 Reynolds Rd Doncaster East Victoria 3109 Australia,Sporting (Square), ,15,Steel Pole,No bracket, , ,Floodlight,Unknown, , , , , , , , , , , , ,-37.764943,145.169517
Anderson Park,193-195 Reynolds Rd Doncaster East Victoria 3109 Australia,Sporting (Square), ,18.5,Steel Pole,Pole Mounted,Small,Double,Floodlight,Unknown,Floodlight,Unknown, , , , , , , , , , ,-37.765055,145.170399
Pines Shopping Centre Carpark,520 Blackburn Rd Doncaster East Victoria 3109 Australia,Car Parking,7066102,5,Steel Pole,Pole Mounted,Small,Double,LRL NXT-24S,LED 41W,LRL NXT-24S,LED 41W, , , , , , , , , , ,-37.76023,145.168054
Pines Shopping Centre Carpark,520 Blackburn Rd Doncaster East Victoria 3109 Australia,Car Parking,7066103,5,Steel Pole,Pole Mounted,Small,Double,LRL NXT-24S,LED 41W,LRL NXT-24S,LED 41W, , , , , , , , , , ,-37.76042,145.16822
Pines Shopping Centre Carpark,520 Blackburn Rd Doncaster East Victoria 3109 Australia,Car Parking,7065341,5,Steel Pole,Pole Mounted,Small,Double,LRL NXT-24S,LED 41W,LRL NXT-24S,LED 41W, , , , , , , , , , ,-37.760282,145.168392
Pines Shopping Centre Carpark,520 Blackburn Rd Doncaster East Victoria 3109 Australia,Car Parking, ,5,Steel Pole,Pole Mounted,Small,Double,LRL NXT-24S,LED 41W,LRL NXT-24S,LED 41W, , , , , , , , , , ,-37.760459,145.168726
Pines Shopping Centre Carpark,520 Blackburn Rd Doncaster East Victoria 3109 Australia,Car Parking, ,5,Steel Pole,Pole Mounted,Small,Double,LRL NXT-24S,LED 41W,LRL NXT-24S,LED 41W, , , , , , , , , , ,-37.760316,145.168743
Pines Shopping Centre Carpark,510-518 Blackburn Rd Doncaster East Victoria 3109 Australia,Walking, ,1.3,Bollard,No bracket, , ,Bollard,Unknown, , , , , , , , , , , , ,-37.760665,145.169362
Pines Shopping Centre Carpark,510-518 Blackburn Rd Doncaster East Victoria 3109 Australia,Walking, ,1.3,Bollard,No bracket, , ,Bollard,Unknown, , , , , , , , , , , , ,-37.76064,145.169287
Pines Reserve,1B Deloraine Close Doncaster East Victoria 3109 Australia,Park/Reserve, ,5,Steel Pole,Pole Bracket,Medium,Single,Bourke Hill LED,LED 25W, , , , , , , , , , , , ,-37.760681,145.170017
Pines Reserve,1B Deloraine Close Doncaster East Victoria 3109 Australia,Park/Reserve, ,5,Steel Pole,Pole Bracket,Medium,Single,Bourke Hill LED,LED 25W, , , , , , , , , , , , ,-37.76039,145.170139
Manningham City Council Depot Carpark,620-628 Blackburn Rd Templestowe Victoria 3106 Australia,Car Parking, ,8.5,Steel Pole,No bracket, , ,Shoebox,Unknown,Shoebox,Unknown, , , , , , , , , , ,-37.750365,145.16923
Manningham City Council Depot Carpark,620-628 Blackburn Rd Templestowe Victoria 3106 Australia,Car Parking, ,8.5,Steel Pole,No bracket, , ,Shoebox,Unknown,Shoebox,Unknown, , , , , , , , , , ,-37.749891,145.169363
Manningham City Council Depot Carpark,620-628 Blackburn Rd Templestowe Victoria 3106 Australia,Car Parking, ,5.5,Steel Pole,Pole Bracket,Medium,Single,Versalux,Unknown, , , , , , , , , , , , ,-37.750596,145.169734
Manningham City Council Depot Carpark,620-628 Blackburn Rd Templestowe Victoria 3106 Australia,Car Parking, ,3.5,Steel Pole,No bracket, , ,LED Fitting,LED, , , , , , , , , , , , ,-37.750103,145.169557
Manningham City Council Depot Carpark,620-628 Blackburn Rd Templestowe Victoria 3106 Australia,Car Parking, ,4,Steel Pole,No bracket, , ,LED Fitting,LED, , , , , , , , , , , , ,-37.749808,145.169835
Manningham City Council Depot Carpark,620-628 Blackburn Rd Templestowe Victoria 3106 Australia,Car Parking, ,8.5,Steel Pole,No bracket, , ,Shoebox,Unknown,Shoebox,Unknown, , , , , , , , , , ,-37.74968,145.169463
Anderson Park,193-195 Reynolds Rd Doncaster East Victoria 3109 Australia,Sporting (Hockey), ,18.5,Steel Pole,Pole Mounted,Small,Double,Floodlight,Unknown,Floodlight,Unknown, , , , , , , , , , ,-37.765096,145.170894
Anderson Park,193-195 Reynolds Rd Doncaster East Victoria 3109 Australia,Sporting (Square), ,20,Steel Pole,Pole Mounted,Small,Multiple,Floodlight,Unknown,Floodlight,Unknown,Floodlight,Unknown, , , , , , , , ,-37.764795,145.170764
Pines Reserve,17 Ashton Rise Doncaster East Victoria 3109 Australia,Walking, ,4.5,Steel Pole,No bracket, , ,LED Fitting (Leadsun),LED,LED Fitting (Leadsun),LED, , , , , , , , , , ,-37.760632,145.17062
Manningham City Council Depot Carpark,620-628 Blackburn Rd Templestowe Victoria 3106 Australia,Car Parking, ,7,Concrete Pole,No bracket, , ,Night Watchman / Spotlight,Unknown, , , , , , , , , , , , ,-37.75104,145.170751
Manningham City Council Depot Carpark,620-628 Blackburn Rd Templestowe Victoria 3106 Australia,Car Parking, ,6.5,Concrete Pole,Pole Mounted,Medium,Single,Sylvania B2222,Unknown, , , , , , , , , , , , ,-37.751567,145.171458
Manningham City Council Depot Carpark,620-628 Blackburn Rd Templestowe Victoria 3106 Australia,Car Parking, ,6.5,Concrete Pole,Pole Mounted,Medium,Single,Sylvania B2222,Unknown, , , , , , , , , , , , ,-37.751356,145.171525
Manningham City Council Depot Carpark,620-628 Blackburn Rd Templestowe Victoria 3106 Australia,Car Parking, ,6.5,Concrete Pole,Pole Mounted,Medium,Single,Sylvania B2222,Unknown, , , , , , , , , , , , ,-37.751134,145.171608
Manningham City Council Depot Carpark,620-628 Blackburn Rd Templestowe Victoria 3106 Australia,Car Parking, ,6.5,Concrete Pole,Pole Mounted,Medium,Single,Sylvania B2222,Unknown, , , , , , , , , , , , ,-37.750919,145.171691
Manningham City Council Depot Carpark,620-628 Blackburn Rd Templestowe Victoria 3106 Australia,Car Parking, ,6.5,Concrete Pole,Pole Mounted,Medium,Single,Sylvania B2222,Unknown, , , , , , , , , , , , ,-37.750736,145.171742
Doncaster Baseball Club,Warrandyte Rd Doncaster East Victoria 3109 Australia,Sporting (Baseball), ,20,Steel Pole,Pole Mounted,Medium,Multiple,Floodlight,Unknown,Floodlight,Unknown,Floodlight,Unknown, , , , , , , , ,-37.751598,145.17449
Doncaster Baseball Club,Warrandyte Rd Doncaster East Victoria 3109 Australia,Sporting (Baseball), ,20,Steel Pole,Pole Mounted,Medium,Multiple,Floodlight,Unknown,Floodlight,Unknown, , , , , , , , , , ,-37.751253,145.174331
Doncaster Baseball Club,Warrandyte Rd Doncaster East Victoria 3109 Australia,Sporting (Baseball), ,20,Steel Pole,Pole Mounted,Medium,Multiple,Floodlight,Unknown,Floodlight,Unknown, , , , , , , , , , ,-37.750752,145.174408
Doncaster Baseball Club,Warrandyte Rd Doncaster East Victoria 3109 Australia,Sporting (Baseball), ,20,Steel Pole,Pole Mounted,Medium,Multiple,Floodlight,Unknown,Floodlight,Unknown,Floodlight,Unknown, , , , , , , , ,-37.751703,145.174883
Doncaster Baseball Club,Warrandyte Rd Doncaster East Victoria 3109 Australia,Sporting (Baseball), ,20,Steel Pole,Pole Mounted,Medium,Multiple,Floodlight,Unknown,Floodlight,Unknown, , , , , , , , , , ,-37.751498,145.175265
Doncaster Baseball Club,Warrandyte Rd Doncaster East Victoria 3109 Australia,Sporting (Baseball), ,20,Steel Pole,Pole Mounted,Medium,Multiple,Floodlight,Unknown,Floodlight,Unknown, , , , , , , , , , ,-37.751065,145.175608
Doncaster Baseball Club,Warrandyte Rd Doncaster East Victoria 3109 Australia,Sporting (Baseball), ,20,Steel Pole,Pole Mounted,Medium,Multiple,Floodlight,Unknown,Floodlight,Unknown, , , , , , , , , , ,-37.75064,145.17491
Doncaster Baseball Club,Warrandyte Rd Doncaster East Victoria 3109 Australia,Sporting (Baseball), ,20,Steel Pole,Pole Mounted,Medium,Multiple,Floodlight,Unknown,Floodlight,Unknown, , , , , , , , , , ,-37.750773,145.175353
Valepark Reserve,41 Valepark Dr Donvale Victoria 3111 Australia,Walking, ,6,Steel Pole,Pole Bracket,Medium,Single,Sylvania StreetLED,LED 18W, , , , , , , , , , , , ,-37.777176,145.179648
Valepark Reserve,41 Valepark Dr Donvale Victoria 3111 Australia,Walking, ,6,Steel Pole,Pole Bracket,Medium,Single,Sylvania StreetLED,LED 18W, , , , , , , , , , , , ,-37.777308,145.180191
Donvale Bowls Club,1-7 Springvale Rd Donvale Victoria 3111 Australia,Sporting (Lawn bowl), ,8,Steel Pole,Pole Bracket,Medium,Single,Shoebox,Unknown, , , , , , , , , , , , ,-37.767776,145.183729
Currawong Tennis Club,1-7 Springvale Rd Donvale Victoria 3111 Australia,Sporting (Tennis Court), ,16,Steel Pole,No bracket, , ,Floodlight,Unknown, , , , , , , , , , , , ,-37.768287,145.184301
Currawong Tennis Club,1-7 Springvale Rd Donvale Victoria 3111 Australia,Sporting (Tennis Court), ,16,Steel Pole,Pole Mounted,Small,Double,Floodlight,Unknown,Floodlight,Unknown, , , , , , , , , , ,-37.768333,145.184654
Donvale Bowls Club,1-7 Springvale Rd Donvale Victoria 3111 Australia,Sporting (Lawn bowl), ,8,Steel Pole,Pole Bracket,Medium,Single,Shoebox,Unknown, , , , , , , , , , , , ,-37.76789,145.183848
Donvale Bowls Club,1-7 Springvale Rd Donvale Victoria 3111 Australia,Sporting (Lawn bowl), ,8,Steel Pole,Pole Bracket,Medium,Single,Shoebox,Unknown, , , , , , , , , , , , ,-37.76792,145.184064
Donvale Bowls Club,1-7 Springvale Rd Donvale Victoria 3111 Australia,Sporting (Lawn bowl), ,8,Steel Pole,Pole Bracket,Medium,Single,Shoebox,Unknown, , , , , , , , , , , , ,-37.767833,145.184221
Donvale Bowls Club,1-7 Springvale Rd Donvale Victoria 3111 Australia,Sporting (Lawn bowl), ,8,Steel Pole,Pole Bracket,Medium,Single,Shoebox,Unknown, , , , , , , , , , , , ,-37.767602,145.183762
Donvale Bowls Club,1-7 Springvale Rd Donvale Victoria 3111 Australia,Sporting (Lawn bowl), ,8,Steel Pole,Pole Bracket,Medium,Single,Shoebox,Unknown, , , , , , , , , , , , ,-37.767508,145.183929
Donvale Bowls Club,1-7 Springvale Rd Donvale Victoria 3111 Australia,Sporting (Lawn bowl), ,8,Steel Pole,Pole Bracket,Medium,Single,Shoebox,Unknown, , , , , , , , , , , , ,-37.767666,145.184246
Donvale Bowls Club,1-7 Springvale Rd Donvale Victoria 3111 Australia,Sporting (Lawn bowl), ,8,Steel Pole,Pole Bracket,Medium,Single,Shoebox,Unknown, , , , , , , , , , , , ,-37.767526,145.18415
Mullum Mullum Sports Pavilion Carpark,1-7 Springvale Rd Donvale Victoria 3111 Australia,Car Parking, ,6.5,Steel Pole,Pole Bracket,Medium,Double,Bourke Hill LED,LED 25W,Bourke Hill LED,LED 25W, , , , , , , , , , ,-37.767376,145.184062
Currawong Tennis Club,1-7 Springvale Rd Donvale Victoria 3111 Australia,Sporting (Tennis Court), ,16,Steel Pole,No bracket, , ,Floodlight,Unknown, , , , , , , , , , , , ,-37.76798,145.184366
Currawong Tennis Club,1-7 Springvale Rd Donvale Victoria 3111 Australia,Sporting (Tennis Court), ,16,Steel Pole,Pole Mounted,Small,Double,Floodlight,Unknown,Floodlight,Unknown, , , , , , , , , , ,-37.768021,145.184716
Donvale Hockey Club,1-7 Springvale Rd Donvale Victoria 3111 Australia,Sporting (Hockey), ,21,Steel Pole,Pole Mounted,Medium,Multiple,Floodlight,Unknown,Floodlight,Unknown,Floodlight,Unknown,Floodlight,Unknown,Floodlight,Unknown,Floodlight,Unknown, , ,-37.766685,145.183108
Donvale Hockey Club,1-7 Springvale Rd Donvale Victoria 3111 Australia,Sporting (Hockey), ,21,Steel Pole,Pole Mounted,Medium,Multiple,Floodlight,Unknown,Floodlight,Unknown,Floodlight,Unknown,Floodlight,Unknown,Floodlight,Unknown, , , , ,-37.76675,145.183671
Donvale Hockey Club,1-7 Springvale Rd Donvale Victoria 3111 Australia,Sporting (Hockey), ,21,Steel Pole,Pole Mounted,Medium,Multiple,Floodlight,Unknown,Floodlight,Unknown,Floodlight,Unknown,Floodlight,Unknown,Floodlight,Unknown,Floodlight,Unknown, , ,-37.766079,145.183251
Mullum Mullum Sports Pavilion Carpark,1-7 Springvale Rd Donvale Victoria 3111 Australia,Car Parking, ,6.5,Steel Pole,Pole Bracket,Medium,Double,Bourke Hill LED,LED 25W,Bourke Hill LED,LED 25W, , , , , , , , , , ,-37.767111,145.184112
Mullum Mullum Sports Pavilion Carpark,1-7 Springvale Rd Donvale Victoria 3111 Australia,Car Parking, ,6.5,Steel Pole,Pole Bracket,Medium,Double,Bourke Hill LED,LED 25W,Bourke Hill LED,LED 25W, , , , , , , , , , ,-37.766903,145.184062
Donvale Hockey Club,1-7 Springvale Rd Donvale Victoria 3111 Australia,Sporting (Hockey), ,21,Steel Pole,Pole Mounted,Medium,Multiple,Floodlight,Unknown,Floodlight,Unknown,Floodlight,Unknown,Floodlight,Unknown,Floodlight,Unknown,Floodlight,Unknown, , ,-37.766782,145.184165
Currawong Tennis Club Carpark,1-7 Springvale Rd Donvale Victoria 3111 Australia,Car Parking, ,7,Steel Pole,Pole Bracket,Medium,Single,Bourke Hill LED,LED 25W, , , , , , , , , , , , ,-37.766815,145.184572
Donvale Hockey Club,1-7 Springvale Rd Donvale Victoria 3111 Australia,Sporting (Hockey), ,21,Steel Pole,Pole Mounted,Medium,Multiple,Floodlight,Unknown,Floodlight,Unknown,Floodlight,Unknown,Floodlight,Unknown,Floodlight,Unknown,Floodlight,Unknown, , ,-37.766198,145.184316
Currawong Tennis Club Carpark,1-7 Springvale Rd Donvale Victoria 3111 Australia,Car Parking, ,7,Steel Pole,Pole Bracket,Medium,Single,Bourke Hill LED,LED 25W, , , , , , , , , , , , ,-37.766358,145.184582
Donvale Hockey Club,1-7 Springvale Rd Donvale Victoria 3111 Australia,Sporting (Hockey), ,21,Steel Pole,Pole Mounted,Medium,Multiple,Floodlight,Unknown,Floodlight,Unknown,Floodlight,Unknown,Floodlight,Unknown,Floodlight,Unknown, , , , ,-37.766136,145.183782
Currawong Tennis Club Carpark,1-7 Springvale Rd Donvale Victoria 3111 Australia,Car Parking, ,5,Steel Pole,Pole Bracket,Medium,Single,Bourke Hill LED,LED 25W, , , , , , , , , , , , ,-37.768593,145.184864
Currawong Tennis Club,1-7 Springvale Rd Donvale Victoria 3111 Australia,Sporting (Tennis Court), ,16,Steel Pole,Pole Mounted,Small,Double,Floodlight,Unknown,Floodlight,Unknown, , , , , , , , , , ,-37.768376,145.185004
Currawong Tennis Club Carpark,1-7 Springvale Rd Donvale Victoria 3111 Australia,Car Parking, ,5,Steel Pole,Pole Bracket,Medium,Single,Bourke Hill LED,LED 25W, , , , , , , , , , , , ,-37.768532,145.185024
Currawong Tennis Club Carpark,1-7 Springvale Rd Donvale Victoria 3111 Australia,Car Parking, ,5,Steel Pole,Pole Bracket,Medium,Single,Bourke Hill LED,LED 25W, , , , , , , , , , , , ,-37.768618,145.185449
Currawong Tennis Club,1-7 Springvale Rd Donvale Victoria 3111 Australia,Sporting (Tennis Court), ,16,Steel Pole,No bracket, , ,Floodlight,Unknown, , , , , , , , , , , , ,-37.768423,145.185357
Currawong Tennis Club Carpark,1-7 Springvale Rd Donvale Victoria 3111 Australia,Car Parking, ,5,Steel Pole,Pole Bracket,Medium,Single,Bourke Hill LED,LED 25W, , , , , , , , , , , , ,-37.768338,145.185529
Currawong Tennis Club,1-7 Springvale Rd Donvale Victoria 3111 Australia,Sporting (Tennis Court), ,16,Steel Pole,Pole Mounted,Small,Double,Floodlight,Unknown,Floodlight,Unknown, , , , , , , , , , ,-37.76806,145.185066
Currawong Tennis Club Carpark,1-7 Springvale Rd Donvale Victoria 3111 Australia,Car Parking, ,7,Steel Pole,Pole Bracket,Medium,Double,Bourke Hill LED,LED 25W,Bourke Hill LED,LED 25W, , , , , , , , , , ,-37.76723,145.184797
Currawong Tennis Club Carpark,1-7 Springvale Rd Donvale Victoria 3111 Australia,Car Parking, ,7,Steel Pole,Pole Bracket,Medium,Double,Bourke Hill LED,LED 25W,Bourke Hill LED,LED 25W, , , , , , , , , , ,-37.767511,145.185057
Currawong Tennis Club,1-7 Springvale Rd Donvale Victoria 3111 Australia,Sporting (Tennis Court), ,16,Steel Pole,No bracket, , ,Floodlight,Unknown, , , , , , , , , , , , ,-37.768108,145.185428
Currawong Tennis Club Carpark,1-7 Springvale Rd Donvale Victoria 3111 Australia,Car Parking, ,7,Steel Pole,Pole Bracket,Medium,Double,Bourke Hill LED,LED 25W,Bourke Hill LED,LED 25W, , , , , , , , , , ,-37.7679,145.185584
Currawong Bush Park Carpark,Reedpollock Dr Donvale Victoria 3113 Australia,Car Parking, ,4.5,Steel Pole,Pole Bracket,Small,Single,Toorak,Unknown, , , , , , , , , , , , ,-37.762221,145.184547
Currawong Bush Park Carpark,Reedpollock Dr Donvale Victoria 3113 Australia,Car Parking, ,4.5,Steel Pole,Pole Bracket,Small,Single,Toorak,Unknown, , , , , , , , , , , , ,-37.761979,145.184386
Currawong Bush Park Carpark,Reedpollock Dr Donvale Victoria 3113 Australia,Car Parking, ,4.5,Steel Pole,Pole Bracket,Small,Single,Toorak,Unknown, , , , , , , , , , , , ,-37.761583,145.184461
Currawong Bush Park Carpark,Reedpollock Dr Donvale Victoria 3113 Australia,Car Parking, ,4.5,Steel Pole,Pole Bracket,Small,Single,Toorak,Comp Fluor, , , , , , , , , , , , ,-37.761944,145.184612
Currawong Bush Park Carpark,Reedpollock Dr Donvale Victoria 3113 Australia,Car Parking, ,4.5,Steel Pole,Pole Bracket,Small,Single,Toorak,Unknown, , , , , , , , , , , , ,-37.761754,145.184599
Currawong Bush Park Carpark,Reedpollock Dr Donvale Victoria 3113 Australia,Car Parking, ,4.5,Steel Pole,Pole Bracket,Small,Single,Toorak,Unknown, , , , , , , , , , , , ,-37.763326,145.185131
Currawong Bush Park Carpark,Reedpollock Dr Donvale Victoria 3113 Australia,Car Parking, ,4.5,Steel Pole,Pole Bracket,Small,Single,Toorak,Unknown, , , , , , , , , , , , ,-37.763144,145.185164
Currawong Bush Park Carpark,Reedpollock Dr Donvale Victoria 3113 Australia,Car Parking, ,4.5,Steel Pole,Pole Bracket,Small,Single,Toorak,Comp Fluor, , , , , , , , , , , , ,-37.763302,145.185329
Currawong Bush Park Carpark,Reedpollock Dr Donvale Victoria 3113 Australia,Car Parking, ,4.5,Steel Pole,Pole Bracket,Small,Single,Toorak,Unknown, , , , , , , , , , , , ,-37.762874,145.184974
Currawong Bush Park Carpark,Reedpollock Dr Donvale Victoria 3113 Australia,Car Parking, ,4.5,Steel Pole,Pole Bracket,Small,Single,Toorak,Comp Fluor, , , , , , , , , , , , ,-37.76254,145.184904
Currawong Bush Park Carpark,Reedpollock Dr Donvale Victoria 3113 Australia,Car Parking, ,4.5,Steel Pole,Pole Bracket,Small,Single,Toorak,Unknown, , , , , , , , , , , , ,-37.761722,145.184811
Stintons Reserve,39-49 Stintons Rd Park Orchards Victoria 3114 Australia,Sporting (Oval), ,24,Steel Pole,Pole Mounted,Medium,Multiple,Floodlight,Unknown,Floodlight,Unknown,Floodlight,Unknown, , , , , , , , ,-37.767819,145.203573
Stintons Reserve,39-49 Stintons Rd Park Orchards Victoria 3114 Australia,Sporting (Oval), ,24,Steel Pole,Pole Mounted,Medium,Multiple,Floodlight,Unknown,Floodlight,Unknown,Floodlight,Unknown, , , , , , , , ,-37.767787,145.204595
Stintons Reserve,39-49 Stintons Rd Park Orchards Victoria 3114 Australia,Car Parking, ,8,Steel Pole,No bracket, , ,Sylvania StreetLED,LED 18W, , , , , , , , , , , , ,-37.767466,145.204786
Stintons Reserve,39-49 Stintons Rd Park Orchards Victoria 3114 Australia,Sporting (Oval), ,24,Steel Pole,Pole Mounted,Medium,Multiple,Floodlight,Unknown,Floodlight,Unknown,Floodlight,Unknown, , , , , , , , ,-37.766737,145.203599
Stintons Reserve,39-49 Stintons Rd Park Orchards Victoria 3114 Australia,Sporting (Oval), ,24,Steel Pole,Pole Mounted,Medium,Multiple,Floodlight,Unknown,Floodlight,Unknown,Floodlight,Unknown, , , , , , , , ,-37.766741,145.204639
Park Rd Tennis Club,568-574 Park Rd Park Orchards Victoria 3114 Australia,Sporting (Tennis Court), ,16,Steel Pole,Pole Mounted,Medium,Double,Floodlight,Unknown,Floodlight,Unknown, , , , , , , , , , ,-37.77859,145.213826
Park Rd Tennis Club,568-574 Park Rd Park Orchards Victoria 3114 Australia,Sporting (Tennis Court), ,16,Steel Pole,Pole Mounted,Medium,Double,Floodlight,Unknown,Floodlight,Unknown, , , , , , , , , , ,-37.778614,145.214195
Park Rd Tennis Club,568-574 Park Rd Park Orchards Victoria 3114 Australia,Sporting (Tennis Court), ,16,Steel Pole,Pole Mounted,Medium,Double,Floodlight,Unknown,Floodlight,Unknown, , , , , , , , , , ,-37.778807,145.214215
Park Rd Tennis Club,568-574 Park Rd Park Orchards Victoria 3114 Australia,Sporting (Tennis Court), ,16,Steel Pole,Pole Mounted,Medium,Double,Floodlight,Unknown,Floodlight,Unknown, , , , , , , , , , ,-37.778539,145.214251
Park Rd Tennis Club,568-574 Park Rd Park Orchards Victoria 3114 Australia,Sporting (Tennis Court), ,16,Steel Pole,Pole Mounted,Medium,Double,Floodlight,Unknown,Floodlight,Unknown, , , , , , , , , , ,-37.778296,145.213858
Park Rd Tennis Club,568-574 Park Rd Park Orchards Victoria 3114 Australia,Sporting (Tennis Court), ,16,Steel Pole,Pole Mounted,Medium,Double,Floodlight,Unknown,Floodlight,Unknown, , , , , , , , , , ,-37.778161,145.213848
Park Rd Tennis Club,568-574 Park Rd Park Orchards Victoria 3114 Australia,Sporting (Tennis Court), ,16,Steel Pole,Pole Mounted,Medium,Double,Floodlight,Unknown,Floodlight,Unknown, , , , , , , , , , ,-37.777872,145.213899
Park Rd Tennis Club,568-574 Park Rd Park Orchards Victoria 3114 Australia,Sporting (Tennis Court), ,16,Steel Pole,Pole Mounted,Medium,Double,Floodlight,Unknown,Floodlight,Unknown, , , , , , , , , , ,-37.778335,145.214235
Park Rd Tennis Club,568-574 Park Rd Park Orchards Victoria 3114 Australia,Sporting (Tennis Court), ,16,Steel Pole,Pole Mounted,Medium,Double,Floodlight,Unknown,Floodlight,Unknown,Small spotlight,Unknown,Small spotlight,Unknown,Small spotlight,Unknown, , , , ,-37.77819,145.214218
Park Rd Tennis Club,568-574 Park Rd Park Orchards Victoria 3114 Australia,Sporting (Tennis Court), ,16,Steel Pole,Pole Mounted,Medium,Double,Floodlight,Unknown,Floodlight,Unknown, , , , , , , , , , ,-37.777893,145.214297
Park Rd Tennis Club,568-574 Park Rd Park Orchards Victoria 3114 Australia,Sporting (Tennis Court), ,16,Steel Pole,Pole Mounted,Medium,Double,Floodlight,Unknown,Floodlight,Unknown, , , , , , , , , , ,-37.778846,145.214595
Park Rd Tennis Club,568-574 Park Rd Park Orchards Victoria 3114 Australia,Sporting (Tennis Court), ,16,Steel Pole,Pole Mounted,Medium,Double,Floodlight,Unknown,Floodlight,Unknown, , , , , , , , , , ,-37.778565,145.214629
Domeney Recreation Reserve,33-35 Knees Rd Park Orchards Victoria 3114 Australia,Car Parking, ,5,Steel Pole,Pole Bracket,Small,Single,Bourke Hill LED,LED 25W, , , , , , , , , , , , ,-37.774622,145.217834
Domeney Recreation Reserve,33-35 Knees Rd Park Orchards Victoria 3114 Australia,Car Parking, ,5,Steel Pole,Pole Bracket,Small,Single,Bourke Hill LED,LED 25W, , , , , , , , , , , , ,-37.77448,145.217958
Domeney Recreation Reserve,33-35 Knees Rd Park Orchards Victoria 3114 Australia,Car Parking, ,7.5,Steel Pole,Pole Bracket,Small,Single,Sylvania Urban,Unknown, , , , , , , , , , , , ,-37.774933,145.218155
Domeney Recreation Reserve,24-52 Knees Rd Park Orchards Victoria 3114 Australia,Car Parking,MA5778224,11.5,Timber Pole,Pole Mounted,Small,Single,Floodlight,Unknown, , , , , , , , , , , , ,-37.774843,145.218349
Domeney Recreation Reserve,24-52 Knees Rd Park Orchards Victoria 3114 Australia,Sporting (Oval), ,21.5,Steel Pole,Pole Mounted,Small,Double,Floodlight,Unknown,Floodlight,Unknown, , , , , , , , , , ,-37.774737,145.218433
Domeney Recreation Reserve,33-35 Knees Rd Park Orchards Victoria 3114 Australia,Car Parking, ,7.5,Steel Pole,Pole Bracket,Small,Single,Bourke Hill LED,LED 25W, , , , , , , , , , , , ,-37.774145,145.217624
Domeney Recreation Reserve,33-35 Knees Rd Park Orchards Victoria 3114 Australia,Car Parking, ,7.5,Steel Pole,Pole Bracket,Small,Single,Bourke Hill LED,LED 25W, , , , , , , , , , , , ,-37.774273,145.217851
Domeney Recreation Reserve,33-35 Knees Rd Park Orchards Victoria 3114 Australia,Car Parking, ,7.5,Steel Pole,Pole Bracket,Small,Single,Bourke Hill LED,LED 25W, , , , , , , , , , , , ,-37.773781,145.217656
Domeney Recreation Reserve,24-52 Knees Rd Park Orchards Victoria 3114 Australia,Car Parking,MA5778226,11.5,Timber Pole,Pole Mounted,Small,Single,Floodlight,Unknown, , , , , , , , , , , , ,-37.774322,145.218216
Domeney Recreation Reserve,33-35 Knees Rd Park Orchards Victoria 3114 Australia,Car Parking, ,4.5,Steel Pole,Pole Bracket,Medium,Single,Bourke Hill LED,LED 25W, , , , , , , , , , , , ,-37.773765,145.218522
Domeney Recreation Reserve,24-52 Knees Rd Park Orchards Victoria 3114 Australia,Car Parking, ,5,Steel Pole (Solar),Pole Bracket,Medium,Single,Toorak or similar,Unknown, , , , , , , , , , , , ,-37.775109,145.218618
Domeney Recreation Reserve,24-52 Knees Rd Park Orchards Victoria 3114 Australia,Car Parking, ,5,Steel Pole (Solar),Pole Bracket,Medium,Single,Toorak or similar,Unknown, , , , , , , , , , , , ,-37.775228,145.218826
Domeney Recreation Reserve,24-52 Knees Rd Park Orchards Victoria 3114 Australia,Sporting (Oval), ,15,Concrete Pole,Pole Mounted,Small,Double,Floodlight,Unknown,Floodlight,Unknown, , , , , , , , , , ,-37.774877,145.21957
Domeney Recreation Reserve,24-52 Knees Rd Park Orchards Victoria 3114 Australia,Sporting (Oval), ,15,Concrete Pole,Pole Mounted,Small,Double,Floodlight,Unknown,Floodlight,Unknown, , , , , , , , , , ,-37.77396,145.218706
Domeney Recreation Reserve,24-52 Knees Rd Park Orchards Victoria 3114 Australia,Sporting (Oval), ,15,Concrete Pole,Pole Mounted,Small,Double,Floodlight,Unknown,Floodlight,Unknown, , , , , , , , , , ,-37.774227,145.219727
Coleman Reserve,44-48 Colman Rd Warrandyte South Victoria 3134 Australia,Sporting (Oval), ,9,Steel Pole,Pole Mounted,Medium,Double,Floodlight,Unknown,Floodlight,Unknown, , , , , , , , , , ,-37.766679,145.237023
Coleman Reserve,44-48 Colman Rd Warrandyte South Victoria 3134 Australia,Sporting (Oval), ,9,Steel Pole,Pole Mounted,Medium,Double,Floodlight,Unknown,Floodlight,Unknown, , , , , , , , , , ,-37.766631,145.237094
Coleman Reserve,44-48 Colman Rd Warrandyte South Victoria 3134 Australia,Sporting (Oval), ,20,Steel Pole,Pole Mounted,Medium,Double,Floodlight,Unknown,Floodlight,Unknown, , , , , , , , , , ,-37.766677,145.237593
Coleman Reserve,44-48 Colman Rd Warrandyte South Victoria 3134 Australia,Sporting (Oval), ,20,Steel Pole,Pole Mounted,Medium,Double,Floodlight,Unknown,Floodlight,Unknown, , , , , , , , , , ,-37.766122,145.236993
Coleman Reserve,44-48 Colman Rd Warrandyte South Victoria 3134 Australia,Sporting (Oval), ,15,Steel Pole,Pole Mounted,Medium,Single,Floodlight,Unknown, , , , , , , , , , , , ,-37.765703,145.237479
Coleman Reserve, ,Sporting (Oval), ,15,Steel Pole,Pole Mounted,Medium,Single,Floodlight,Unknown, , , , , , , , , , , , ,-37.765585,145.237957
Coleman Reserve,26-44 Colman Rd Warrandyte South Victoria 3134 Australia,Sporting (Tennis Court), ,15,Steel Pole,No bracket, , ,Floodlight,Unknown, , , , , , , , , , , , ,-37.767395,145.238826
Coleman Reserve,26-44 Colman Rd Warrandyte South Victoria 3134 Australia,Sporting (Tennis Court), ,15,Steel Pole,No bracket, , ,Floodlight,Unknown, , , , , , , , , , , , ,-37.767422,145.239164
Coleman Reserve,26-44 Colman Rd Warrandyte South Victoria 3134 Australia,Sporting (Tennis Court), ,15,Steel Pole,No bracket, , ,Floodlight,Unknown, , , , , , , , , , , , ,-37.767079,145.238874
Coleman Reserve,26-44 Colman Rd Warrandyte South Victoria 3134 Australia,Sporting (Tennis Court), ,15,Steel Pole,No bracket, , ,Floodlight,Unknown, , , , , , , , , , , , ,-37.767046,145.23888
Coleman Reserve,26-44 Colman Rd Warrandyte South Victoria 3134 Australia,Sporting (Tennis Court), ,15,Steel Pole,No bracket, , ,Floodlight,Unknown, , , , , , , , , , , , ,-37.766737,145.238937
Coleman Reserve, ,Sporting (Oval), ,20,Steel Pole,Pole Mounted,Medium,Double,Floodlight,Unknown,Floodlight,Unknown, , , , , , , , , , ,-37.766048,145.238304
Coleman Reserve,26-44 Colman Rd Warrandyte South Victoria 3134 Australia,Sporting (Tennis Court), ,15,Steel Pole,No bracket, , ,Floodlight,Unknown, , , , , , , , , , , , ,-37.767107,145.239219
Coleman Reserve,26-44 Colman Rd Warrandyte South Victoria 3134 Australia,Sporting (Tennis Court), ,15,Steel Pole,No bracket, , ,Floodlight,Unknown, , , , , , , , , , , , ,-37.767081,145.239234
Coleman Reserve,26-44 Colman Rd Warrandyte South Victoria 3134 Australia,Sporting (Tennis Court), ,15,Steel Pole,No bracket, , ,Floodlight,Unknown, , , , , , , , , , , , ,-37.766784,145.23929
Westerfold Park,71-73 Fitzsimons Ln Templestowe Victoria 3106 Australia,Car Parking, ,4,Steel Pole,Pole Bracket,Small,Single,LRL NXT-24S,LED 41W, , , , , , , , , , , , ,-37.746914,145.135466
Westerfold Park,71-73 Fitzsimons Ln Templestowe Victoria 3106 Australia,Car Parking, ,4,Steel Pole,Pole Bracket,Small,Single,LRL NXT-24S,LED 41W, , , , , , , , , , , , ,-37.746714,145.135505
Westerfold Park,Templestowe Victoria Australia,Car Parking, ,4,Steel Pole,Pole Bracket,Small,Single,LRL NXT-24S,LED 41W, , , , , , , , , , , , ,-37.744582,145.134658
Mullum Mullum Creek Linear Park,3 The Pkwy Templestowe Victoria 3106 Australia,Walking,5657325,5,Steel Pole,Pole Bracket,Medium,Single,Bourke Hill LED,LED 25W, , , , , , , , , , , , ,-37.746222,145.172251
Warrandyte Reserve,402 Heidelberg-Warrandyte Rd Warrandyte Victoria 3113 Australia,Car Parking,5800074,9,Concrete Pole,Pole Mounted,Large,Single,Floodlight,Unknown,Floodlight,Unknown, , , , , , , , , , ,-37.745955,145.206944
Warrandyte Reserve,8 Taroona Ave Warrandyte Victoria 3113 Australia,Car Parking,1204622,6.5,Timber Pole,No bracket, , ,Night Watchman / Spotlight,Unknown,Night Watchman / Spotlight,Unknown, , , , , , , , , , ,-37.745645,145.207281
Warrandyte Reserve,2 Taroona Ave Warrandyte Victoria 3113 Australia,Sporting (Oval), ,20.5,Steel Pole,Pole Mounted,Medium,Double,Floodlight,Unknown,Floodlight,Unknown, , , , , , , , , , ,-37.744733,145.207025
Warrandyte Reserve,402 Heidelberg-Warrandyte Rd Warrandyte Victoria 3113 Australia,Sporting (Oval), ,20,Steel Pole,Pole Mounted,Medium,Multiple,Floodlight,Unknown,Floodlight,Unknown,Floodlight,Unknown, , , , , , , , ,-37.746788,145.208689
Warrandyte Reserve,402 Heidelberg-Warrandyte Rd Warrandyte Victoria 3113 Australia,Car Parking,5800077,9,Steel Pole,Pole Mounted,Large,Single,Sylvania Roadster,HP Sodium 150W, , , , , , , , , , , , ,-37.746664,145.207319
Warrandyte Reserve,402 Heidelberg-Warrandyte Rd Warrandyte Victoria 3113 Australia,Sporting (Oval), ,11,Timber Pole,Pole Mounted,Medium,Multiple,Floodlight,Unknown,Floodlight,Unknown,Floodlight,Unknown, , , , , , , , ,-37.746569,145.207567
Warrandyte Reserve,402 Heidelberg-Warrandyte Rd Warrandyte Victoria 3113 Australia,Sporting (Oval), ,20,Steel Pole,Pole Mounted,Medium,Multiple,Floodlight,Unknown,Floodlight,Unknown,Floodlight,Unknown, , , , , , , , ,-37.745895,145.207734
Warrandyte Reserve,8 Taroona Ave Warrandyte Victoria 3113 Australia,Sporting (Tennis Court), ,13,Steel Pole,No bracket, , ,Floodlight,Unknown, , , , , , , , , , , , ,-37.745532,145.207829
Warrandyte Reserve,8 Taroona Ave Warrandyte Victoria 3113 Australia,Sporting (Tennis Court), ,15,Steel Pole,No bracket, , ,Floodlight,Unknown,Floodlight,Unknown, , , , , , , , , , ,-37.745532,145.20799
Warrandyte Reserve,8 Taroona Ave Warrandyte Victoria 3113 Australia,Sporting (Tennis Court), ,13,Steel Pole,No bracket, , ,Floodlight,Unknown, , , , , , , , , , , , ,-37.745194,145.207862
Warrandyte Reserve,8 Taroona Ave Warrandyte Victoria 3113 Australia,Sporting (Tennis Court), ,15,Steel Pole,No bracket, , ,Floodlight,Unknown,Floodlight,Unknown, , , , , , , , , , ,-37.745223,145.208016
Warrandyte Reserve,8 Taroona Ave Warrandyte Victoria 3113 Australia,Sporting (Tennis Court), ,15,Steel Pole,No bracket, , ,Floodlight,Unknown,Floodlight,Unknown, , , , , , , , , , ,-37.745548,145.208274
Warrandyte Reserve,8 Taroona Ave Warrandyte Victoria 3113 Australia,Sporting (Tennis Court), ,15,Steel Pole,No bracket, , ,Floodlight,Unknown,Floodlight,Unknown, , , , , , , , , , ,-37.745237,145.208307
Warrandyte Reserve,2 Taroona Ave Warrandyte Victoria 3113 Australia,Sporting (Oval), ,20.5,Steel Pole,Pole Mounted,Medium,Double,Floodlight,Unknown,Floodlight,Unknown, , , , , , , , , , ,-37.744797,145.207974
Warrandyte Reserve,402 Heidelberg-Warrandyte Rd Warrandyte Victoria 3113 Australia,Sporting (Oval), ,20,Steel Pole,Pole Mounted,Medium,Multiple,Floodlight,Unknown,Floodlight,Unknown,Floodlight,Unknown, , , , , , , , ,-37.745952,145.208845
Warrandyte Reserve,8 Taroona Ave Warrandyte Victoria 3113 Australia,Sporting (Tennis Court), ,15,Steel Pole,No bracket, , ,Floodlight,Unknown,Floodlight,Unknown, , , , , , , , , , ,-37.745568,145.208638
Warrandyte Reserve,8 Taroona Ave Warrandyte Victoria 3113 Australia,Sporting (Tennis Court), ,15,Steel Pole,No bracket, , ,Floodlight,Unknown, , , , , , , , , , , , ,-37.745558,145.20882
Warrandyte Reserve,8 Taroona Ave Warrandyte Victoria 3113 Australia,Sporting (Tennis Court), ,15,Steel Pole,No bracket, , ,Floodlight,Unknown,Floodlight,Unknown, , , , , , , , , , ,-37.745258,145.208669
Warrandyte Reserve,8 Taroona Ave Warrandyte Victoria 3113 Australia,Sporting (Tennis Court), ,15,Steel Pole,No bracket, , ,Floodlight,Unknown, , , , , , , , , , , , ,-37.745263,145.208845
Mitchell Ave Carpark,5 Webb St Warrandyte Victoria 3113 Australia,Car Parking, ,4.5,Steel Pole,No bracket, , ,Floodlight,Unknown, , , , , , , , , , , , ,-37.738093,145.220082
Mitchell Ave Carpark,5 Mitchell Ave Warrandyte Victoria 3113 Australia,Walking, ,1,Bollard,No bracket, , ,Bollard,Comp Fluor, , , , , , , , , , , , ,-37.737919,145.220063
Mitchell Ave Carpark,5 Mitchell Ave Warrandyte Victoria 3113 Australia,Walking, ,1,Bollard,No bracket, , ,Bollard,Comp Fluor, , , , , , , , , , , , ,-37.737751,145.220091
Mitchell Ave Carpark,5 Webb St Warrandyte Victoria 3113 Australia,Car Parking, ,4.5,Steel Pole,No bracket, , ,Floodlight,Unknown, , , , , , , , , , , , ,-37.737986,145.220572
Mitchell Ave Carpark,5 Mitchell Ave Warrandyte Victoria 3113 Australia,Walking, ,1,Bollard,No bracket, , ,Bollard,Comp Fluor, , , , , , , , , , , , ,-37.737876,145.220135
Mitchell Ave Carpark,5 Mitchell Ave Warrandyte Victoria 3113 Australia,Walking, ,1,Bollard,No bracket, , ,Bollard,Comp Fluor, , , , , , , , , , , , ,-37.737835,145.220118
Mitchell Ave Carpark,5 Webb St Warrandyte Victoria 3113 Australia,Car Parking, ,4.5,Steel Pole,No bracket, , ,Floodlight,Unknown, , , , , , , , , , , , ,-37.737874,145.220348
Wanga Park Cricket Club,9-13 Old Yarra Rd Wonga Park Victoria 3115 Australia,Sporting (Soccer), ,18,Steel Pole,Pole Mounted,Small,Multiple,Floodlight,Unknown,Floodlight,Unknown,Floodlight,Unknown, , , , , , , , ,-37.73914,145.265526
Wanga Park Cricket Club,9-13 Old Yarra Rd Wonga Park Victoria 3115 Australia,Sporting (Soccer), ,18,Steel Pole,Pole Mounted,Small,Multiple,Floodlight,Unknown,Floodlight,Unknown,Floodlight,Unknown, , , , , , , , ,-37.739671,145.266278
Wanga Park Cricket Club,9-13 Old Yarra Rd Wonga Park Victoria 3115 Australia,Sporting (Soccer), ,18,Steel Pole,Pole Mounted,Small,Multiple,Floodlight,Unknown,Floodlight,Unknown,Floodlight,Unknown, , , , , , , , ,-37.738717,145.265934
Wonga Park,9-13 Old Yarra Rd Wonga Park Victoria 3115 Australia,Sporting (Basketball), ,10,Steel Pole,Pole Mounted,Medium,Double,Floodlight,Unknown,Floodlight,Unknown, , , , , , , , , , ,-37.739593,145.266889
Wonga Park,9-13 Old Yarra Rd Wonga Park Victoria 3115 Australia,Sporting (Basketball), ,10,Steel Pole,Pole Mounted,Small,Double,Floodlight,Unknown,Floodlight,Unknown, , , , , , , , , , ,-37.739648,145.267324
Wanga Park Cricket Club,9-13 Old Yarra Rd Wonga Park Victoria 3115 Australia,Sporting (Soccer), ,18,Steel Pole,Pole Mounted,Small,Multiple,Floodlight,Unknown,Floodlight,Unknown,Floodlight,Unknown, , , , , , , , ,-37.739161,145.266803
Wonga Park,9-13 Old Yarra Rd Wonga Park Victoria 3115 Australia,Car Parking, ,7.5,Steel Pole,Pole Mounted,Medium,Single,LRL NXT-60M,LED 133W, , , , , , , , , , , , ,-37.739232,145.26717
Wonga Park,9-13 Old Yarra Rd Wonga Park Victoria 3115 Australia,Car Parking, ,7.5,Steel Pole,Pole Mounted,Medium,Single,LRL NXT-60M,LED 133W, , , , , , , , , , , , ,-37.738969,145.267167
Wonga Park,9-13 Old Yarra Rd Wonga Park Victoria 3115 Australia,Car Parking, ,7.5,Steel Pole,Pole Mounted,Medium,Single,LRL NXT-60M,LED 133W, , , , , , , , , , , , ,-37.738661,145.267077
Wonga Park Hall,1-3 Launders Ave Wonga Park Victoria 3115 Australia,Sporting (Tennis Court), ,8,Steel Pole,No bracket, , ,Shoebox,Unknown, , , , , , , , , , , , ,-37.740102,145.269213
Wonga Park Hall,1-3 Launders Ave Wonga Park Victoria 3115 Australia,Sporting (Tennis Court), ,8,Steel Pole,No bracket, , ,Shoebox,Unknown, , , , , , , , , , , , ,-37.740023,145.269225
Wonga Park Hall,1-3 Launders Ave Wonga Park Victoria 3115 Australia,Sporting (Tennis Court), ,8,Steel Pole,No bracket, , ,Shoebox,Unknown, , , , , , , , , , , , ,-37.739927,145.269221
Wonga Park Hall,1-3 Launders Ave Wonga Park Victoria 3115 Australia,Sporting (Tennis Court), ,8,Steel Pole,No bracket, , ,Shoebox,Unknown, , , , , , , , , , , , ,-37.739776,145.269125
Wonga Park Hall,1-3 Launders Ave Wonga Park Victoria 3115 Australia,Sporting (Tennis Court), ,8,Steel Pole,No bracket, , ,Shoebox,Unknown, , , , , , , , , , , , ,-37.739705,145.26912
Wonga Park Hall,1-3 Launders Ave Wonga Park Victoria 3115 Australia,Sporting (Tennis Court), ,8,Steel Pole,No bracket, , ,Shoebox,Unknown, , , , , , , , , , , , ,-37.739634,145.269121
Wonga Park Hall,1-3 Launders Ave Wonga Park Victoria 3115 Australia,Sporting (Tennis Court), ,8,Steel Pole,Pole Bracket,Small,Double,Shoebox,Unknown,Shoebox,Unknown, , , , , , , , , , ,-37.740127,145.269401
Wonga Park Hall,1-3 Launders Ave Wonga Park Victoria 3115 Australia,Sporting (Tennis Court), ,8,Steel Pole,No bracket, , ,Shoebox,Unknown, , , , , , , , , , , , ,-37.740122,145.269604
Wonga Park Hall,1-3 Launders Ave Wonga Park Victoria 3115 Australia,Sporting (Tennis Court), ,8,Steel Pole,No bracket, , ,Shoebox,Unknown, , , , , , , , , , , , ,-37.739846,145.269297
Wonga Park Hall,1-3 Launders Ave Wonga Park Victoria 3115 Australia,Sporting (Tennis Court), ,8,Steel Pole,Pole Bracket,Small,Double,Shoebox,Unknown,Shoebox,Unknown, , , , , , , , , , ,-37.739876,145.269369
Wonga Park Hall,1-3 Launders Ave Wonga Park Victoria 3115 Australia,Sporting (Tennis Court), ,8,Steel Pole,No bracket, , ,Shoebox,Unknown,Shoebox,Unknown, , , , , , , , , , ,-37.740004,145.269388
Wonga Park Hall,1-3 Launders Ave Wonga Park Victoria 3115 Australia,Sporting (Tennis Court), ,8,Steel Pole,No bracket, , ,Shoebox,Unknown, , , , , , , , , , , , ,-37.739838,145.269448
Wonga Park Hall,1-3 Launders Ave Wonga Park Victoria 3115 Australia,Sporting (Tennis Court), ,8,Steel Pole,No bracket, , ,Shoebox,Unknown,Shoebox,Unknown, , , , , , , , , , ,-37.739698,145.269286
Wonga Park Hall,1-3 Launders Ave Wonga Park Victoria 3115 Australia,Sporting (Tennis Court), ,8,Steel Pole,No bracket, , ,Shoebox,Unknown, , , , , , , , , , , , ,-37.739553,145.269277
Wonga Park Hall,1-3 Launders Ave Wonga Park Victoria 3115 Australia,Sporting (Tennis Court), ,8,Steel Pole,No bracket, , ,Shoebox,Unknown,Shoebox,Unknown, , , , , , , , , , ,-37.739693,145.26945
Wonga Park Hall,1-3 Launders Ave Wonga Park Victoria 3115 Australia,Sporting (Tennis Court), ,8,Steel Pole,No bracket, , ,Shoebox,Unknown, , , , , , , , , , , , ,-37.739545,145.269436
Wonga Park Hall,1-3 Launders Ave Wonga Park Victoria 3115 Australia,Sporting (Tennis Court), ,8,Steel Pole,No bracket, , ,Shoebox,Unknown, , , , , , , , , , , , ,-37.740009,145.269608
Wonga Park Hall,1-3 Launders Ave Wonga Park Victoria 3115 Australia,Sporting (Tennis Court), ,8,Steel Pole,No bracket, , ,Shoebox,Unknown, , , , , , , , , , , , ,-37.739924,145.269589
Wonga Park Hall,1-3 Launders Ave Wonga Park Victoria 3115 Australia,Sporting (Tennis Court), ,8,Steel Pole,No bracket, , ,Shoebox,Unknown, , , , , , , , , , , , ,-37.739782,145.26962
Wonga Park Hall,1-3 Launders Ave Wonga Park Victoria 3115 Australia,Sporting (Tennis Court), ,8,Steel Pole,No bracket, , ,Shoebox,Unknown, , , , , , , , , , , , ,-37.739687,145.269624
Wonga Park Hall,1-3 Launders Ave Wonga Park Victoria 3115 Australia,Sporting (Tennis Court), ,8,Steel Pole,No bracket, , ,Shoebox,Unknown, , , , , , , , , , , , ,-37.739617,145.269616
Wonga Park Hall,1-3 Launders Ave Wonga Park Victoria 3115 Australia,Sporting (Tennis Court), ,8,Steel Pole,No bracket, , ,Shoebox,Unknown, , , , , , , , , , , , ,-37.739363,145.269243
Wonga Park Hall,1-3 Launders Ave Wonga Park Victoria 3115 Australia,Sporting (Tennis Court), ,8,Steel Pole,No bracket, , ,Shoebox,Unknown, , , , , , , , , , , , ,-37.739289,145.269236
Wonga Park Hall,1-3 Launders Ave Wonga Park Victoria 3115 Australia,Sporting (Tennis Court), ,7,Steel Pole,Pole Bracket,Medium,Single,Shoebox,Unknown, , , , , , , , , , , , ,-37.739142,145.269146
Wonga Park Hall,1-3 Launders Ave Wonga Park Victoria 3115 Australia,Sporting (Tennis Court), ,7,Steel Pole,Pole Bracket,Medium,Single,Shoebox,Unknown, , , , , , , , , , , , ,-37.739045,145.269133
Wonga Park Hall,1-3 Launders Ave Wonga Park Victoria 3115 Australia,Sporting (Tennis Court), ,7,Steel Pole,Pole Bracket,Medium,Single,Shoebox,Unknown, , , , , , , , , , , , ,-37.738948,145.269124
Wonga Park Hall,1-3 Launders Ave Wonga Park Victoria 3115 Australia,Sporting (Tennis Court), ,8,Steel Pole,No bracket, , ,Shoebox,Unknown, , , , , , , , , , , , ,-37.739431,145.269249
Wonga Park Hall,1-3 Launders Ave Wonga Park Victoria 3115 Australia,Sporting (Tennis Court), ,8,Steel Pole,No bracket, , ,Shoebox,Unknown, , , , , , , , , , , , ,-37.739499,145.269418
Wonga Park Hall,1-3 Launders Ave Wonga Park Victoria 3115 Australia,Sporting (Tennis Court), ,8,Steel Pole,No bracket, , ,Shoebox,Unknown,Shoebox,Unknown, , , , , , , , , , ,-37.739351,145.269417
Wonga Park Hall,1-3 Launders Ave Wonga Park Victoria 3115 Australia,Sporting (Tennis Court), ,7,Steel Pole,Pole Bracket,Medium,Single,Shoebox,Unknown, , , , , , , , , , , , ,-37.739138,145.269319
Wonga Park Hall,1-3 Launders Ave Wonga Park Victoria 3115 Australia,Sporting (Tennis Court), ,7,Steel Pole,Pole Bracket,Medium,Single,Shoebox,Unknown, , , , , , , , , , , , ,-37.73904,145.269324
Wonga Park Hall,1-3 Launders Ave Wonga Park Victoria 3115 Australia,Sporting (Tennis Court), ,8,Steel Pole,No bracket, , ,Shoebox,Unknown, , , , , , , , , , , , ,-37.739205,145.269406
Wonga Park Hall,1-3 Launders Ave Wonga Park Victoria 3115 Australia,Sporting (Tennis Court), ,8,Steel Pole,No bracket, , ,Shoebox,Unknown, , , , , , , , , , , , ,-37.73942,145.269588
Wonga Park Hall,1-3 Launders Ave Wonga Park Victoria 3115 Australia,Sporting (Tennis Court), ,8,Steel Pole,No bracket, , ,Shoebox,Unknown, , , , , , , , , , , , ,-37.739357,145.269589
Wonga Park Hall,1-3 Launders Ave Wonga Park Victoria 3115 Australia,Sporting (Tennis Court), ,8,Steel Pole,No bracket, , ,Shoebox,Unknown, , , , , , , , , , , , ,-37.739245,145.26958
Wonga Park Hall,1-3 Launders Ave Wonga Park Victoria 3115 Australia,Sporting (Tennis Court), ,7,Steel Pole,Pole Bracket,Medium,Single,Shoebox,Unknown, , , , , , , , , , , , ,-37.738937,145.269314
Wonga Village Centre Carpark,2 Launders Ave Wonga Park Victoria 3115 Australia,Car Parking,1203423,7.5,Concrete Pole,No bracket, , ,Night Watchman / Spotlight,Unknown,Night Watchman / Spotlight,Unknown, , , , , , , , , , ,-37.738472,145.270208
